{"type": "FeatureCollection", "features": [{"type": "Feature", "properties": {"identifier": "031a557b-144c-4ffb-91c6-04830475c6e0", "name": "Alte M\u00fchle Wolfhalden ", "description": "<p>1789 liess M\u00fcllermeister H.H. Z\u00fcrcher am Gstaldenbach in Wolfhalden ein stattliches, f\u00fcnfgeschossiges Geb\u00e4ude errichten. Im Geb\u00e4ude befanden sich sowohl die Wohnung f\u00fcr die Familie als auch eine Mahlm\u00fchle, eine B\u00e4ckerei und eine Wirtschaft. Z\u00fcrcher liess W\u00e4nde und Decke in der Stube vollst\u00e4ndig bemalen. Die Malereien sind gut erhalten und machen das Ensemble zu einem einzigartigen Schatz.</p><p>Die Alte M\u00fchle liegt in der Gemeinde Wolfhalden, im Tobel, Hinterergeten, nahe der Grenze zu Heiden. \u00d6ffentliche F\u00fchrungen finden jeweils am letzten Samstag in den Monaten Mai, Juni, Juli, August und September statt. \u00c4nderungen vorbehalten.&nbsp;</p><p>Start:&nbsp;14.00 Uhr<br>Die Alte M\u00fchle Wolfhalden liegt circa 10 Gehminuten vom Bahnhof Heiden entfernt.</p><p>Kosten:&nbsp;Kollekte zugunsten des Vereins pro Alte M\u00fchle Wolfhalden&nbsp;</p><p>Anmeldung:&nbsp;erforderlich</p><p>Gebuchte F\u00fchrungen sind auf Anfrage m\u00f6glich.<br>Teilnehmerzahl:&nbsp; max. 20 Personen</p><p>Kosten: CHF 110.00</p><div>Dauer: 45 bis 60 Minuten</div><p><br></p>", "image": "https://alarpimtsoch.sos-ch-dk-2.exoscale-cdn.com/catalog/9/1/3/2/9132d4e7fa66b2209ef46546ecf398b7bdde296d_M__hle.jpg", "openstreetmap_id": "12414096234"}, "geometry": {"type": "Point", "coordinates": ["9.537875566539226", "47.44479863545972"]}}, {"type": "Feature", "properties": {"identifier": "039c361e-45c7-4377-ac31-7cdf81319920", "name": "Feuerstelle Begegnungsplatz Obergaden", "url": "https://www.wald-ar.ch/", "image": "https://alarpimtsoch.sos-ch-dk-2.exoscale-cdn.com/catalog/f/5/c/7/f5c70ef53b10e6366f7d8f9153e5c2f805553248_IMG_20220227_115820.jpg", "openstreetmap_id": "2055682339"}, "geometry": {"type": "Point", "coordinates": ["9.500684738159181", "47.41462121771943"]}}, {"type": "Feature", "properties": {"identifier": "04529049-8690-4a7f-a1eb-4d96db6d397f", "name": "Feuerstelle Oberer Ast", "description": "Feuerstelle Oberer Ast", "url": "https://www.trogen.ch/", "image": "https://alarpimtsoch.sos-ch-dk-2.exoscale-cdn.com/catalog/2/7/9/4/27941f8fd038228b8e6fda4a81cf888d227b3e5b_12_2020_trogen_oberer_ast.jpg", "openstreetmap_id": "10748538981"}, "geometry": {"type": "Point", "coordinates": ["9.4649953", "47.3976981"]}}, {"type": "Feature", "properties": {"identifier": "05bc0646-9108-4123-92e9-e9a34f160bfa", "name": "Brauqu\u00f6ll Besucherzentrum der Brauerei Locher AG", "description": "Die Brauerei Locher AG wurde 1886 von der Familie Locher erworben und ist heute die einzige Brauerei im Appenzellerland. Das unabh\u00e4ngige Familienunternehmen braut schon in f\u00fcnfter Generation f\u00fcr ihre Kundschaft und erlangt f\u00fcr seine Bierspezialit\u00e4ten sowie ihre traditionellen Biere Anerkennung.\n\nDie Biere werden noch handwerklich und nach \u00fcberlieferten Verfahren hergestellt, wobei den Rohstoffen und der Nachhaltigkeit besondere Aufmerksamkeit gewidmet wird. Lassen Sie sich von der Faszination \u00fcberlieferter Braukunst mitreissen! Entdecken Sie, wie aus qu\u00f6llfrischem Wasser das Appenzeller Bier und der S\u00e4ntis Malt Whisky entstehen. \nVerschiedene Degustationen bringen Ihnen die unvergleichlich frischen Biere und den gehaltvollen S\u00e4ntis Malt nahe. \n\nJeweils am Donnerstag um 10:15 Uhr (ausgenommen Feiertage) wird eine Appenzeller Bier-Degustation f\u00fcr Einzelbesucher angeboten. Sie k\u00f6nnen ohne Voranmeldung teilnehmen. \nDauer: ca. 60 Minuten\nMindestalter: 16 Jahre\nSprache: Deutsch\nKosten: CHF 14.00 pro Person \n\n\nF\u00fcr Gruppen k\u00f6nnen verschiedene Degustationen auf Anfrage organisiert werden. Pro F\u00fchrung max. 25 Personen m\u00f6glich.", "url": "http://www.brauqu\u00f6ll.ch", "image": "https://alarpimtsoch.sos-ch-dk-2.exoscale-cdn.com/catalog/7/9/d/a/79dae4102ad3ccb9dcf8b24b62fab9bac26b78ea_Brauquoell_1440x600_e0212dba.jpg", "openstreetmap_id": "4229854758"}, "geometry": {"type": "Point", "coordinates": ["9.4124588", "47.3309868"]}}, {"type": "Feature", "properties": {"identifier": "07bad375-69a4-4b04-b7a7-77dd0ddccf0b", "name": "Walderlebnisraum Gais", "description": "Der Walderlebnisraum Gais ist eingebettet in vielf\u00e4ltige W\u00e4lder und bl\u00fchende Streuwiesen. Das Ziel ist, Erwachsenen und Schulklassen diese Lebensr\u00e4ume mit ihren Pflanzen und Tieren, ihren Funktionen, der Bewirtschaftung und Entwicklung mit viel Praxisbezug n\u00e4her zu bringen. Der Walderlebnisraum kann zwischen Mai und Oktober und abends bis 21:00 Uhr genutzt werden.\n\nIdeal f\u00fcr Schulen, Familien, Vereine oder Firmen - es steht ein breites Angebot zur Verf\u00fcgung: \n1. Waldhaus mit Tischen und B\u00e4nken, Toilette, Feuer- und Wasserstelle, Kochutensilien, Unterrichtsmaterialien, Spiele\n2. F\u00fchrungen von rund einer Stunde durch Waldp\u00e4dagoginnen / Fachpersonen zu einem ausgew\u00e4hlten Naturthema wie B\u00e4ume, Str\u00e4ucher, Waldtiere, V\u00f6gel, Insekten, nachhaltige Waldbewirtschaftung, Funktionen des Waldes \n3. \u00abNaturpfad der Sinne\u00bb mit 50 Tafeln und Objekten, Barfussweg, Waldxylophon\n4. \u00abBarfussweg\u00bb als Erlebnis mit zahlreichen Anreizen, unter Einbezug verschiedenster nat\u00fcrlicher Materialien, die der Wald hergibt\n\nF\u00fcr Schulen und Jugendorganisationen aus Appenzell Ausserrhoden \u00fcbernimmt die Bertold-Suhner-Stiftung die Kosten f\u00fcr Miete Waldhaus, F\u00fchrung sowie An- und R\u00fcckreise mit \u00d6V.  F\u00fcr Schulen und Jugendorganisationen der Kantone Appenzell Innerrhoden und St. Gallen tr\u00e4gt die Steinegg Stiftung die Kosten f\u00fcr Miete Waldhaus und F\u00fchrung.  \n\nDauer F\u00fchrung: ca. 1 Stunde\nTeilnehmer: 10 bis 25 Personen\nKosten Miete Waldhaus: Halbtag CHF 100.00 / ganzer Tag CHF 150.00 (Mitglieder CHF 50.00 / CHF 100.00)\nKosten F\u00fchrungen: pauschal CHF 80.00", "url": "https://www.walderlebnisraum.ch", "image": "https://alarpimtsoch.sos-ch-dk-2.exoscale-cdn.com/catalog/2/a/4/9/2a49d54cf9ef10ea72ffeee16907a9d3648cd9c1_WER_Waldhaus_mit_Brunnen_und_Feuerstelle_Hansj__rg_H__rler_180630_4121__2_.JPG", "openstreetmap_id": "10786736711"}, "geometry": {"type": "Point", "coordinates": ["9.49963", "47.35453"]}}, {"type": "Feature", "properties": {"identifier": "0876b2fa-3062-465f-896f-d1fa6b43f8e2", "name": "Feuerstelle Zitt\u00e4feli", "url": "http://www.rehetobel.ch/de/", "image": "https://alarpimtsoch.sos-ch-dk-2.exoscale-cdn.com/catalog/d/4/1/2/d4125d8d09a73cfa66253c1c8a5ec33a1c32623e_08_2020_rehetobel_zitt__feli.jpg", "openstreetmap_id": "310811521"}, "geometry": {"type": "Point", "coordinates": ["9.4899777", "47.4276629"]}}, {"type": "Feature", "properties": {"identifier": "08d9be42-9fc4-4c77-ab31-7620a4c11a9a", "name": "Feuerstelle Schochenberg", "url": "http://www.herisau.ch/de/", "image": "https://alarpimtsoch.sos-ch-dk-2.exoscale-cdn.com/catalog/9/c/6/b/9c6bcaa2397524f1cd9e8ce8d32cd91654625ab5_PXL_20231103_130030083.jpg", "openstreetmap_id": "554562370"}, "geometry": {"type": "Point", "coordinates": ["9.272621870040895", "47.3966896547258"]}}, {"type": "Feature", "properties": {"identifier": "0a7830ae-cdbe-494e-9d1f-2169e7d427d2", "name": "Feuerstelle Bisersweid", "url": "http://www.stein-ar.ch/de/", "image": "https://alarpimtsoch.sos-ch-dk-2.exoscale-cdn.com/catalog/3/2/6/8/326896069f2fc5eefa92b92fa1bbad636d0b43bc_Feuerstelle.jpg", "openstreetmap_id": "5770562566"}, "geometry": {"type": "Point", "coordinates": ["9.3353104", "47.3725286"]}}, {"type": "Feature", "properties": {"identifier": "0d9fbeeb-3f6b-479f-b410-1a3e8effa30d", "name": "Feuerstelle EWU-H\u00fcsli", "description": "<p>Direkt am Bach, der Urn&auml;sch, von hohen B&auml;umen umgeben ist die Feuerstelle H&uuml;sli. Die Feuerstelle ist die letzte Station des Lillywegs. Die Urn&auml;sch nebenan l&auml;dt an warmen Tagen zum Baden oder planschen ein. Erreichbar ist sie bequem zu Fuss von der Postautohaltestelle H&uuml;sli oder &uuml;ber den Lilliyweg.</p><p>Vorhanden ist:\u202f</p><ul><li>Feuerstelle mit Rost und Sitzb&auml;nke</li><li>Brennholz</li><li>Abfallbeh&auml;lter</li><li>mobiles WC auf der anderen Bachseite</li></ul>", "image": "https://alarpimtsoch.sos-ch-dk-2.exoscale-cdn.com/catalog/2/e/d/3/2ed351b414f06af413c40fcebd7c054c99483365_08_2020_urn__sch_ewuh__sli__2_.jpg", "openstreetmap_id": "2414629593"}, "geometry": {"type": "Point", "coordinates": ["9.27725672721863", "47.28699842653004"]}}, {"type": "Feature", "properties": {"identifier": "100fcc79-3d2e-4f46-8c73-424a95248cfd", "name": "Appenzeller Brauchtumsmuseum", "description": "Im Mittelpunkt stehen Silvesterchl\u00e4use, Alpfahrt, Sennenleben, Bauernmalerei und Streichmusik. Probieren Sie Chlausen mit Rollentr\u00e4gern, Talerschwingen und Hackbrett oder Zither spielen - ein echtes Erlebnis! Regelm\u00e4ssige Sonderausstellungen verleihen dem Museum einen zeitgen\u00f6ssischen Glanz. Buchen Sie einen Naturjodelkurs, einen Workshop f\u00fcr Schulklassen oder eine mehrsprachige F\u00fchrung im Museum.\n\nAlle Museen im Appenzellerland finden Sie unter: www.museen-im-appenzellerland.ch", "url": "http://www.museum-urnaesch.ch/", "image": "https://alarpimtsoch.sos-ch-dk-2.exoscale-cdn.com/catalog/f/6/2/6/f6264d8ad88469167621839aaa4ba100f0abdd12_16108_1060_komprimiert__2.jpg", "openstreetmap_id": "node/3203881554"}, "geometry": {"type": "Point", "coordinates": ["9.2827771", "47.3172338"]}}, {"type": "Feature", "properties": {"identifier": "121ec096-4e96-43bb-9e6e-bd8d0a5920f0", "name": "Feuerstelle Unterhalb Mitledi", "url": "https://verkehrsvereinhundwil.ch/", "image": "https://alarpimtsoch.sos-ch-dk-2.exoscale-cdn.com/catalog/3/f/d/f/3fdfdd07df26efed7f21bd9e564bc61abaf6a2b7_Feuerstelle.jpg", "openstreetmap_id": "460303360"}, "geometry": {"type": "Point", "coordinates": ["9.310875535011293", "47.3569958542085"]}}, {"type": "Feature", "properties": {"identifier": "12b158c5-11e1-44f4-adec-66cdfd2ea29f", "name": "Figurentheater-Museum & Figurentheater", "description": "<p class=\"MsoNormal\"><span style=\"mso-bidi-font-size: 11.0pt; line-height: 115%;\">Im Dorfkern von Herisau, in einem typischen alten Appenzellerhaus l&auml;sst das Figurentheatermuseum Besucherinnen und Besucher eintauchen in die fantasievolle, bunte Welt des Figurentheaters. Auf insgesamt drei Stockwerken gibt es verschiedene Marionetten, Handpuppen und andere Figuren zu entdecken und allerlei Spannendes zu erfahren. Jedes Jahr wird eine andere spannende Schweizer B&uuml;hne portr&auml;tiert. Die Jahresausstellung wird jeweils durch thematische Pr&auml;sentationen aus der hauseigenen Sammlung erg&auml;nzt &ndash; so lassen sich immer wieder neue Facetten des Figurenspiels entdecken und beleuchten.&nbsp;</span></p><p class=\"MsoNormal\"><span style=\"mso-bidi-font-size: 11.0pt; line-height: 115%;\">Das Museum kann auf Anfrage exklusiv reserviert werden; zudem sind F&uuml;hrungen f&uuml;r Gruppen mit oder ohne Ap&eacute;ro buchbar.</span></p><p class=\"MsoNormal\"><strong><span style=\"mso-bidi-font-size: 11.0pt; line-height: 115%;\">Strolchi erwartet die kleinen Besucherinnen und Besucher</span></strong><span style=\"mso-bidi-font-size: 11.0pt; line-height: 115%;\"><br>Die Katze Strolchi begleitet Kinder auf einem liebevoll gestalteten Spiel- und Erlebnisweg mit interaktiven Stationen durch das Haus und l&auml;sst sie selbst zu Puppenspielerinnen und Puppenspielern werden.</span></p><p class=\"MsoNormal\"><span style=\"mso-bidi-font-size: 11.0pt; line-height: 115%;\">Die Ausstellungen sind auch auf Franz&ouml;sisch und Englisch zug&auml;nglich.<br><strong>Eintrittspreise: </strong>Erwachsene CHF 8.00, Kinder CHF 5.00, Familien CHF 20.00<br>F&uuml;r Kinder aus den Kantonen AR und SG ist der Eintritt gratis.</span></p><p class=\"MsoNormal\"><span style=\"mso-bidi-font-size: 11.0pt; line-height: 115%;\">Die Theatersaison dauert jeweils von Oktober bis Mai, Auff&uuml;hrungen finden immer am Sonntag um 11 Uhr statt.</span></p><p><span style=\"font-size: 11.0pt; line-height: 115%; font-family: 'Arial',sans-serif; mso-fareast-font-family: Aptos; mso-fareast-theme-font: minor-latin; mso-ansi-language: DE-CH; mso-fareast-language: EN-US; mso-bidi-language: AR-SA;\">Spielplan: <a href=\"http://www.figurentheatermuseum.ch\">www.figurentheatermuseum.ch</a></span></p>", "url": "https://www.figurentheatermuseum.ch/", "image": "https://alarpimtsoch.sos-ch-dk-2.exoscale-cdn.com/catalog/d/9/1/b/d91b7c27db55b5598b9d5d3176643853ed7575ec_appenzellerhaus_figurentheater__3.jpg", "openstreetmap_id": "318077106"}, "geometry": {"type": "Point", "coordinates": ["9.27979840461888", "47.3851375"]}}, {"type": "Feature", "properties": {"identifier": "14ff6ebc-b219-4085-9102-32f4d64b9be2", "name": "Feuerstelle Wehrlinsh\u00f6he", "url": "https://www.schwellbrunn.ch/", "image": "https://alarpimtsoch.sos-ch-dk-2.exoscale-cdn.com/catalog/3/f/d/f/3fdfdd07df26efed7f21bd9e564bc61abaf6a2b7_Feuerstelle.jpg", "openstreetmap_id": "5776752963"}, "geometry": {"type": "Point", "coordinates": ["9.256499", "47.3489055"]}}, {"type": "Feature", "properties": {"identifier": "15ec0f94-2d56-4091-bd2f-6bec8d61eb0e", "name": "Feuerstelle und Spielplatz St. Peterzell Dorf ", "description": "Brennholz, Rost und Sitzgelegenheiten sind vorhanden. \nDer grossz\u00fcgige Spielplatz bietet Rutschbahnen, Piratenschiff, Trampolin, Tischtennistisch, Sandkasten, Seilbahn und diverse Kletterm\u00f6glichkeiten.", "image": "https://alarpimtsoch.sos-ch-dk-2.exoscale-cdn.com/catalog/8/a/4/e/8a4e99f0fa5f33da8ab9f722572785cf70daa017_10_2022_st.peterzell_dorf_feuerstelle__1_.JPEG", "openstreetmap_id": "7498090029"}, "geometry": {"type": "Point", "coordinates": ["9.176341295242311", "47.317905273031656"]}}, {"type": "Feature", "properties": {"identifier": "1a5474ab-b140-4899-b307-9f029ad43f50", "name": "Feuerstelle G\u00e4bris / Jubih\u00fctte", "url": "https://www.gais.ch/", "image": "https://alarpimtsoch.sos-ch-dk-2.exoscale-cdn.com/catalog/6/0/b/d/60bd6c5b90499320eca0a398ce9a9ece78b949ec_08_2020_gais_jubih__tte.jpg", "openstreetmap_id": "573434113"}, "geometry": {"type": "Point", "coordinates": ["9.4652898", "47.3807878"]}}, {"type": "Feature", "properties": {"identifier": "1b41c5db-37b4-48df-98ca-d1e3bacfb968", "name": "Feuerstelle L\u00f6chli", "image": "https://alarpimtsoch.sos-ch-dk-2.exoscale-cdn.com/catalog/0/8/9/4/0894d4e44de3d2ced0dbf1c25b88f45e63290553_Feuerstelle_Chindlisteinweg.jpg", "openstreetmap_id": "12192277436"}, "geometry": {"type": "Point", "coordinates": ["9.540499448776247", "47.433755001345006"]}}, {"type": "Feature", "properties": {"identifier": "2105e501-6406-42c2-860a-d583cc16e223", "name": "Feuerstelle Gstell Brenden", "url": "http://www.lutzenberg.ch/de/verwaltung/", "image": "https://alarpimtsoch.sos-ch-dk-2.exoscale-cdn.com/catalog/3/f/d/f/3fdfdd07df26efed7f21bd9e564bc61abaf6a2b7_Feuerstelle.jpg", "openstreetmap_id": "9863115554"}, "geometry": {"type": "Point", "coordinates": ["9.5796965", "47.4613362"]}}, {"type": "Feature", "properties": {"identifier": "23991049-e1cf-4a85-bcf4-b7f76544b425", "name": "Feuerstelle Chozeren", "image": "https://alarpimtsoch.sos-ch-dk-2.exoscale-cdn.com/catalog/e/1/c/2/e1c2ea33de4d6631ec6d086800541a48056468c1_04_2021_wald_chozeren__3_.JPEG", "openstreetmap_id": "2055700796"}, "geometry": {"type": "Point", "coordinates": ["9.508737", "47.405638"]}}, {"type": "Feature", "properties": {"identifier": "240ee99c-dc49-4a17-96fa-53a4a40637fd", "name": "Feuerstelle Fischegg", "description": "<p>Die Feuerstelle befindet sich auf dem Lillyweg kurz vor dem Lillybeizli am Kletterfels. Sie l&auml;dt durch die halbschattige Lage zu einer Rast.</p><p>Vorhanden ist:\u202f</p><ul><li>Feuerstelle mit Rost und Sitzb&auml;nke</li><li>Brennholz</li><li>Abfallbeh&auml;lter</li></ul>", "image": "https://alarpimtsoch.sos-ch-dk-2.exoscale-cdn.com/catalog/f/0/7/2/f07257eff805ce32a34131495fc6b08f7226b74d_Fischegg.JPG", "openstreetmap_id": "way/264891410"}, "geometry": {"type": "Point", "coordinates": ["9.27485346567382", "47.28272993897171"]}}, {"type": "Feature", "properties": {"identifier": "2895c282-1ecf-4021-a168-79c2ec4a2fe7", "name": "Feuerstelle bei Hochsitz", "image": "https://alarpimtsoch.sos-ch-dk-2.exoscale-cdn.com/catalog/8/7/b/b/87bb55d4b2b1c68a760d147419e4cdc640c99a71_Urn__sch_Feuerstelle_Hochsitz.jpg", "openstreetmap_id": "2414629590"}, "geometry": {"type": "Point", "coordinates": ["9.274853467941286", "47.280233981431586"]}}, {"type": "Feature", "properties": {"identifier": "2a0e3b1b-9f3b-44e7-a4f1-dbc66c900fbe", "name": "Feuerstelle Nieschberg", "description": "<ul><li>Brennholz vorhanden</li><li>Rost vorhanden</li><li>1 Tisch mit 12 Sitzpl&auml;tzen</li><li>1 Feuerstelle</li><li>17 sonstige Sitzpl&auml;tze</li><li>Abfallentsorgung vorhanden</li><li>F&uuml;r Gruppe geeignet</li><li>Feuerstelle kann nicht reserviert werden</li></ul>", "image": "https://alarpimtsoch.sos-ch-dk-2.exoscale-cdn.com/catalog/4/9/3/b/493b2c40acfb001c6d170cffd5356283b3e57423_20260623_084007735_iOS.jpg", "openstreetmap_id": "5776752957"}, "geometry": {"type": "Point", "coordinates": ["9.275030493736269", "47.371802373995806"]}}, {"type": "Feature", "properties": {"identifier": "2d327171-28f9-466b-bfe4-7db4c2bcc8c7", "name": "Feuerstelle Wasserfall", "url": "http://www.schoenengrund.ch/de/", "image": "https://alarpimtsoch.sos-ch-dk-2.exoscale-cdn.com/catalog/6/4/4/6/64464eb7380f1a1828fc27394f7cc2334b932e70_01_2021_sch__nengrund_wasserfall_af__1_.JPEG", "openstreetmap_id": "7553916230"}, "geometry": {"type": "Point", "coordinates": ["9.2239816", "47.3176871"]}}, {"type": "Feature", "properties": {"identifier": "32bc5a4d-2bad-40e0-9e63-566756cebd22", "name": "Feuerstelle Steigb\u00fcchel", "url": "http://www.walzenhausen.ch/home.htm", "image": "https://alarpimtsoch.sos-ch-dk-2.exoscale-cdn.com/catalog/2/5/2/6/25267d41e94c0e32bc648519343846258a195b12_08_2020_walzenhausen_steigb__chel__2_.jpg", "openstreetmap_id": "4185991879"}, "geometry": {"type": "Point", "coordinates": ["9.5987797", "47.442163"]}}, {"type": "Feature", "properties": {"identifier": "35461a08-8ceb-4851-bad1-66cb74dc30d5", "name": "Feuerstelle Sch\u00f6nauwald", "url": "http://www.urnaesch.ch/de/", "image": "https://alarpimtsoch.sos-ch-dk-2.exoscale-cdn.com/catalog/7/3/1/d/731da9a0a6f990bd6e3491cf8418501e3d9f9d4f_08_2020_urn__sch_sch__nauwald__2_.jpg", "openstreetmap_id": "7755531786"}, "geometry": {"type": "Point", "coordinates": ["9.2508625", "47.3076501"]}}, {"type": "Feature", "properties": {"identifier": "356a08c2-9bb3-486d-84b0-3daa4775f64b", "name": "Feuerstelle Winkfeld", "image": "https://alarpimtsoch.sos-ch-dk-2.exoscale-cdn.com/catalog/d/2/6/d/d26dea4ae4ed4a0822c1610d9e9dec54d8a9a6f0_15_10_waldstatt_winkfeld.jpg", "openstreetmap_id": "node/29257366"}, "geometry": {"type": "Point", "coordinates": ["9.270733594894411", "47.3476340739074"]}}, {"type": "Feature", "properties": {"identifier": "393e3acd-cd7d-4f58-b6f2-6901820acbf3", "name": "Feuerstelle Hauteten", "url": "http://www.teufen.ch/xml_1/internet/de/intro.cfm", "image": "https://alarpimtsoch.sos-ch-dk-2.exoscale-cdn.com/catalog/b/0/c/a/b0ca8cb9b84d17cd3517e094ce705213c773655c_2019_09_17.jpg", "openstreetmap_id": "11711518678"}, "geometry": {"type": "Point", "coordinates": ["9.3454972", "47.3987218"]}}, {"type": "Feature", "properties": {"identifier": "3a5acb52-0593-4869-8dbc-a8423ac5f1df", "name": "Feuerstelle Gh\u00f6regg", "url": "https://www.schwellbrunn.ch/", "image": "https://alarpimtsoch.sos-ch-dk-2.exoscale-cdn.com/catalog/1/f/b/6/1fb61a323277ff63c9280bd234772b83953764e0_schwellbrunn_gh__regg_feuerstelle.jpg", "openstreetmap_id": "4583168630"}, "geometry": {"type": "Point", "coordinates": ["9.225339", "47.349879"]}}, {"type": "Feature", "properties": {"identifier": "3d0613f4-b361-48e5-8efc-9b2cf64c942b", "name": "Feuerstelle WeinWerk Wienacht, Kapf", "description": "<p>- Brennholz vorhanden<br>- Rost vorhanden<br>- 2 Tische mit 12 Sitzpl&auml;tzen<br>- 1 Feuerstelle mit 8 Sitzpl&auml;tzen<br>- Auf Holz- und Steinb&auml;nken kann man sich um die Feuerstelle setzen<br>- Abfallentsorgung vorhanden</p>\n<p>Erreichbarkeit: <br>- mit Velo<br>- &Ouml;V Haltestelle Wienacht-Tobel Bahnhof<br>- Parkplatz in der N&auml;he: 6 Pl&auml;tze</p>\n<p>&nbsp;</p>", "url": "https://www.lutzenberg.ch/vereinsliste/5120", "image": "https://alarpimtsoch.sos-ch-dk-2.exoscale-cdn.com/catalog/8/5/2/7/85271b74199afd78e1672f1877ac333aa008d51c_08_2020_wienacht_kapf__2_.jpg", "openstreetmap_id": "4185991870"}, "geometry": {"type": "Point", "coordinates": ["9.535397", "47.4661548"]}}, {"type": "Feature", "properties": {"identifier": "3db71977-2c0c-400f-954d-e77995acf955", "name": "Feuerstelle Wolfsstein", "url": "http://www.teufen.ch/xml_1/internet/de/intro.cfm", "image": "https://alarpimtsoch.sos-ch-dk-2.exoscale-cdn.com/catalog/3/f/d/f/3fdfdd07df26efed7f21bd9e564bc61abaf6a2b7_Feuerstelle.jpg", "openstreetmap_id": "72605669"}, "geometry": {"type": "Point", "coordinates": ["9.4250399", "47.4028483"]}}, {"type": "Feature", "properties": {"identifier": "46de5e98-3e3d-4869-bfcd-a053a0efa050", "name": "Feuerstelle S\u00e4ntisblick", "image": "https://alarpimtsoch.sos-ch-dk-2.exoscale-cdn.com/catalog/3/e/d/d/3edd2a98de6dfa3f9218c23a2dbbeb0939c2ed82_schwellbrunn_s__ntisblick_feuerstelle.jpg", "openstreetmap_id": "node/1683934"}, "geometry": {"type": "Point", "coordinates": ["9.25902843475342", "47.349084674636664"]}}, {"type": "Feature", "properties": {"identifier": "4929ccb7-4b8f-45b0-b006-57db1f3f39e9", "name": "JUST Welt", "description": "<p>In Walzenhausen, inmitten der Appenzeller Natur, hoch &uuml;ber dem Bodensee, hast du die einmalige Gelegenheit das Unternehmen JUST hautnah kennenzulernen und das Geheimnis hinter den wohltuenden Kr&auml;uter-Pflegeprodukte zu entdecken. Komme mit auf eine Reise zum Ursprung des nat&uuml;rlichen Wohlgef&uuml;hls!</p><p>Auf der Edelweisstour l&auml;dt dich Sonia im 360&deg;-Kino auf eine interaktive Entdeckungsreise durch die Appenzeller Kr&auml;uterwelt ein. Im anschliessenden Museum erf&auml;hrst du Wissenswertes &uuml;ber die JUST Produkte und Spannendes &uuml;ber die Gr&uuml;nderfamilie J&uuml;strich. <br>Oder begebe dich mit einem erfahrenen JUST Mitarbeiter in kleiner Gruppe auf die Arnikatour in die Produktion. Du erlebst live wie die Produkte in der hochmodernen Produktion entstehen und testest dabei deine Sinne.<br>Beide Touren k&ouml;nnen auch miteinander kombiniert werden oder mit der Aroma Manufaktur erg&auml;nzt werden. Darin schl&uuml;pfst du in den Laborkittel und tauchst in die Welt der &auml;therischen &Ouml;le ein. Lerne ihre Wirksamkeit auf K&ouml;rper und Geist kennen und stelle dein eigenes Duschgel mit deinem Lieblings&ouml;l her.<br>Am Ende jeder Tour laden wir dich auf eine Tasse belebenden Kr&auml;utertee zum Verweilen und Probieren unserer JUST Produkte im &laquo;Chr&uuml;terforum&raquo; ein.</p><ul><li>Erlebnistour 1: Edelweisstour - ca. 1 Stunde mit Audioguide (keine Mindestgruppengr&ouml;sse)&nbsp;</li><li>Erlebnistour 2: Arnikatour - ca. 1 Stunde mit F&uuml;hrung, ab 10 Personen&nbsp;</li><li>Erlebnistour 3: Kombi Edelweiss- und Arnikatour - ca. 2 Stunden, ab 10 Personen&nbsp;</li><li>Aroma Manufaktur: Nur in Kombination mit einer Erlebnistour, ca. 40 Minuten, ab 10 Personen&nbsp;</li></ul><p>Planst du deinen Ausflug mit dem Rollstuhl? Kein Problem, kontaktiere vorg&auml;ngig die JUST Welt, das Team unterst&uuml;tzt dich gerne dabei.<br><br></p>", "url": "https://www.just.swiss/just-welt/", "image": "https://alarpimtsoch.sos-ch-dk-2.exoscale-cdn.com/catalog/9/b/0/a/9b0ab7b50a086b9307d386360fc6570181d0c8b9_JUST_Welt_Eingang_1.jpg", "openstreetmap_id": "node/776749159"}, "geometry": {"type": "Point", "coordinates": ["9.6019082", "47.4519444"]}}, {"type": "Feature", "properties": {"identifier": "4944f97f-1fb5-4887-b9d5-b25a1332e458", "name": "Feuerstelle Freudenberg", "image": "https://alarpimtsoch.sos-ch-dk-2.exoscale-cdn.com/catalog/0/e/c/0/0ec05a2cdddb09b6e71feb4723abb43424add223_Feuerstelle.jpg", "openstreetmap_id": "199566272"}, "geometry": {"type": "Point", "coordinates": ["9.537546", "47.441648"]}}, {"type": "Feature", "properties": {"identifier": "4c45acfe-7edd-4905-bc2a-123bdfe4b516", "name": "Feuerstelle Gmeindli", "image": "https://alarpimtsoch.sos-ch-dk-2.exoscale-cdn.com/catalog/0/4/b/e/04be81dcca91da967c925887b65d193ce481b0e9_6BC21BB6_D76F_49CE_89CA_9E95A321741F.jpeg", "openstreetmap_id": "6299444394"}, "geometry": {"type": "Point", "coordinates": ["9.559800624847414", "47.447185102322834"]}}, {"type": "Feature", "properties": {"identifier": "50242e16-619f-41d0-b58e-83e046430d95", "name": "Feuerstelle Herrenw\u00e4ldli", "url": "http://www.schoenengrund.ch/de/", "image": "https://alarpimtsoch.sos-ch-dk-2.exoscale-cdn.com/catalog/5/b/9/e/5b9efb9f834ff74855432bae63080cfc69b585d5_sch__nengrund_herrenw__ldli.jpg", "openstreetmap_id": "276577903"}, "geometry": {"type": "Point", "coordinates": ["9.2292884", "47.3263524"]}}, {"type": "Feature", "properties": {"identifier": "56d7fcfc-853d-4177-aab1-b8c89723e8e9", "name": "Feuerstelle Raspeln", "image": "https://alarpimtsoch.sos-ch-dk-2.exoscale-cdn.com/catalog/8/0/6/0/806052a157543819cbc79e6b4b78acc13533f434_Feuerstelle_Raspeln.jpg", "openstreetmap_id": "2061244958"}, "geometry": {"type": "Point", "coordinates": ["9.555552005767824", "47.432311352391366"]}}, {"type": "Feature", "properties": {"identifier": "58b2d227-2afc-48e2-9f2c-863cb7077d54", "name": "Feuerstelle Grund", "url": "https://www.waldstatt.ch/", "image": "https://alarpimtsoch.sos-ch-dk-2.exoscale-cdn.com/catalog/5/6/8/f/568f1a1c567777127f36eb97ee06004daefd5fa3_Computerformat_4_3_waldstatt_grund_feuerstelle.jpg", "openstreetmap_id": "5776752959"}, "geometry": {"type": "Point", "coordinates": ["9.270840622476886", "47.355083993884"]}}, {"type": "Feature", "properties": {"identifier": "6533253f-e907-4004-b539-093df57e2ef7", "name": "Feuerstelle Schindelholz", "url": "http://www.walzenhausen.ch/home.htm", "image": "https://alarpimtsoch.sos-ch-dk-2.exoscale-cdn.com/catalog/0/0/2/6/0026bad09ac74d5ccb60bd0b4b55fd60f9d1fb89_08_2020_walzenhausen_schindelholz__3_.jpg", "openstreetmap_id": "4185991878"}, "geometry": {"type": "Point", "coordinates": ["9.5888375", "47.4542558"]}}, {"type": "Feature", "properties": {"identifier": "6642ddcf-82e9-4628-b13e-c031c96d25f8", "name": "Feuerstelle Pulverturm", "url": "http://www.herisau.ch/de/", "image": "https://alarpimtsoch.sos-ch-dk-2.exoscale-cdn.com/catalog/3/f/e/d/3fedf04f8cdfb28433ad1ddcd088d99342f8e677_11_2020_herisau_pulverturm__2_.JPEG", "openstreetmap_id": "2893534501"}, "geometry": {"type": "Point", "coordinates": ["9.2914236", "47.3942337"]}}, {"type": "Feature", "properties": {"identifier": "689f334f-a125-48ab-b321-1fa1aa5999f4", "name": "Feuerstelle Horst", "url": "http://www.speicher.ch/de/", "image": "https://alarpimtsoch.sos-ch-dk-2.exoscale-cdn.com/catalog/3/f/d/f/3fdfdd07df26efed7f21bd9e564bc61abaf6a2b7_Feuerstelle.jpg", "openstreetmap_id": "2276527128"}, "geometry": {"type": "Point", "coordinates": ["9.425947", "47.4083925"]}}, {"type": "Feature", "properties": {"identifier": "69307ec8-0f89-4651-a72e-26ce2558c2b7", "name": "Feuerstelle Langelen / Bannwald", "description": "<p>Die Feuerstelle wird zwischen April (Ostern) und Oktober w&ouml;chentlich mit Brennholz versorgt. <br>Die Feuerstelle ist &ouml;ffentlich und darf von allen Personen ben&uuml;tzt werden. Reservationen sind nicht m&ouml;glich.&nbsp;</p>", "url": "http://www.herisau.ch/de/", "image": "https://alarpimtsoch.sos-ch-dk-2.exoscale-cdn.com/catalog/a/0/6/1/a061f59b831a7e961710628af90b9f64084e968c_20260623_081322211_iOS.jpg", "openstreetmap_id": "776752956"}, "geometry": {"type": "Point", "coordinates": ["9.2840852", "47.3731267"]}}, {"type": "Feature", "properties": {"identifier": "6a87a400-be40-46fb-af43-6ef18360d5dd", "name": "Feuerstelle Staatswald", "url": "https://www.schwellbrunn.ch/", "image": "https://alarpimtsoch.sos-ch-dk-2.exoscale-cdn.com/catalog/3/f/d/f/3fdfdd07df26efed7f21bd9e564bc61abaf6a2b7_Feuerstelle.jpg", "openstreetmap_id": "263614302"}, "geometry": {"type": "Point", "coordinates": ["9.2318349", "47.3411137"]}}, {"type": "Feature", "properties": {"identifier": "6e548f0e-a0b8-4c04-8020-6ed1704ab162", "name": "Museum Henry Dunant", "description": "Henry Dunant hatte bis zu seinem Tod rund 20 Jahre in Heiden gelebt, 18 davon im ehemaligen Bezirkskrankenhaus. In diesem Geb\u00e4ude f\u00fchrt die Ausstellung thematisch durch das wechselhafte Leben des wirkungsm\u00e4chtigen Genfers und schl\u00e4gt eine Br\u00fccke ins Hier und Jetzt. Das Museum l\u00e4dt t\u00e4glich von 11 bis 16 Uhr zu Erkundungen in Deutsch, Franz\u00f6sisch und Englisch ein. F\u00fchrungen f\u00fcr Gruppen und Schulklassen werden auch ausserhalb der \u00d6ffnungszeiten angeboten.", "url": "http://www.dunant-museum.ch/", "image": "https://alarpimtsoch.sos-ch-dk-2.exoscale-cdn.com/catalog/2/8/b/d/28bd6f2a4456aeada524cdc5387933b791591455_252044_dunant_museum_4874_J__rg_Z__rcher_gross.jpg", "openstreetmap_id": "199522073"}, "geometry": {"type": "Point", "coordinates": ["9.5312492", "47.4433309"]}}, {"type": "Feature", "properties": {"identifier": "71bcb77a-7fbf-4238-b011-fddaf2d170ca", "name": "Feuerstelle Hundwiler Tobel", "url": "https://verkehrsvereinhundwil.ch/", "image": "https://alarpimtsoch.sos-ch-dk-2.exoscale-cdn.com/catalog/f/9/d/e/f9deba14b3d579c05b11fce3fb06efaeb11a84a6_Screenshot_2026_02_19_152414.png", "openstreetmap_id": "way/22756403"}, "geometry": {"type": "Point", "coordinates": ["9.3024505", "47.3617302"]}}, {"type": "Feature", "properties": {"identifier": "76b06e15-7748-49f6-9e52-ccf1b0f76d79", "name": "Breitenmoser Gustarium", "description": "Das Breitenmoser Gustarium ist die in der Schweiz einzigartige Erlebniswelt, die sich der Fleischbranche widmet. Unterschiedliche Grillseminare finden rund ums Jahr auf der Grillterrasse statt. Hier lernt man Tipps und Tricks von den Fachleuten. Teilnehmerinnen und Teilnehmer eines Wurstseminars lernen alles \u00fcber die Herstellung einer Siedwurst und packen dann selbst mit an. \nAuch Spontanbesucher k\u00f6nnen sich bei uns verw\u00f6hnen lassen. Ein frisch aufgeschnittenes Appenzeller Pl\u00e4ttli l\u00e4sst sich draussen oder in der Metzgerstube mit Blick auf den Alpstein geniessen. Die interaktive, unterhaltsame und informative Ausstellung \u00abrund um den Genuss\u00bb kann kostenlos besucht werden. \nIm Genussladen k\u00f6nnen Sie unsere Spezialit\u00e4ten degustieren, erwerben und sich von vielen Geschenkideen inspirieren lassen. Feste und Seminare bis 60 Personen machen wir f\u00fcr Sie zu einem ganz speziellen Erlebnis. Die Metzgerstube mit Bar und Chemin\u00e9e ist liebevoll eingerichtet und dekoriert. Unsere K\u00f6che verw\u00f6hnen Sie mit hauseigenen Spezialit\u00e4ten. \n\nGrillseminare: 18 bis 23 Teilnehmende\nWurstseminare: 15 bis 30 Teilnehmende\nFestliche Platten legen und gestalten: 10 bis 15 Teilnehmende\nKleiner Grill-Lehrgang: 20 bis 45 Teilnehmende \n\nKosten f\u00fcr Seminare: von CHF 85.00 (Wurstseminar mit Essen) bis CHF 210 f\u00fcr Grillkurs Special Cuts\nDauer: von 2.5 bis 4 Stunden f\u00fcr Kurse\n\nSitzpl\u00e4tze Metzgerstube f\u00fcr Gastroanl\u00e4sse: bis 60 Personen", "url": "https://www.gustarium.ch/", "image": "https://alarpimtsoch.sos-ch-dk-2.exoscale-cdn.com/catalog/3/7/1/e/371ea78ef7c2bc2b865564258705212be5c7c7ed_2023_07_05_breitenmoser_0618.jpg", "openstreetmap_id": "node/11240658636"}, "geometry": {"type": "Point", "coordinates": ["9.4277641", "47.3202708"]}}, {"type": "Feature", "properties": {"identifier": "77b205b7-a834-4ef8-a88d-5ef67e21fad9", "name": "Feuerstelle Chr\u00e4g", "description": "<p>Die Feuerstelle liegt in einem kleinen Waldst&uuml;ck umgeben von Wiesen mit Aussicht aufs Dorf Urn&auml;sch. Die Feuerstelle l&auml;sst sich vom Dorf aus zu Fuss in 30 Minuten gut erreichen. Alternativ sind Parkpl&auml;tze beim B&uuml;rgerheim Chr&auml;g vorhanden.</p><p>Vorhanden ist:\u202f</p><ul><li>Feuerstelle mit Rost und Sitzb&auml;nke</li><li>Kinderb&auml;nkli mit Tisch</li><li>Brennholz</li><li>Abfallbeh&auml;lter</li></ul>", "image": "https://alarpimtsoch.sos-ch-dk-2.exoscale-cdn.com/catalog/3/f/9/7/3f971af8e04ef807e1d8601408dfbc0e8fab988c_Chr__g_1.JPG", "openstreetmap_id": "392065444"}, "geometry": {"type": "Point", "coordinates": ["9.288908243179323", "47.30925929873218"]}}, {"type": "Feature", "properties": {"identifier": "79db15cb-da93-4f43-99be-f01dcf967426", "name": "A.Vogel Heilpflanzen-Schaugarten und Museum", "description": "Ein Naturerlebnis f\u00fcr alle Sinne erwartet die Besucherinnen und Besucher auf rund 1000 Metern \u00fc.M., umgeben vom herrlichen Panorama des Alpsteins und eingebettet in die sanften gr\u00fcnen H\u00fcgel des Appenzellerlands. \nIm terrassenf\u00f6rmig angelegten, frei zug\u00e4nglichen A.Vogel Schaugarten auf dem H\u00e4tschen in Teufen AR gedeihen rund 120 verschiedene Heil- und K\u00fcchenkr\u00e4uter. \nDas 2024 neu gestaltete Museum erz\u00e4hlt die Geschichte von Naturheilkunde-Pionier Alfred Vogel bis zu den modernen Herstellungsprozessen im Unternehmen A.Vogel heute.\nIn der Drogerie kann man sich \u00fcber alle A.Vogel Produkte informieren und kompetent beraten lassen.\nDie Welt von A.Vogel in Teufen: ideal als Tagesausflug, Club-Event, Firmen- oder Vereinsanlass und vieles mehr.", "url": "https://www.avogel.ch/de/", "image": "https://alarpimtsoch.sos-ch-dk-2.exoscale-cdn.com/catalog/2/0/0/d/200d1679c67bc61d2e9213abd8ad72f0cfc006b2__P0B0801__2.jpg", "openstreetmap_id": "4149594093"}, "geometry": {"type": "Point", "coordinates": ["9.3893398", "47.3957654"]}}, {"type": "Feature", "properties": {"identifier": "7a2915cd-9805-4ffe-9dae-3a2cba3f85ba", "name": "Feuerstelle Rosenburg", "description": "<p>Ausstattung</p><ul><li>Brennholz vorhanden</li><li>Rost vorhanden</li><li>F&uuml;r Gruppe geeignet</li><li>2 Feuerstellen mit je 20 Sitzpl&auml;tzen</li><li>Spielm&ouml;glichkeiten</li><li>Spielwiese</li><li>Abfallentsorgung vorhanden</li></ul><p>Parkplatz: Blaue Zone, 5 Minuten Gehzeit<br>&Ouml;V Haltestelle Herisau Bahnhof, 15 min Gehzeit<br>Kinderwagentauglich</p>", "url": "https://www.herisau.ch/", "image": "https://alarpimtsoch.sos-ch-dk-2.exoscale-cdn.com/catalog/0/b/5/f/0b5ff581c4a3b602a449d983c881c0ac35e61349_DJI_20260623133953_0043_D.JPG", "openstreetmap_id": "way/1027088233"}, "geometry": {"type": "Point", "coordinates": ["9.28217054093635", "47.396518908859555"]}}, {"type": "Feature", "properties": {"identifier": "8258f50f-f3f3-4506-a92a-1e280915cd6e", "name": "Museum Appenzeller Bahnen", "description": "<p>Im historischen Fahrzeug-Depot der ehemaligen S&auml;ntisbahn in Wasserauen sind historische Fahrzeuge aus der umfangreichen Sammlung der Stiftung &bdquo;Historische Appenzeller Bahnen&ldquo; ausgestellt. Darunter der einzige schmalspurige diesel-elektrische Schmalspur-Triebwagen der Schweiz von 1929 in seinem Originalzustand.</p><p>Gezeigt werden aber auch zahlreiche Gegenst&auml;nde aus dem fr&uuml;heren Alltag der Eisenbahn und ihrer Mitarbeiter, eine Dokumentation &uuml;ber die einst geplante Bahn von Appenzell &uuml;ber Wasserauen &ndash; Seealpsee &ndash; Meglisalp auf den S&auml;ntis sowie periodisch wechselnde Dokumentations-Ausstellungen zu Themen aus der langen appenzellischen Bahngeschichten, aktuell &uuml;ber die Geschichte(n) der Bahnh&ouml;fe.</p><p>Das Museum befindet sich im historischen Fahrzeug-Depot der ehemaligen S&auml;ntisbahn in Wasserauen.</p>", "url": "https://www.museumsverein-appenzeller-bahnen.ch/home-bahnmuseum.html", "image": "https://alarpimtsoch.sos-ch-dk-2.exoscale-cdn.com/catalog/1/4/8/0/14806798bb8fb6cb1343779dcfe29b5d0853d6c7_museum_appenzeller_bahnen_6.jpg", "openstreetmap_id": "193564282"}, "geometry": {"type": "Point", "coordinates": ["9.428258", "47.285540"]}}, {"type": "Feature", "properties": {"identifier": "82633455-0386-4ea5-8c43-fe4f0924730b", "name": "Wohlf\u00fchlhof Neuhus", "description": "<p>Ihr R&uuml;ckzugsort in den H&uuml;geln des Appenzeller Hinterlands:&nbsp;Unsere Ferienwohnung bietet:</p><ul><li>Eine grossz&uuml;gige, helle 2,5-Zimmer-Wohnung mit Wohnk&uuml;che, Schlafzimmer, Nebenraum und grossem Badezimmer</li><li>Eine abgeschiedene Lage in einem idyllischen H&uuml;gel-T&auml;lchen &ndash; Ruhe garantiert</li><li>Viel Platz f&uuml;r Familien, die gemeinsame Momente geniessen und die Natur erleben m&ouml;chten</li></ul><p>Ruhe und Erleben &ndash; das Beste aus zwei Welten&nbsp;<br>Erleben Sie die Stille und Gelassenheit der Bergwelt, w&auml;hrend Sie das Leben auf einem Bauernhof hautnah miterleben:</p><ul><li>Abschalten in der Natur: Kein Strassenl&auml;rm, nur Vogelgezwitscher und das leise Muhen der K&uuml;he</li><li>Mithelfen im Stall: Wer Lust hat, kann jeweils abends beim F&uuml;ttern und Versorgen der Tiere helfen</li><li>Kindertr&auml;ume wahr werden lassen: Platz zum Spielen, Entdecken und einfach Kind sein</li><li>Zeit f&uuml;r Sie &ndash; oder f&uuml;r Abenteuer</li></ul><p>Ob Sie einfach entspannen oder die Umgebung erkunden m&ouml;chten: Der Wanderweg startet direkt vor der Haust&uuml;r</p><p>Jetzt buchen und abschalten! Alle freien Daten und weitere Infos finden Sie auf unserer Website: www.wohlfuehlhof-neuhus.ch</p><p>Wir freuen uns darauf, Sie bei uns willkommen zu heissen und Ihnen einen Ort der Ruhe und Erholung zu bieten!</p>", "url": "https://www.wohlfuehlhof-neuhus.ch/", "image": "https://alarpimtsoch.sos-ch-dk-2.exoscale-cdn.com/catalog/9/0/7/d/907d505b833174643985769136aedbf94eb0d1ca_Neuhus08.jpg", "openstreetmap_id": "316710758"}, "geometry": {"type": "Point", "coordinates": ["9.32244122028351", "47.33291497436471"]}}, {"type": "Feature", "properties": {"identifier": "827150c6-669b-411d-be82-4983a8503c1d", "name": "Feuerstelle Bubenstieg", "url": "https://www.schwellbrunn.ch/", "image": "https://alarpimtsoch.sos-ch-dk-2.exoscale-cdn.com/catalog/3/8/c/6/38c64a830ff0b4974f1ce37aebcbeae64cedc85c_Feuerstelle.jpg", "openstreetmap_id": "338832395"}, "geometry": {"type": "Point", "coordinates": ["9.2392533", "47.357767"]}}, {"type": "Feature", "properties": {"identifier": "827f2f2f-5255-472c-8752-519be2ef6e66", "name": "Feuerstelle Waldpark", "url": "https://www.kurvereinheiden.ch/", "image": "https://alarpimtsoch.sos-ch-dk-2.exoscale-cdn.com/catalog/1/f/4/3/1f43f4891e0bbe55c2e2d14f20f0156e5f3550d5_08_2020_heiden_waldpark__2_.jpg", "openstreetmap_id": "4185991872"}, "geometry": {"type": "Point", "coordinates": ["9.5225253", "47.4484958"]}}, {"type": "Feature", "properties": {"identifier": "83570fc3-1673-4be6-a86a-6ada54584ec7", "name": "Feuerstelle Eichenbach", "description": "<p>Vorhanden ist:&nbsp;</p><ul><li>Brennholz&nbsp;</li><li>Abfallentsorgung&nbsp;</li><li>Trinkwasser (Brunnen mit Quellwasser)&nbsp;</li><li>andere Wasserquellen (kein Trinkwasser)</li><li>WC (bitte sauber hinterlassen)</li></ul><p>Die Feuerstelle wurde gesponsert von der Raiffeisenbank.&nbsp;</p>", "url": "https://www.wolfhalden.ch/", "image": "https://alarpimtsoch.sos-ch-dk-2.exoscale-cdn.com/catalog/1/f/9/0/1f9003e6459fb82c7d07fc4f27e5fd1bb0ee9219_Eichenbach.jpeg", "openstreetmap_id": "6299464575"}, "geometry": {"type": "Point", "coordinates": ["9.586515426635744", "47.44775315062366"]}}, {"type": "Feature", "properties": {"identifier": "8407b4cb-0526-4697-a0b8-ec9d042626a7", "name": "Feuerstelle Walderlebnisraum", "url": "https://www.gais.ch/portal-gemeinde-tourismus.html", "image": "https://alarpimtsoch.sos-ch-dk-2.exoscale-cdn.com/catalog/3/e/c/3/3ec3ac2b599bc323d97f1dc814baef70f4d50302_12_2020_gais_walderlebnisraum.JPG", "openstreetmap_id": "10786736711"}, "geometry": {"type": "Point", "coordinates": ["9.4974409", "47.3545292"]}}, {"type": "Feature", "properties": {"identifier": "865b9f4f-61f2-47f4-bd58-329a8b6e1cfc", "name": "Feuerstelle Ramsenburg", "url": "http://www.herisau.ch/de/", "image": "https://alarpimtsoch.sos-ch-dk-2.exoscale-cdn.com/catalog/3/4/f/c/34fcd3a638bdced2fd37827901c1aea6c3a4537f_Ramsenburg_oben.JPG", "openstreetmap_id": "8798295863"}, "geometry": {"type": "Point", "coordinates": ["9.2521499", "47.3883581"]}}, {"type": "Feature", "properties": {"identifier": "8680c609-fb0c-4cfe-9812-1cd49a4de10e", "name": "Feuerstelle Wasserlehrpfad", "url": "https://verkehrsvereinhundwil.ch/", "image": "https://alarpimtsoch.sos-ch-dk-2.exoscale-cdn.com/catalog/e/a/6/1/ea61211775babfcb65f667688070cc71b45fcebc_04_20_hundwil_wasserlehrpfad_04.JPEG", "openstreetmap_id": "node/10908576874"}, "geometry": {"type": "Point", "coordinates": ["9.318637847900392", "47.34824433019545"]}}, {"type": "Feature", "properties": {"identifier": "86b7df64-ab9f-4384-bc9c-f098b38ace2a", "name": "Feuerstelle Klus", "description": "<p>Vorhanden ist:&nbsp;</p><ul><li>Brennholz</li><li>WC</li><li>Rost</li><li>Ein Tisch mit Sitzb&auml;nken bietet Platz, um sich niederzulassen</li></ul>", "url": "https://www.wolfhalden.ch/", "image": "https://alarpimtsoch.sos-ch-dk-2.exoscale-cdn.com/catalog/4/9/8/9/498984d63cd9e17b513c3b022195678bace50556_20240625_153648.jpg", "openstreetmap_id": "9815039667"}, "geometry": {"type": "Point", "coordinates": ["9.562858343124391", "47.444815314939625"]}}, {"type": "Feature", "properties": {"identifier": "8bef8307-94ef-4e5a-9567-d2cd521526c9", "name": "Feuerstelle Schulhaus Reute", "url": "http://www.reute.ch/de/", "image": "https://alarpimtsoch.sos-ch-dk-2.exoscale-cdn.com/catalog/3/f/d/f/3fdfdd07df26efed7f21bd9e564bc61abaf6a2b7_Feuerstelle.jpg", "openstreetmap_id": "5262393985"}, "geometry": {"type": "Point", "coordinates": ["9.570488", "47.4194438"]}}, {"type": "Feature", "properties": {"identifier": "926f800a-c6f5-4810-be5a-5dfc71dfb588", "name": "Feuerstelle Bruggtobel", "description": "<ul><li>Brennholz &amp; Rost vorhanden</li><li>1 Feuerstelle</li><li>1 Tisch mit 10 Sitzpl&auml;tzen&nbsp;</li><li>6 sonstige Sitzpl&auml;tze (Man kann sich auf die Holzb&auml;nke gegen&uuml;ber der Feuerstelle oder an den Tisch direkt daneben setzen)</li></ul>", "image": "https://alarpimtsoch.sos-ch-dk-2.exoscale-cdn.com/catalog/3/4/4/8/3448b76a91ffebcae5b7c0ca87a4d397ef1779ab_20240625_144742.jpg", "openstreetmap_id": "6299444394"}, "geometry": {"type": "Point", "coordinates": ["9.556077718734743", "47.44780413909842"]}}, {"type": "Feature", "properties": {"identifier": "97a50894-fa11-4646-b19b-9b17c893b56f", "name": "Feuerstelle F\u00fcnfl\u00e4nderblick", "image": "https://alarpimtsoch.sos-ch-dk-2.exoscale-cdn.com/catalog/3/4/9/e/349ec735ffc52af5ad236ae75c2db10ce03edb2a_grub_eggersriet_f__nfl__nderblick.jpg", "openstreetmap_id": "node/6395456733"}, "geometry": {"type": "Point", "coordinates": ["9.514279", "47.4565108"]}}, {"type": "Feature", "properties": {"identifier": "a7d1e888-3bf4-49d6-b22b-e5a3249f1e2a", "name": "Feuerstelle R\u00e4msen", "image": "https://alarpimtsoch.sos-ch-dk-2.exoscale-cdn.com/catalog/e/5/5/9/e559ea83f26ce3f0e986df6a4b23abd178ac2268_10_2020_b__hler_r__msen__8_.JPEG", "openstreetmap_id": "node/39776061"}, "geometry": {"type": "Point", "coordinates": ["9.440909028053285", "47.387098612281285"]}}, {"type": "Feature", "properties": {"identifier": "a9767e7f-ca2c-48bf-89c0-3d502fc09e08", "name": "Feuerstelle Risi", "description": "<p>Am Waldrand liegt die Feuerstelle Risi mit sch&ouml;ner Aussicht in Richtung Bodensee.<br><br></p>", "url": "http://www.heiden.ch/de/", "image": "https://alarpimtsoch.sos-ch-dk-2.exoscale-cdn.com/catalog/3/f/d/f/3fdfdd07df26efed7f21bd9e564bc61abaf6a2b7_Feuerstelle.jpg", "openstreetmap_id": "12092011164"}, "geometry": {"type": "Point", "coordinates": ["9.528879", "47.42636"]}}, {"type": "Feature", "properties": {"identifier": "ab428c3e-2769-431d-a90f-f828dce554b0", "name": "Feuerstelle Blumenstein", "url": "http://www.schoenengrund.ch/de/", "image": "https://alarpimtsoch.sos-ch-dk-2.exoscale-cdn.com/catalog/f/f/a/8/ffa832f47a77ce2e829d898b0703439242788d53_08_2020_sch__nengrund_blumenstein__3_.jpg", "openstreetmap_id": "7553895382"}, "geometry": {"type": "Point", "coordinates": ["9.2313766", "47.3125047"]}}, {"type": "Feature", "properties": {"identifier": "ab74fa35-8062-4a36-8b1a-825c89c0d5c5", "name": "Feuerstelle Oberegg B\u00e4renp\u00e4rkli", "url": "https://www.oberegg.ch/freizeit/freizeitangebote/freizeitplaetze/baerenpaerkli.html/145", "image": "https://alarpimtsoch.sos-ch-dk-2.exoscale-cdn.com/catalog/a/5/9/a/a59ae5fd8357ebd5bd4b61dce5996d8df0b78a8a_04_2022_oberegg_dorf_af.jpg", "openstreetmap_id": "relation/1683915"}, "geometry": {"type": "Point", "coordinates": ["9.552204608917236", "47.42277382897845"]}}, {"type": "Feature", "properties": {"identifier": "afe739a8-919c-442b-9fd1-df6270f6ec49", "name": "Feuerstelle Furth", "image": "https://alarpimtsoch.sos-ch-dk-2.exoscale-cdn.com/catalog/d/f/6/6/df66af36f07c1b6e56c3f0504c0bd189dd8a4735_01_2021_urn__sch_furth.jpg", "openstreetmap_id": "533638529"}, "geometry": {"type": "Point", "coordinates": ["9.295624494552614", "47.32462147225032"]}}, {"type": "Feature", "properties": {"identifier": "b2648d63-84f1-4dad-b646-b5a56dd5430e", "name": "Feuerstelle Staubm\u00fchle", "image": "https://alarpimtsoch.sos-ch-dk-2.exoscale-cdn.com/catalog/b/b/3/e/bb3e492f549694f27ddcf3e738f8ec4a3a323d52_heiden_wolfhalden_grillstelle_br__cke.jpg", "openstreetmap_id": "node/772695620"}, "geometry": {"type": "Point", "coordinates": ["9.542216062545776", "47.4536017406339"]}}, {"type": "Feature", "properties": {"identifier": "b79a5913-f9e4-481f-bca2-eafbeb2e946d", "name": "Feuerstelle Eschen St. Anton", "image": "https://alarpimtsoch.sos-ch-dk-2.exoscale-cdn.com/catalog/d/d/7/f/dd7f79531195f4b6757b43ce1386bea6d1d17819_11_22_oberegg_st.anton_feuerstelle_sd.jpg", "openstreetmap_id": "node/424222468"}, "geometry": {"type": "Point", "coordinates": ["9.530006647109987", "47.40888637476102"]}}, {"type": "Feature", "properties": {"identifier": "b96a021d-1278-420f-ae6b-a77e186acebc", "name": "Feuerstelle Kuenzenegg", "url": "http://www.teufen.ch/xml_1/internet/de/intro.cfm", "image": "https://alarpimtsoch.sos-ch-dk-2.exoscale-cdn.com/catalog/3/f/d/f/3fdfdd07df26efed7f21bd9e564bc61abaf6a2b7_Feuerstelle.jpg", "openstreetmap_id": "8585034752"}, "geometry": {"type": "Point", "coordinates": ["9.4002511", "47.4008814"]}}, {"type": "Feature", "properties": {"identifier": "bbfc52a8-1e4a-4527-85fe-037d8f7f5af5", "name": "Feuerstelle G\u00e4brisseeli", "url": "https://www.gais.ch/portal-gemeinde-tourismus.html", "image": "https://alarpimtsoch.sos-ch-dk-2.exoscale-cdn.com/catalog/7/c/6/5/7c65b6d198b1b66b5db948cc256569f034ee09ed_08_2020_gais_g__brisseeli__3_.jpg", "openstreetmap_id": "290517289"}, "geometry": {"type": "Point", "coordinates": ["9.4783809", "47.3816652"]}}, {"type": "Feature", "properties": {"identifier": "bfb37a1d-79f9-4e4f-98fc-931fb582b1de", "name": "Feuerstelle Waldh\u00fctte", "image": "https://alarpimtsoch.sos-ch-dk-2.exoscale-cdn.com/catalog/d/f/e/1/dfe1ed80415bf996c8c1ff1ad33eb527a49cc746_08_2020_urn__sch_waldh__tte__2_.jpg", "openstreetmap_id": "4585134183"}, "geometry": {"type": "Point", "coordinates": ["9.2476328", "47.2899583"]}}, {"type": "Feature", "properties": {"identifier": "c5499696-e62a-4ece-8657-f345aeec38ca", "name": "Feuerstelle Blattend\u00fcrren", "description": "<p>Die Feuerstelle l&auml;sst sich zu Fuss in 20 min vom Restaurant Blattend&uuml;rren oder in 1h 30 min vom Bahnhof Urn&auml;sch &uuml;bers Restaurant Osteregg erreichen und liegt auf der Potersalproute f&uuml;r Bikes von Appenzellerland Tourismus. Sie liegt sonnig auf 1200 m &uuml;. M. Und bietet eine fantastische Aussicht auf die Appenzeller H&uuml;gel.</p><p>Vorhanden ist:</p><ul><li>Feuerstelle mit Rost</li><li>Sitzb&auml;nke und Tisch</li><li>Brennholz</li><li>Abfallbeh&auml;lter</li></ul>", "image": "https://alarpimtsoch.sos-ch-dk-2.exoscale-cdn.com/catalog/d/4/8/0/d480c983b8d6ad8514b2e77b2244e1aace9a279b_Feuerstelle_Blattend__rre_2.jpg", "openstreetmap_id": "way/31901410"}, "geometry": {"type": "Point", "coordinates": ["9.305151682833623", "47.30003487549181"]}}, {"type": "Feature", "properties": {"identifier": "c6083530-6985-464e-b537-480f0da62264", "name": "Feuerstelle H\u00e4mmli", "url": "http://www.schoenengrund.ch/de/", "image": "https://alarpimtsoch.sos-ch-dk-2.exoscale-cdn.com/catalog/3/f/d/f/3fdfdd07df26efed7f21bd9e564bc61abaf6a2b7_Feuerstelle.jpg", "openstreetmap_id": "7755531474"}, "geometry": {"type": "Point", "coordinates": ["9.2357213", "47.3155224"]}}, {"type": "Feature", "properties": {"identifier": "c6c2d380-69ff-4501-9759-bb6f6d0fc985", "name": "Appenzeller Bier - Degustationen im Besucherzentrum Brauqu\u00f6ll", "description": "Auf Voranmeldung geniessen Sie eine gef\u00fchrte Degustation im Gnoss-St\u00f6bli und erleben, wie aus qu\u00f6llfrischem Wasser Appenzeller Bier und S\u00e4ntis Malt Whisky sowie aus dessen Nebenprodukten leckere neue Spezialit\u00e4ten wie Cr\u00e9aCeto Bier-Essig oder Treber-Tschipps entstehen.\n\nW\u00e4hlen Sie aus folgenden Degustationen:\n- Bier-Degustation\n- Alkoholfreie Bier-Degustation\n- Bier + Whisky Degustation\n- Blind-Degustation \n- S\u00e4ntis Malt Whisky-Degustation\n\nOrt: Besucherzentrum Brauqu\u00f6ll, Brauerei Locher AG Appenzell\nDauer: ab ca. 1 Stunde*\nTeilnehmer: 10 bis 25 Personen*\nMindestalter: 16 / 18 Jahren*\nSprache: Deutsch, weitere Sprachen auf Anfrage\nKosten: auf Anfrage*\n\n*Variiert je nach Degustationsart", "url": "https://appenzellerbier.ch/de/", "image": "https://alarpimtsoch.sos-ch-dk-2.exoscale-cdn.com/catalog/2/7/7/0/2770926dae494b480e04a76d3c23cf131dbe6059_Degustation_01.jpg", "openstreetmap_id": "4229854758"}, "geometry": {"type": "Point", "coordinates": ["9.41251", "47.33103"]}}, {"type": "Feature", "properties": {"identifier": "d8b8d894-f742-4347-afe4-3788a4f1c085", "name": "Feuerstelle Fr\u00f6lichsegg", "url": "http://www.teufen.ch/xml_1/internet/de/intro.cfm", "image": "https://alarpimtsoch.sos-ch-dk-2.exoscale-cdn.com/catalog/4/8/c/f/48cf25319dc7d3f51e3a6959ee5f6e0a524006eb_08_2020_teufen_fr__lichsegg__3_.jpg", "openstreetmap_id": "10790171037"}, "geometry": {"type": "Point", "coordinates": ["9.3785942", "47.3973088"]}}, {"type": "Feature", "properties": {"identifier": "dfa08afd-0eb6-4af5-ae08-9fae1edabab2", "name": "Feuerstelle Streichelfarm", "url": "https://www.gais.ch/portal-gemeinde-tourismus.html", "image": "https://alarpimtsoch.sos-ch-dk-2.exoscale-cdn.com/catalog/3/f/d/f/3fdfdd07df26efed7f21bd9e564bc61abaf6a2b7_Feuerstelle.jpg", "openstreetmap_id": "1106416770"}, "geometry": {"type": "Point", "coordinates": ["9.4544988", "47.3526032"]}}, {"type": "Feature", "properties": {"identifier": "dfdbbbc0-3619-4bed-a67d-177e2e0b4808", "name": "Feuerstelle Kaienspitz", "url": "http://www.rehetobel.ch/de/", "image": "https://alarpimtsoch.sos-ch-dk-2.exoscale-cdn.com/catalog/3/f/d/f/3fdfdd07df26efed7f21bd9e564bc61abaf6a2b7_Feuerstelle.jpg", "openstreetmap_id": "1149868401"}, "geometry": {"type": "Point", "coordinates": ["9.504075050354006", "47.43228956203512"]}}, {"type": "Feature", "properties": {"identifier": "e060d890-57dc-4344-990c-13a699f6b373", "name": "Feuerstelle Schlipf", "url": "http://www.teufen.ch/xml_1/internet/de/intro.cfm", "image": "https://alarpimtsoch.sos-ch-dk-2.exoscale-cdn.com/catalog/c/5/5/b/c55b94581a38aa9ace0e0acad391ed67c7798cb8_08_2020_teufen_schlipf__2_.jpg", "openstreetmap_id": "1331484207"}, "geometry": {"type": "Point", "coordinates": ["9.3749279", "47.396131"]}}, {"type": "Feature", "properties": {"identifier": "e3cd6f5d-1e4b-4015-91f3-15f9687d03a9", "name": "Brauchtumsmuseum - Naturjodelkurs und Talerschwingen", "description": "<p>Nach einem appenzellischen Willkommensgetr&auml;nk erhalten Sie unter fachkundiger F&uuml;hrung einen Einblick in die b&auml;uerliche Kultur des Appenzellerlandes und erlernen mit einem Appenzeller Jodler in den stimmungsvollen R&auml;umlichkeiten den Naturjodel und das Talerschwingen. Ein echtes Erlebnis!</p><p>Dauer: 2 bis 2.5 Stunden <br>Teilnehmer: bis 25 Personen <br>Kosten:</p><ul><li>Naturjodelkurs pro Gruppe CHF 300.- (bis max. 25 Pers.)</li><li>zzgl. Museumseintritt pro Person CHF 8.- (ab 10 Pers.)</li><li>zzgl. F&uuml;hrung pro Person CHF 8.- (ab 10 Pers.)&nbsp;</li><li>Schulklassen aus dem Kanton AR gratis</li></ul>", "url": "https://www.museum-urnaesch.ch", "image": "https://alarpimtsoch.sos-ch-dk-2.exoscale-cdn.com/catalog/b/b/e/a/bbeaf573039520c684c4e6920fbca9768e5f3e1e_IMG_3347.gif", "openstreetmap_id": "299122250"}, "geometry": {"type": "Point", "coordinates": ["9.2829", "47.31713"]}}, {"type": "Feature", "properties": {"identifier": "ef207fdc-14be-4cd2-8319-9e89a4eb4a48", "name": "Museum Gais", "description": "<p>Druckgrafiken und Aquarelle zeigen Ansichten des Dorfes zwischen 1750 und 1900, als in Gais das Molkenkurwesen bl\u00fchte. Viele der \u00fcber hundert Werke dienten zur Illustration von Reiseberichten und Geschichtsb\u00fcchern. Grossformatigere Arbeiten wurden vornehmlich an Kurg\u00e4ste verkauft. Heute legen sie beredtes Zeugnis der Dorfentwicklung ab.</p><p>Sonderausstellungen greifen unterschiedlichste Themen mit Bezug zu Gais auf.</p><p>Jeweils sonntags ge\u00f6ffnet. Der Eintritt ist frei. <br>F\u00fchrung f\u00fcr Gruppen auf Anfrage.\u00a0</p><p>Alle Museen im Appenzellerland finden Sie unter: www.museen-im-appenzellerland.ch</p>", "url": "https://www.gais.ch/kultur-freizeit/museum", "image": "https://alarpimtsoch.sos-ch-dk-2.exoscale-cdn.com/catalog/4/4/4/6/4446153bf77ceb72be044a10d8b67a99788a89c3_dorfplatz.jpg", "openstreetmap_id": "319847880"}, "geometry": {"type": "Point", "coordinates": ["9.4542223", "47.3621805"]}}, {"type": "Feature", "properties": {"identifier": "f15fd7fa-5857-421f-bfa4-e96387fd5a11", "name": "Feuerstelle Moos", "url": "http://www.teufen.ch/xml_1/internet/de/intro.cfm", "image": "https://alarpimtsoch.sos-ch-dk-2.exoscale-cdn.com/catalog/6/9/2/b/692b7005a3f9891119962485e0ba2115fe255457_Wetti1.jpg", "openstreetmap_id": "node/235421329"}, "geometry": {"type": "Point", "coordinates": ["9.422371881238885", "47.39823024372023"]}}, {"type": "Feature", "properties": {"identifier": "f1d0d87f-dd80-440f-b3e5-f6d8cebda790", "name": "Feuerstelle Wetti", "url": "http://www.teufen.ch/xml_1/internet/de/intro.cfm", "image": "https://alarpimtsoch.sos-ch-dk-2.exoscale-cdn.com/catalog/3/f/d/f/3fdfdd07df26efed7f21bd9e564bc61abaf6a2b7_Feuerstelle.jpg", "openstreetmap_id": "235369736"}, "geometry": {"type": "Point", "coordinates": ["9.4190807", "47.3983782"]}}, {"type": "Feature", "properties": {"identifier": "f5ec4382-dc10-48f5-a254-36159a7c4f0f", "name": "Feuerstelle Hochhamm", "url": "http://www.schoenengrund.ch/de/", "image": "https://alarpimtsoch.sos-ch-dk-2.exoscale-cdn.com/catalog/4/3/8/d/438deb8e430062dd6a6d0f44116e1b07c00c2006_08_2020_sch__nengrund_hochhamm__2_.jpg", "openstreetmap_id": "7755531474"}, "geometry": {"type": "Point", "coordinates": ["9.2352925", "47.3154057"]}}, {"type": "Feature", "properties": {"identifier": "f78ddc42-c8cf-44a7-8036-77e1c4e5ad2a", "name": "Appenzeller Schauk\u00e4serei - Rundgang Besucherzentrum", "description": "<p>Die Appenzeller Schauk\u00e4serei nimmt Sie mit auf eine Entdeckungsreise der besonderen Art: Von der Handwerkskunst des K\u00e4ses bis in die Weiten und Sch\u00f6nheiten des Appenzellerlands. Hier sp\u00fcrt man, dass Tradition und Brauchtum noch gelebt werden. Genau diese Verbundenheit mit Ihrer Heimat macht die Appenzeller Menschen so einzigartig. \n\nDas Schaufenster des weltbekannten Appenzeller K\u00e4ses liegt inmitten einer h\u00fcgeligen, idyllischen Landschaft. Finden Sie heraus, wieso der Appenzeller K\u00e4se der w\u00fcrzigste K\u00e4se \u00fcberhaupt ist. Sein Rezept der Kr\u00e4utersulz bleibt dennoch streng geheim. Es liegt etwas in der Luft, der Duft der Kr\u00e4uter. Erstellen Sie Ihre Kr\u00e4utermischung, die Sie nach Hause nehmen k\u00f6nnen. Lauschen Sie den typischen Kl\u00e4ngen aus dem Appenzellerland. Bestaunen Sie den imposanten K\u00e4sekeller, wo bis zu 12\u2018500 Laibe lagern und lassen Sie sich faszinieren durch den Blick in das K\u00e4sekessi. Schauen Sie in die Weite des Alpsteingebirges: Mit einem Fernglas erleben Sie einen virtuellen 360 Grad Rundblick.\n\nMit dem Audioguide k\u00f6nnen auch internationalen G\u00e4ste, welche mit der deutschen Sprache nicht vertraut sind, in die Welt des K\u00e4ses eintauchen. In Form einer App kann der Guide \u00fcber das kostenlose WLAN heruntergeladen werden und ist in 8 Sprachen verf\u00fcgbar: Englisch, Franz\u00f6sisch, Spanisch, Portugiesisch, Italienisch, Chinesisch, Japanisch und Koreanisch. \n\nKommen Sie vorbei, tauchen Sie ein in die Heimat, den Genuss und Geschmack.\n</p><p>\n</p><p>Eintrittspreise<br>Individuell Erwachsene: CHF 13.00<br>Individuell Kinder (bis 16 Jahre): CHF 8.00<br>Individuell Familie: CHF 32.00<br>Individuell Student / IV-Bez\u00fcger: CHF 12.00</p><p>Eintritt mit F\u00fchrungen (Voranmeldungen notwendig)<br>Kleingruppen bis 6 Personen pauschal: CHF 150.00<br>Kleingruppen von 7 bis 15 Personen pauschal: CHF 180.00</p>", "url": "http://www.schaukaeserei.ch/", "image": "https://alarpimtsoch.sos-ch-dk-2.exoscale-cdn.com/catalog/5/1/0/7/510727398f7613e7a536919bf450132c38d88267_20200721_Schauk__serei_1.jpg", "openstreetmap_id": "1436691275.0"}, "geometry": {"type": "Point", "coordinates": ["9.344712", "47.373415"]}}, {"type": "Feature", "properties": {"identifier": "f7d04cb4-73ae-418d-839d-5a36fb816be9", "name": "Feuerstelle Steinfluh", "description": "<p>Die Feuerstelle l&auml;sst sich zu Fuss in wenigen Minuten von der Postautohaltestelle Steinflue auf der Linie Urn&auml;sch-Schw&auml;galp erreichen und ist Teil des Lillywegs, mit einem Glockenspiel und kleiner Spielh&uuml;tte. Sie liegt am jungen Bach Urn&auml;sch auf 985 m &uuml;. M. mit M&ouml;glichkeit zum plantschen.</p><p>Vorhanden ist:</p><ul><li>Feuerstelle mit Rost und Sitzb&auml;nke</li><li>Brennholz</li><li>Spielh&uuml;ttchen &amp; Glockenspiel</li><li>Abfallbeh&auml;lter</li></ul>", "image": "https://alarpimtsoch.sos-ch-dk-2.exoscale-cdn.com/catalog/2/b/f/4/2bf4c9579043eb6af483a844ef58104452b89462_Urn__sch_Feuerstelle_Steinfluh.jpg", "openstreetmap_id": "5003504806"}, "geometry": {"type": "Point", "coordinates": ["9.289101362228395", "47.270792017307876"]}}]}