{"type": "FeatureCollection", "features": [{"type": "Feature", "properties": {"identifier": "1a336517-b4aa-4d3b-9d08-d6bf125e55ae", "name": "Textildorf - F\u00fchrung durch Rehetobel", "description": "Rehetobel war um 1900 ein Zentrum der textilen Heimindustrie. Hier wurde f\u00fcr die bekannten Handels- und Textilh\u00e4user in St. Gallen und Speicher anf\u00e4nglich gewoben und sp\u00e4ter gestickt und auch eigener Handel betrieben. Auf einer textilhistorischen F\u00fchrung erfahren Sie \u00fcber das Leben der Weber und Sticker sowie die lokale Wirtschafts-, Bau- und Sozialgeschichte als ein Teil der Ostschweizer textilen Vergangenheit.\n\nAuf Wunsch k\u00f6nnen Sie im Anschluss an die F\u00fchrung eine Besichtigung bei der Stickereifirma Walter Sonderegger AG reservieren. Die Firma ist auf hochwertige Stickereien f\u00fcr Lingerie und Damen Oberbekleidung spezialisiert. Der Betrieb liegt ausserhalb des Dorfes, weshalb Fahrzeuge ben\u00f6tigt werden.\n\nDauer: ca. 1 1/2 Stunden Dorff\u00fchrung, 45 Minuten Stickereibesichtigung\nTeilnehmer: 5 - 12 Personen\nKosten: CHF 10.00 pro Person", "url": "https://textildorf.ch/", "image": "https://alarpimtsoch.sos-ch-dk-2.exoscale-cdn.com/catalog/1/3/1/8/1318ad8453154e7a65f9606baadc6b545f27d33d_Bildschirmfoto_2021_01_27_um_14.23.49__3.png", "openstreetmap_id": "148458880"}, "geometry": {"type": "Point", "coordinates": ["9.482944607734682", "47.42699850914466"]}}, {"type": "Feature", "properties": {"identifier": "370931b2-c407-4851-88ae-af3147e62d8a", "name": "Von Frauen, Frieden und Heiden", "description": "Lassen Sie sich auf einer interaktiven Dorff\u00fchrung durch Heiden geschichtlich verw\u00f6hnen.\n\nInteraktive F\u00fchrung durch das historische Dorf Heiden. Wir besprechen die Zusammenh\u00e4nge zwischen Henry Dunant, Heiden, Frieden und Frauen. Eine Tour, die bestimmt auch die M\u00e4nnerwelt interessiert.\n\nDauer: 2 Stunden\nTeilnehmer: max. 25 Personen\nKosten: CHF 190.00", "url": "https://appenzellerland.ch/de/", "image": "https://alarpimtsoch.sos-ch-dk-2.exoscale-cdn.com/catalog/1/c/b/d/1cbdc274dd1a46149ce53fb28621b687a3480ab1_dorfplatz_luftbild.jpg", "openstreetmap_id": "8364473311"}, "geometry": {"type": "Point", "coordinates": ["9.53495", "47.44492"]}}, {"type": "Feature", "properties": {"identifier": "5e2897ea-becc-4a2f-abe1-44af38fcdd5d", "name": "Dorff\u00fchrungen im Appenzellerland", "description": "In folgenden D\u00f6rfer im Appenzellerland sind Dorff\u00fchrungen m\u00f6glich: Heiden (jeweils am Mittwochnachmittag ohne Voranmeldung m\u00f6glich - <a href=\"https://appenzellerland.ch/de/informieren/aktuelles/veranstaltungen.html?eventId=1135046989\" target=\"_blank\">zu den Veranstaltungen</a>), Herisau, Gais, Rehetobel, Trogen, Urn\u00e4sch und Walzenhausen. Lernen Sie bei einem st\u00fcndigen Rundgang Wissenswertes \u00fcber die Geschichte des Dorfes. Oder Sie entscheiden sich f\u00fcr eine Thematische Dorff\u00fchrung.\n\nDauer: ca. 1 Stunde\nKosten auf Anfrage\n\nGerne unterbreiten wir Ihnen ein passendes Angebot.", "image": "https://alarpimtsoch.sos-ch-dk-2.exoscale-cdn.com/catalog/0/7/1/7/0717dc1c28a4aa0454d70079a0709f2b9f9e35bb_heiden_dorff__hrung.jpg", "openstreetmap_id": "1098126342"}, "geometry": {"type": "Point", "coordinates": ["9.5342523", "47.444958"]}}, {"type": "Feature", "properties": {"identifier": "885f470a-2e85-4368-98a2-00ecf31d1d42", "name": "F\u00fchrung zum Chindlistein Heiden", "description": "Als Chindlistein (auch Kindlistein oder Tittistein) werden Felsen bezeichnet, mit denen ein Fruchtbarkeitskult verbunden wird. \nDer Chindlistein nahe Heiden \u00fcbt auf die Menschen seit \u00fcber 1000 Jahren eine besondere Ausstrahlung und Anziehung aus. Lernen Sie auf einer gef\u00fchrten Wanderung diesen geheimnisvollen Ort und seine Umgebung auf den Spuren unserer Ahnen kennen.\n\nDauer: 2 bis 3 Stunden\nTeilnehmer: max. 25 Personen\nKosten: CHF 230", "image": "https://alarpimtsoch.sos-ch-dk-2.exoscale-cdn.com/catalog/b/2/2/7/b227e12dc4eb11f72ee7399c59822532741a137b_20170328_182104.jpg", "openstreetmap_id": "8364473311"}, "geometry": {"type": "Point", "coordinates": ["9.53669", "47.44605"]}}, {"type": "Feature", "properties": {"identifier": "8919643e-f0a9-42e7-b721-c53a56a3f591", "name": "Biedermeier - F\u00fchrung durch Heiden", "description": "<p>Begeben Sie sich auf eine Zeitreise zur&uuml;ck in die 40er Jahre des 19. Jahrhunderts. Erleben Sie einen Gang durch Geschichte und Kultur des Biedermeierdorfes Heiden um 1840. Wieso heisst es &uuml;berhaupt Biedermeierdorf? Was hat es auf sich, mit den dreigeschossigen Walmdachh&auml;usern, den Einzelfenstern und den Dreiecksgiebeln? Dies alles erfahren Sie w&auml;hrend eines aussergew&ouml;hnlichen Rundgangs durch unser Dorf, hoch &uuml;ber dem Bodensee, wo Ihre Begleitperson Sie in einem originalen Biedermeier-Kost&uuml;m durch das Dorf f&uuml;hren wird. Dauer: 1 &ndash; 1.5 Stunden Teilnehmer: max. 25 Personen Kosten: CHF 220.00 (mit Kirchturm CHF 270.00)</p>", "image": "https://alarpimtsoch.sos-ch-dk-2.exoscale-cdn.com/catalog/7/9/8/6/79868bae7b99f0c48954a21862024987e4bd7e50_webimage_B52C1B28_A827_49BA_B7C23BF612FE66EB_1_.jpg", "openstreetmap_id": "8364473311"}, "geometry": {"type": "Point", "coordinates": ["9.53669", "47.44605"]}}, {"type": "Feature", "properties": {"identifier": "a98e26e4-1a26-4588-a251-aa19fbe9c3d9", "name": "S\u00e4ntis - F\u00fchrungen Schw\u00e4galp und S\u00e4ntisgipfel", "description": "Schauen Sie dem K\u00e4ser auf der Schw\u00e4galp bei der Arbeit zu, erfahren Sie Interessanten \u00fcber den NaturErlebnispark oder tauchen Sie in die Erlebniswelt auf dem Gipfel ein. \nEntdecken sie unsere vielf\u00e4ltigen F\u00fchrung:\n- \u00d6ffentliche \u00abS\u00e4ntisgipfel\u00bb-F\u00fchrung (montags)\n- F\u00fchrung \u00abS\u00e4ntisgipfel\u00bb\n- F\u00fchrung \u00abS\u00e4ntis - der Wetterberg\u00bb\n- Hotelf\u00fchrung \u00abS\u00e4ntis - das Hotel\u00bb\n- F\u00fchrung \u00abBahnanlage der Talstation\u00bb\n- F\u00fchrung \u00abAlpschauk\u00e4serei Schw\u00e4galp\u00bb\n- F\u00fchrung \u00abNaturErlebnispark entdecken\u00bb\n- F\u00fchrung \u00abNaturErlebnispark vertiefen\u00bb\n\nDauer: ca. 1-2 Stunden\nTeilnehmer: Ab 8 Personen\nKosten: pro Gruppe CHF 190.00 / kombiniert mit einer Gastronomieleistung in einem der Gasth\u00e4user kostet die F\u00fchrung pro Gruppe CHF 130.00. Die F\u00fchrung \u00abNaturErlebnispark vertiefen\u00bb kostet CHF 250.00 pro Gruppe", "url": "https://saentisbahn.ch/erlebnis/seminare-gruppen/gruppen-und-rahmenprogramme/", "image": "https://alarpimtsoch.sos-ch-dk-2.exoscale-cdn.com/catalog/0/8/e/b/08eb9d7af268391f13437b90b61a9295c76d529f_Computerformat_4_3_schwellbrunn_sitz_s__ntis.jpg", "openstreetmap_id": "node/53719284"}, "geometry": {"type": "Point", "coordinates": ["9.3192548", "47.256134"]}}, {"type": "Feature", "properties": {"identifier": "ae0a35ea-5a60-4658-8eb2-520ac9f28a7b", "name": "Goba Manufaktur (B\u00fchler) - Erlebnisf\u00fchrung", "description": "Mit der Goba Manufaktur wurde dem Kerngesch\u00e4ft einen Zweig hinzugef\u00fcgt, in dem Kr\u00e4uter, Beeren und Bl\u00fcten die Hauptrolle spielen. Eigentlich naheliegend f\u00fcr das Unternehmen, dessen Herzst\u00fcck nat\u00fcrliche und regionale Produkte sind. Die Manufaktur Spezialit\u00e4ten reichen von Bitter \u00fcber erlesene Lik\u00f6re bis hin zu Teemischungen, Punsche, Sirupe oder Konfis und werden nach eigenen Rezepten handgefertigt . \n\nIn B\u00fchler AR erhielt die Goba Manufaktur 2014 ein neues Zuhause. In der wunderbaren T\u00fcftelk\u00fcche entstehen mit \"Bedacht von Hand gemachte\" K\u00f6stlichkeiten und neben legend\u00e4ren Klassikern auch saisonale Experimente und spannende Innovationen. Sehen Sie wie fleissige H\u00e4nde in gl\u00e4nzenden T\u00f6pfen r\u00fchren, feinste K\u00f6stlichkeiten in schmucke Gl\u00e4schen und Flaschen abgef\u00fcllt oder unz\u00e4hlig viele Nidelzeltli von Hand gebrochen und verpackt werden.\n\nBei uns d\u00fcrfen Sie aber auch gleich selbst Hand anlegen und Ihr eigenes Kr\u00e4utersalz herstellen. Auf dem 2 st\u00fcndigen Rundgang erwarten Sie mehrere Degustationspunkte, ein regionaler Ap\u00e9ro und viel Spannendes rund um die Geschichte der Goba.", "url": "https://goba-welt.ch/standorte-anfragen/betriebsbesichtigung", "image": "https://alarpimtsoch.sos-ch-dk-2.exoscale-cdn.com/catalog/6/0/1/3/6013739146ee387e359a9ddaa0ae6a8eb4da0638_Goba_Bild_.jpg", "openstreetmap_id": "7244559522"}, "geometry": {"type": "Point", "coordinates": ["9.4054825116409", "47.375833854044"]}}, {"type": "Feature", "properties": {"identifier": "daf85931-1fb0-49eb-9957-7a87c063902f", "name": "Appenzeller Alpenbitter - Gef\u00fchrter Rundgang und Degustation", "description": "Erleben Sie die Kr\u00e4uterwelt mit allen Sinnen und kommen Sie dem gut geh\u00fcteten Geheimnis n\u00e4her: dem Originalrezept des Appenzeller Alpenbitters mit 42 auserlesenen Kr\u00e4utern.\n\nAuf einem Rundgang erfahren Sie mehr \u00fcber die 42 Kr\u00e4uter, das Brennen von Spitzenprodukten und den Familienbetrieb.\nNachdem Sie viel Spannendes \u00fcber die Brenntradition und die Herstellung erfahren haben, ist es Zeit, den Appenzeller Alpenbitter und weitere Spezialit\u00e4ten bei einer Degustation kennenzulernen. S\u00e4mtliche Produkte k\u00f6nnen Sie im Laden kaufen.\n\nBuchbar ab 10 Personen (max. 60 Personen pro F\u00fchrung)\nWann: Auf Voranmeldung\nDauer: ca. 1.5 Stunden\nKosten: Kostenlos", "url": "https://www.appenzeller.com/", "image": "https://alarpimtsoch.sos-ch-dk-2.exoscale-cdn.com/catalog/b/d/e/d/bdedb979705cef6c90b4f02df953e3c6fc5f7b9d_App_kraeuterwelt_01.jpg", "openstreetmap_id": "way/239877619"}, "geometry": {"type": "Point", "coordinates": ["9.413917057033657", "47.32892515"]}}]}