{"type": "FeatureCollection", "features": [{"type": "Feature", "properties": {"identifier": "01282b25-f32c-49ef-9f0e-54b3c3eafc24", "name": "BeDas Cafe GmbH", "description": "Im BeDas Cafe sind B\u00e4ckereiartikel aller Art, Geschenke, selbstgemachte Patisserie und Geb\u00e4cke im Angebot. Im Caf\u00e9 geniessen Sie die frischen Produkte vor Ort \u2013 und dazu den besten Kaffee im Herzen von Heiden. Es ist ein gem\u00fctlicher Treffpunkt f\u00fcr alle. Ob zum Zmorge, zum Zn\u00fcni oder zum Dessert, bei uns sind Sie an der richtigen Adresse.\n", "url": "https://bedas-cafe.ch/", "image": "https://alarpimtsoch.sos-ch-dk-2.exoscale-cdn.com/catalog/1/6/1/7/16171387e2b66fc3b522a866f29716aa2b6a1037_20240308_131031.jpg", "openstreetmap_id": "253241544"}, "geometry": {"type": "Point", "coordinates": ["9.53607805767112", "47.44562202047335"]}}, {"type": "Feature", "properties": {"identifier": "019f2a07-7aba-4900-8c92-c560af420c64", "name": "Restaurant Appenzeller Schauk\u00e4serei", "description": "Im Restaurant f\u00fchlt man sich sofort wohl und kann t\u00e4glich durchgehend warm essen. K\u00e4se ist nat\u00fcrlich der Trumpf auf der Speisekarte. Zudem gibt es jeden Sonntagmorgen ein reichhaltiges Fr\u00fchst\u00fccksbuffet. Und auch f\u00fcr jene, die gerne selber kochen, bietet das H\u00f6ckli eine Attraktion: Im K\u00e4sekessi k\u00f6nnen die Besucherinnen und Besucher K\u00e4seh\u00f6rnli zubereiten.", "url": "https://www.schaukaeserei.ch/restaurant", "image": "https://alarpimtsoch.sos-ch-dk-2.exoscale-cdn.com/catalog/d/2/4/f/d24f850c6a1781fc711ba38a48650d4f87cfa577_Restaurant_Schauk__serei_2.jpg", "openstreetmap_id": "6815539131"}, "geometry": {"type": "Point", "coordinates": ["9.344723", "47.373531"]}}, {"type": "Feature", "properties": {"identifier": "12d96258-248f-4309-bad6-f2b6161a3ad8", "name": "Haus zur Stickerei \u2013 Feste feiern mit Herz", "description": "<p>Das Sticklokal bietet Platz f&uuml;r bis zu 55 Personen. <br>Unsere K&uuml;che ist regional, schweizerisch und wir kochen mit Freude.</p><p>Jeden letzten Donnerstag im Monat ist die Stobe + Bar ab 17.00 Uhr ge&ouml;ffnet (Juli/August Sommerpause). <br>Es finden ebenfalls &ouml;ffentliche kulturelle Veranstaltungen statt.</p><p>Aktuelles finden Sie immer unter www.hauszurstickerei.ch</p>", "url": "http://www.hauszurstickerei.ch/", "image": "https://alarpimtsoch.sos-ch-dk-2.exoscale-cdn.com/catalog/b/3/e/7/b3e7c1600530d709ce12a75de479b6573733e96a__DSC3089_kl__2.jpg", "openstreetmap_id": "375770636"}, "geometry": {"type": "Point", "coordinates": ["9.520428", "47.4343377"]}}, {"type": "Feature", "properties": {"identifier": "24748c3a-5642-490b-a48d-276e5a1bf358", "name": "B\u00e4ckerei-Konditorei Meyerhans", "description": "In unserer B\u00e4ckerei stellen wir t\u00e4glich frisch die verschiedensten Brotsorten unter dem Reinheitsgebot des Naturel Labels  her.\nIn unserer Konditorei finden Sie alles was s\u00fcsse Herzen h\u00f6her schlagen l\u00e4sst.\nUnsere Produkte werden alle nach strengen Produktionsrichtlinien und gesunden Zutaten produziert. Von Torten \u00fcber Patisserie bis zum Dessertbuffet f\u00fcr Ihr Fest.\nEbenfalls in der Konditorei hergestellt werden unsere feinen Appenzeller-Biber, die schon mehrere Preise gewonnen haben.", "url": "http://www.beckmeyerhans.ch/", "image": "https://alarpimtsoch.sos-ch-dk-2.exoscale-cdn.com/catalog/e/4/3/a/e43a495d3f8ad3531def2b21a1f6bf5186f4e3c7_B__ckerei_Konditorei_Meyerhans__Walzenhausen.jpg", "openstreetmap_id": "5352678324"}, "geometry": {"type": "Point", "coordinates": ["9.6017416", "47.4514749"]}}, {"type": "Feature", "properties": {"identifier": "5dac0c92-4a19-47fa-b74d-4153152f0cef", "name": "Restaurant und Metzgerei Ochsen Sch\u00f6nengrund", "description": "Das Restaurant Ochsen bietet grosse und kleine R\u00e4umlichkeiten f\u00fcr jegliche Anl\u00e4sse unterschiedlicher Gesellschaften an.\nSo abwechslungsreich wie das Essen und Trinken ist auch das Ambiente der R\u00e4ume. Von gem\u00fctlich-urchig \u00fcber edel-rustikal bis hin zu einfach-heimelig ist alles vorhanden. Die wichtigsten Werte im \u00abOchsen\u00bb sind zufriedene G\u00e4ste, eine traditionelle, gut b\u00fcrgerliche K\u00fcche, hausgemachte Produkte, regionale und gesunde Qualit\u00e4t. \n\nHinter dem Betrieb des Restaurants Ochsen steht auch eine Metzgerei. Das Fleisch wird aus der hauseigenen Schlachtung verarbeitet. Die Tiere stammen von Landwirtschaftsbetrieben aus n\u00e4chster Umgebung, aus dem Appenzellerland und Neckertal. Der Metzgereiladen befindet sich im Landigeb\u00e4ude an der Hauptstrasse 10 in Sch\u00f6nengrund.", "url": "https://www.signer-gastro.ch/", "image": "https://alarpimtsoch.sos-ch-dk-2.exoscale-cdn.com/catalog/1/7/1/5/1715da235eefd1f9fc73b3459021104bcbb18d18_Ochsen_Sch__nengrund.jpg", "openstreetmap_id": "way/650590401"}, "geometry": {"type": "Point", "coordinates": ["9.226351544337252", "47.32774135"]}}, {"type": "Feature", "properties": {"identifier": "7649439a-3c24-4b49-9cbb-ddec6b477775", "name": "Restaurant Engel Herisau", "description": "<p><span style=\"font-size: 12.0pt; line-height: 115%; font-family: 'Aptos',sans-serif; mso-ascii-theme-font: minor-latin; mso-fareast-font-family: Aptos; mso-fareast-theme-font: minor-latin; mso-hansi-theme-font: minor-latin; mso-bidi-font-family: Arial; mso-bidi-theme-font: minor-bidi; mso-ansi-language: DE-CH; mso-fareast-language: EN-US; mso-bidi-language: AR-SA;\">Im &laquo;Engel&raquo; </span>treffen sich Handwerker zum Zn&uuml;ni. Am Mittag werden Tagesmen&uuml;s zu moderaten Preisen serviert &ndash; inklusive Salat und Suppe. Nachmittags geniessen Wanderer einen Zvieri oder Coupe mit saisonalen Fr&uuml;chten. Am Abend lassen sich Familien zum Nachtessen nieder, und Vereine aus Herisau und Umgebung genehmigen sich nach Training oder Probe einen Absacker.</p><p class=\"MsoNormal\">Und wen der Hunger plagt, dem zaubert unser Koch Hampi auch zu sp&auml;ter Stunde etwas Gluschtiges auf den Teller.</p><p class=\"MsoNormal\">Anl&auml;sse sind im Saal bis zu 40 Personen durchf&uuml;hrbar.&nbsp;</p>", "url": "https://www.engel.rest/", "image": "https://alarpimtsoch.sos-ch-dk-2.exoscale-cdn.com/catalog/0/c/e/8/0ce83d8b6c74dd9651d2c95bacc4173747c293e1_DSC_3597.jpg", "openstreetmap_id": "node/9364646672"}, "geometry": {"type": "Point", "coordinates": ["9.2603454", "47.3889704"]}}, {"type": "Feature", "properties": {"identifier": "9b806ef0-f838-4e17-a6d3-19ee116ca605", "name": "Restaurant Mineralbad", "description": "1463 wurde die Heilquelle Unterrechstein erstmals urkundlich erw\u00e4hnt. Seit \u00fcber 300 Jahren wird das heilsame, mineralhaltige Wasser zum Baden genutzt, anf\u00e4nglich in einfacher Behausung, sp\u00e4ter im Gasthaus Mineralbad, zuerst in Holzzubern und dann in Blechbadewannen. \nMit dem Bau des Appenzeller Heilbads in den 1980er-Jahren verlor das Restaurant Mineralbad seine Rolle als \u00abB\u00e4dli\u00bb. Aber es blieb das gem\u00fctliche, geschichtstr\u00e4chtige Gasthaus. Seit es leicht umgebaut wurde und Albert K\u00fcng nebst dem Heilbad-Bistro auch die Leitung des Restaurants Mineralbad \u00fcbernommen hat, erlebt es einen neuen Aufschwung. Eine kleine, aber feine Speise- und Weinkarte mit saisonaler und regionaler K\u00fcche l\u00e4dt zum Verweilen ein. \nDas Restaurant bietet bis zu 40 Personen grossz\u00fcgig Platz. Im traditionellen Mineralbad-St\u00fcbli k\u00f6nnen bis zu 12 Personen bedient werden. \nAuf Anfrage k\u00f6nnen Veranstaltungen auch ausserhalb der offiziellen \u00d6ffnungszeiten gebucht werden.", "url": "https://www.restaurant-mineralbad.ch/", "image": "https://alarpimtsoch.sos-ch-dk-2.exoscale-cdn.com/catalog/9/1/a/0/91a0dc1a19eb17e794fb356c7ba03d6c8651cff9_Restaurant_Mineralbad_altes_Bild.png", "openstreetmap_id": "node/984723897"}, "geometry": {"type": "Point", "coordinates": ["9.515908956527712", "47.430144592248"]}}, {"type": "Feature", "properties": {"identifier": "a7419508-b100-428a-b308-5a3127d0e4e2", "name": "Wirtschaft R\u00fctegg", "description": "<p>Die Wirtschaft R&uuml;tegg liegt an einem stillen Ort abseits der grossen Strassen. Eine kleine Gartenbeiz l&auml;dt zum Verweilen und Geniessen ein, mit Sicht auf den Bodensee und die ganze Vorarlberger Alpenkette. Die &laquo;R&uuml;tegg&raquo; - ein Beizli f&uuml;r Menschen, die Ruhe, Gem&uuml;tlichkeit und Kultur sch&auml;tzen.</p>", "url": "http://www.ruetegg.ch/", "image": "https://alarpimtsoch.sos-ch-dk-2.exoscale-cdn.com/catalog/1/0/3/e/103ec9113f85afb6f4e61f241ce59318dcd4edb3_Restaurant_R__tegg.jpg", "openstreetmap_id": "199667124"}, "geometry": {"type": "Point", "coordinates": ["9.5270095", "47.422786"]}}, {"type": "Feature", "properties": {"identifier": "af272a07-8535-49de-b55b-0f397cbbaea2", "name": "Panorama-Restaurant S\u00e4ntisgipfel", "description": "<p><strong>Hinweis: Die S&auml;ntis-Schwebebahn ist infolge Erneuerung der Bahn von 1. Mai bis Sp&auml;therbst 2026 eingestellt. Das Panorama-Restaurant S&auml;ntisgipfel ist geschlossen. Das Hotel und die Restaurationsbetriebe auf der Schw&auml;galp sind ge&ouml;ffnet.</strong></p><p>Der S&auml;ntisgipfel liegt 2502 Meter &uuml;ber Meer und ist damit der h&ouml;chste Punkt des Appenzellerlandes. Kulinarisch verw&ouml;hnen lassen kann man sich hier aber genauso wie im Tal, sei es im bedienten oder im Selbstbedienungs-Bereich des Restaurants. Neben den kulinarischen Highlights erleben Sie ausserdem an den Erlebnisfahrten atemberaubende Sonnenaufgangsfahrten, Sonnenunterg&auml;nge und sternenklare Nachthimmel.</p><p>&nbsp;</p>", "url": "https://saentisbahn.ch/gastronomie/saentisgipfel/", "image": "https://alarpimtsoch.sos-ch-dk-2.exoscale-cdn.com/catalog/3/d/8/f/3d8fbbd3ada6a919d6f515d7881aa78c339a6a88_16_07_20_3029.jpg", "openstreetmap_id": "26864510"}, "geometry": {"type": "Point", "coordinates": ["9.3425129", "47.2492861"]}}, {"type": "Feature", "properties": {"identifier": "ba5a68fd-24f3-479f-89b1-b7db31de2faa", "name": "Kafi Platz Dr\u00fc", "description": "Herzlich Willkommen in unserem wunderbaren PLATZ DR\u00dc.\nIm gem\u00fctlichen Ambiente der Gaststube mit sch\u00f6nster Aussicht Richtung Alpstein k\u00f6nnen Sie bei uns Kaffee, Tee und vieles mehr geniessen. Wir legen Wert auf regionale und auserlesene Produkte und servieren diese mit viel Flair.\nGeniessen Sie eine Auszeit, und lassen Sie sich von den immer wieder wechselnden Dekorationen inspirieren.\nM\u00f6r freuid \u00fcs uf \u00fcber jeda B\u2018suach \nDie Gastgeberinnen \nKatja und Monika", "url": "https://platzdrue.ch", "image": "https://alarpimtsoch.sos-ch-dk-2.exoscale-cdn.com/catalog/f/2/1/d/f21d4b05c63e9fae395dd6017d30ec9401a7ed62_D96F4A94_197F_4F5A_9939_C2E4BD9FD18A.png", "openstreetmap_id": "node/10061976317"}, "geometry": {"type": "Point", "coordinates": ["9.4539813", "47.3621341"]}}, {"type": "Feature", "properties": {"identifier": "d581aecf-0947-4039-818c-9b771ad2aa18", "name": "Urwaldhaus - Wirtschaft zum B\u00e4ren", "description": "Die Wirtschaft zum B\u00e4ren, besser bekannt unter dem Namen Urwaldhaus, geh\u00f6rt zu den \u00e4ltesten Geb\u00e4uden Rehetobels. Seine Anf\u00e4nge gehen auf das 16. Jahrhundert zur\u00fcck. Seit 1805 wird im Haus eine Wirtschaft betrieben. Legend\u00e4r wurde das Haus in den 1950ern und 60ern durch die Wirtin Frieda F\u00e4ssler, von allen nur \u00abB\u00e4ren-Frieda\u00bb genannt. Sie verstand es, durch ihre Geschichten alle in den Bann dieses speziellen Ortes zu ziehen. Nach ihrem Tod 1966 kaufte die Gemeinde das kulturell wertvolle Denkmalschutzobjekt. Seither wurde es weiter als einfache Gastst\u00e4tte betrieben. Das Urwaldhaus bietet urchig-romantische Gaststuben f\u00fcr den geselligen Jass am Stammtisch, feines Essen, erlesene Getr\u00e4nke, Begegnungen, Gespr\u00e4che und kulturellen Austausch, R\u00e4ume f\u00fcr R\u00fcckzug, Anl\u00e4sse bis hin zu Seminaren.\n\nF\u00fcr die Restaurant-G\u00e4ste bietet der \u00abB\u00e4ren\u00bb drei heimelig, rustikale Zimmer zur \u00dcbernachtung an. Das Badezimmer mit Dusche befindet sich zur Einzelnutzung auf der Etage.", "url": "https://urwaldhaus.ch/", "image": "https://alarpimtsoch.sos-ch-dk-2.exoscale-cdn.com/catalog/e/6/b/4/e6b40c64160e354e75c8ae7c348218b30ad2d594_Hauptbild2.jpg", "openstreetmap_id": "12328943500"}, "geometry": {"type": "Point", "coordinates": ["9.467033", "47.4314479"]}}, {"type": "Feature", "properties": {"identifier": "e39da60f-1814-4cc3-be75-9c3f86f6f876", "name": "B\u00e4ckerei Kast AG", "description": "Im Mittelpunkt unserer Backstube steht der direkt befeuerte Holzofen: Dort, wo das Feuer entfacht wird, backen die Brote in ruhiger Hitze zu voller Aromatik. Dieses urspr\u00fcngliche Backen pr\u00e4gt den Charakter jedes einzelnen Geb\u00e4cks.\nT\u00e4glich entstehen bei uns Brote, Kleinbrote und feines S\u00fcssgeb\u00e4ck, hergestellt aus besten biologischen Rohstoffen, mit handwerklicher Sorgfalt und viel Zeit f\u00fcr die Teigreife. Besonders stolz sind wir auf unser grosses Sauerteigbrotsortiment: vielf\u00e4ltig, aromatisch und gepr\u00e4gt von langer Fermentation, die Bek\u00f6mmlichkeit und Tiefe verleiht.\nSo verbinden wir ehrliches Handwerk, Geduld und die Kraft des Holzofens zu Backwaren mit unverwechselbarem Charakter, Tag f\u00fcr Tag frisch aus der Backstube.", "url": "https://www.baeckerei-kast.ch/index.php", "image": "https://alarpimtsoch.sos-ch-dk-2.exoscale-cdn.com/catalog/0/5/0/d/050d741b3d01a3501de23cea73f6bfae62dbd686_Baeckerei_Kast_Reute_08.jpg", "openstreetmap_id": "195423086"}, "geometry": {"type": "Point", "coordinates": ["9.578271934025699", "47.416344318153385"]}}, {"type": "Feature", "properties": {"identifier": "f4e7f084-b9fc-4c5b-8a4a-848ba2993329", "name": "S\u00e4ntis \u2013 der Berg", "description": "<p><strong>Hinweis: Die S&auml;ntis-Schwebebahn ist infolge Erneuerung der Bahn von 1. Mai bis Sp&auml;therbst 2026 eingestellt. Das Hotel und die Restaurationsbetriebe auf der Schw&auml;galp sind ge&ouml;ffnet.</strong></p><p>Vom 2'502 Meter hohen Gipfel reicht der Blick &uuml;ber 6 L&auml;nder. So grenzenlos wie die Rundsicht sind Ihre M&ouml;glichkeiten rund um S&auml;ntis und Schw&auml;galp. Erlebnisse in einer der sch&ouml;nsten Naturkulissen Europas &ndash; Veranstaltungen und Sonderfahrten das ganze Jahr &ndash; gelebtes Appenzeller Brauchtum und kulturelle H&ouml;hepunkte &ndash; Einblicke in die Erlebniswelten &ndash; dies, viel mehr und das passende kulinarische Angebot unserer Partnerbetriebe: das gem&uuml;tliche Gasthaus Passh&ouml;he, das 3*S&auml;ntis - das Hotel und die Panorama-Restaurants auf dem S&auml;ntisgipfel finden Sie bei uns.</p><p>&nbsp;</p>", "url": "http://www.saentisbahn.ch/", "image": "https://alarpimtsoch.sos-ch-dk-2.exoscale-cdn.com/catalog/1/a/8/6/1a86f006f6880243b8c5d7649ea84f0119b08328_urn__sch_s__ntis.jpg", "openstreetmap_id": "node/53719284"}, "geometry": {"type": "Point", "coordinates": ["9.3192548", "47.256134"]}}, {"type": "Feature", "properties": {"identifier": "f587a179-e12f-48b6-9e53-a54430d40aaf", "name": "Restaurant Schw\u00e4galp", "description": "Das Restaurant verf\u00fcgt \u00fcber ein Innenrestaurant, eine Terrasse und diverse R\u00e4umlichkeiten f\u00fcr Seminare, Bankette und Hochzeiten.  W\u00e4hrschaft, bodenst\u00e4ndig, mit regionalen und frischen Produkten: So pr\u00e4sentiert sich die K\u00fcche unserer drei Gastronomiebetriebe auf dem S\u00e4ntis und der Schw\u00e4galp. Gerne organisieren wir f\u00fcr Sie Ihren Anlass, sei es eine Hochzeit, ein Geburtstag oder ein Seminar.", "url": "https://saentisbahn.ch/gastronomie/restaurant-schwaegalp/", "image": "https://alarpimtsoch.sos-ch-dk-2.exoscale-cdn.com/catalog/c/4/8/6/c486b86fd7263827c561cc0951b24ece8aa9fc13_20160128_SCHWAEGALP_562.jpg", "openstreetmap_id": "374699470"}, "geometry": {"type": "Point", "coordinates": ["9.3188294", "47.2563886"]}}, {"type": "Feature", "properties": {"identifier": "fa1b02eb-a517-451a-bcb0-032764ce68c7", "name": "Krone Trogen", "description": "<p>Die vier Einzel- und sechs Doppelzimmer der Krone Trogen bieten eine gem\u00fctliche Atmosph\u00e4re und verbinden Altes mit Neuem. So sind die Geschichte des Hauses und der moderne Zeitgeist sp\u00fcrbar. Die Krone ist ein wunderbarer Ausgangspunkt f\u00fcr eine Wanderung in den Appenzeller H\u00fcgeln, einen Museumsbesuch mit dem \u00abTrogner B\u00e4hnli\u00bb nach St.Gallen oder ein Glas Wein im Krone Bistro. Wer mit Fahrrad oder Rucksack unterwegs ist oder mit der Appenzellerbahn anreist, erlebt im Krone Bistro den besonderen Charme von Trogen hautnah. Das Bistro wird von engagierten Trognerinnen und Trognern gef\u00fchrt, denen Gemeinschaft und lebendiger Austausch im Dorf ein Anliegen sind. Gegen den kleinen Hunger gibt es im Bistro su\u0308sse und salzige Kleinigkeiten, immer frisch und knusprig. Die Krone Trogen wurde 1727 erbaut und gilt als zweit\u00e4ltestes, am Platz erhaltenes Haus der Zellweger-Dynastie. Ab 1810 wurde das ehemalige Privathaus zum \u00abGasthaus Krone\u00bb. Die Krone ist Teil des Ortsbildes und steht unter Denkmalschutz von nationaler Bedeutung.</p>", "url": "https://www.krone-trogen.ch/", "image": "https://alarpimtsoch.sos-ch-dk-2.exoscale-cdn.com/catalog/5/2/f/9/52f9d215fcca3b2ad213883444ad82172d43a0fa_Gruppenfoto_Betriebsausflug_24.8.2024.jpg", "openstreetmap_id": "node/605080895"}, "geometry": {"type": "Point", "coordinates": ["9.4654187", "47.4079437"]}}, {"type": "Feature", "properties": {"identifier": "fa666890-e27f-4d04-8d15-47baab08fe83", "name": "Maja Take Away", "description": "Hungrige und Durstige verk\u00f6stigt Maja Maier beim Take-away-Stand auf dem Chistenpass im Wolfh\u00e4ldliger Weiler Sonder. Im Angebot sind erfrischende Getr\u00e4nke, selbst gemachter Kartoffelsalat, Schnitzelbrot, Pommes frites und W\u00fcrste vom Grill - eine ideale St\u00e4rkung, um den zweiten Teil des Witzwegs in Angriff zu nehmen. \nIn Absprache mit Maja Maier kann auch ein Gruppenap\u00e9ro vor Ort organisiert werden.\n", "image": "https://alarpimtsoch.sos-ch-dk-2.exoscale-cdn.com/catalog/e/7/3/2/e7320f2c89ba618e23ffb86ec9d0cd340e7235c5_230531_Imbissstand_Harmonie_Maier_Maja.jpg", "openstreetmap_id": "relation/1683968"}, "geometry": {"type": "Point", "coordinates": ["9.572825431823732", "47.44878374669434"]}}, {"type": "Feature", "properties": {"identifier": "ff12a426-f852-4ffb-aa28-067c91e1a8f5", "name": "Erlebnis Waldegg - Essen im Schnuggebock & Restaurant", "description": "Im Schnuggebock wurde die Zeit behutsam zur\u00fcckgestellt. In der w\u00e4hrschaften Appenzeller Kost pr\u00e4sentiert sich das Beste von Gestern. Einheimische \u00c4pfel statt exotische Orangen, K\u00e4se aus hauseigener Produktion, knuspriges Brot. Hier bei Grosi geht alles einen Tick langsamer, genussvoller. Lehnen Sie sich zur\u00fcck und erfahren Sie die echte Appenzeller Gastfreundschaft.\n\nIm Restaurant Waldegg erwartet Sie hingegen eine zeitgem\u00e4sse K\u00fcche, facettenreich aber bodenst\u00e4ndig, essentiell aber raffiniert, lokal aber weltoffen. Die Mission ist es, frische Produkte mit handwerklichen Verfahren so zuzubereiten, dass ihr urspr\u00fcnglicher Charakter erhalten bleibt und die puren, reinen Aromen zur Geltung kommen. Das Restaurant Waldegg verf\u00fcgt \u00fcber eine gem\u00fctliche Gaststube mit Kachelofen, einen festlichen Saal bis zu 50 Personen und einer grossen Gartenwirtschaft mit herrlichem Blick in den Alpstein.", "url": "http://www.waldegg.ch/", "image": "https://alarpimtsoch.sos-ch-dk-2.exoscale-cdn.com/catalog/0/c/2/9/0c29c0852eced7f63a8dc44fc9cd956149b20bc4_ErlebnisWaldegg_3.jpg", "openstreetmap_id": "423778138"}, "geometry": {"type": "Point", "coordinates": ["9.4106039", "47.4027945"]}}]}