{"type": "FeatureCollection", "features": [{"type": "Feature", "properties": {"identifier": "12f39112-3482-4bf7-8afb-1ae98bab9539", "name": "Appenzeller Park", "description": "Im Appenzeller Park in Herisau erwartet Sie ein vielseitiger Freizeitpark mit Erlebnissen f\u00fcr jedes Alter, ideal als Familienausflug, Schlechtwetterprogramm, Geburtstag oder Gruppenevent. Familien lieben den grossen Indoor-Spielplatz zum Toben und Entdecken. Wer Action sucht, findet sie beim Kletterparcours Clip\u2019n Climb (f\u00fcrs Klettern ohne Vorkenntnisse)  und im Rutschenpark.\nEin besonderes Herzst\u00fcck ist die Kletterhalle: Mit ihrem Innen- und Aussenbereich ist sie f\u00fcr Sportkletterer ein Paradies. Ob ambitioniertes Klettern, regelm\u00e4ssiges Training oder ein aktiver Nachmittag: Hier kommen Kletterfans voll auf ihre Kosten.\nEin weiteres Highlight ist der Heavy Metal Garden: Hier bestaunen Sie den Komatsu PC-8000, einen der weltweit gr\u00f6ssten Hydraulikbagger, nur weltweit einmal zu besichtigen - im Appenzeller Park. Ein eindrucksvoller Fotospot und ein Erlebnis, das man nicht alle Tage sieht. F\u00fcr Pausen und Genuss stehen zwei Bistros mit ingesamt 330 Sitzpl\u00e4tzen bereit, auch Gruppen und Firmen finden attraktive Angebote und passende Rahmenbedingungen.", "url": "http://www.appenzellerpark.ch/", "image": "https://alarpimtsoch.sos-ch-dk-2.exoscale-cdn.com/catalog/8/a/8/a/8a8af13cc49cc41b3782c28a0000da0e7ae62703_Burg_mit_Junge_stehend.jpg", "openstreetmap_id": "way/844755364"}, "geometry": {"type": "Point", "coordinates": ["9.269369224573303", "47.389611450000004"]}}, {"type": "Feature", "properties": {"identifier": "276d4b36-cc74-4a91-a5c6-577cc5c477e4", "name": "Brocki Gais", "description": "<p>Das legend&auml;re, charmante Brocki ist in Gais seit 1977 ein nachhaltiges Kaufhaus im nebelfreien Appenzellerland auf verwinkelten 450 Quadratmetern mit allerhand Lustigem, Sch&ouml;nem und Sinnvollem aus garantiert zweiter Hand. Hier findest du fast alles f&uuml;r dein Leben: einen Augenschmaus an Wohn- und Haushaltsobjekten, fr&ouml;hliche Atmosph&auml;re inklusive.</p>", "url": "https://www.brocki-gais.ch/", "image": "https://alarpimtsoch.sos-ch-dk-2.exoscale-cdn.com/catalog/a/6/3/6/a636fd606334224c0066a16413beb2bc5e189da8_Brocki_4.jpg", "openstreetmap_id": "way/38564313"}, "geometry": {"type": "Point", "coordinates": ["9.44528081440038", "47.36019356960496"]}}, {"type": "Feature", "properties": {"identifier": "3bcfe4f4-37e9-47de-a12f-de343f5fcbac", "name": "Breitenmoser Appenzeller Fleischspezialit\u00e4ten", "description": "<p>Die Breitenmoser Appenzeller Fleischspezialit\u00e4ten AG steht f\u00fcr Tradition, h\u00f6chste Qualit\u00e4t und Innovation seit 1896.  F\u00fcr die Produktion von Fleisch- und Wurstwaren wird ausschliesslich Schweizer Fleisch verwendet. Schwein und Poulet kommt ausschliesslich aus der Ostschweiz. Das Unternehmen setzt sich dabei h\u00f6chste Qualit\u00e4tsstandards und produziert unter anderem gesch\u00fctzte und pr\u00e4mierte Spezialit\u00e4ten. \n\nIn den vier Fachgesch\u00e4fte, Teufen, Gais, Appenzell und Rorschacherberg, werden die G\u00e4ste von ausgebildeten Fachkr\u00e4ften pers\u00f6nlich und individuell beraten. </p><p>Zus\u00e4tzlich zu den Fachgesch\u00e4ften gibt es die Breitenmoser GenussEcke an der Hauptgasse in Appenzell. Einem 16/7 Shop mit Self-Checkout und bedienten Zeiten mit Delikatessen, Geschenkvariationen und hauseigenen Fleisch- und Wurstspezialit\u00e4ten sowie einer K\u00e4setheke und der M\u00f6glichkeit zur Degustation.</p><p>Standorte:</p><p>Teufen<br>Im Anker<br>Dorf 10<br>9053 Teufen&nbsp;<br>+41 71 333 27 55<br>teufen@breitenmoser-metzgerei.ch<br><br>Gais<br>Dorfplatz 14<br>9056 Gais<br>+41 71 790 04 26<br>gais@breitenmoser-metzgerei.ch<br><br>Appenzell<br>Spar Frischmarkt<br>Unteres Ziel<br>9050 Appenzell<br>+41 71 780 08 01<br>appenzell@breitenmoser-metzgerei.ch<br><br>GenussEcke (ab 1. Mai)<br>Hauptgasse 13<br>9050 Appenzell<br>+41 71 788 09 70<br>genussecke@breitenmoser-metzgerei.ch<br><br>Rorschacherberg<br>Rosenegg<br>Goldacherstrasse 105<br>9404 Rorschacherberg<br>+41 71 855 31 11<br>rorschacherberg@breitenmoser-metzgerei.ch</p>", "url": "http://www.breitenmoser-metzgerei.ch/", "image": "https://alarpimtsoch.sos-ch-dk-2.exoscale-cdn.com/catalog/3/1/9/e/319e8be36282a26ad03e73b37fc7d891f5b9095d_teufen_breitenmoser.jpg", "openstreetmap_id": "node/11240658635"}, "geometry": {"type": "Point", "coordinates": ["9.4281642", "47.3203495"]}}, {"type": "Feature", "properties": {"identifier": "3fd05dc9-34c3-44cf-b38d-a66226602324", "name": "Freibad Heiden", "description": "Das Schwimmbad bietet ein Sportbecken, ein Sprungbecken mit Sprunganlage, ein Nichtschwimmerbecken und ein Kinderplanschbecken mit Rutschbahn und Spielbach. F\u00fcr Kinder hat es zudem eine Spielwiese mit Sandkasten, Kinderschaukeln und Kletterturm. Die G\u00e4ste k\u00f6nnen sich durch das Beachvolleyballfeld, den Bouleplatz, die Slackline, den Tischtennis- und den Tischfussballtisch auch ausserhalb des Wassers sportlich bet\u00e4tigen. Das Restaurant und der Kiosk ist auch ohne Eintritt zug\u00e4nglich.", "url": "http://www.badi-heiden.ch", "image": "https://alarpimtsoch.sos-ch-dk-2.exoscale-cdn.com/catalog/0/9/0/0/09005187cb75d1f10f985a234d7585b84c8b90bc_Badi_Heiden.jpg", "openstreetmap_id": "286054645"}, "geometry": {"type": "Point", "coordinates": ["9.535036", "47.442243"]}}, {"type": "Feature", "properties": {"identifier": "70f1e24e-1e16-4500-b77d-31dcc3e7dcea", "name": "Vali's Bike-Shop", "description": "<p>Kindervelos, Elektro-Bikes, Elektro-Velos, Citybikes, Tourenvelos, Hardtail, Fully...</p><p>Reparatur, Service, Verkauf und E-Bike-Vermietung</p>", "url": "https://www.valikast.ch/", "image": "https://alarpimtsoch.sos-ch-dk-2.exoscale-cdn.com/catalog/4/1/d/d/41dda592a4a866fcec6aa7b025a91d2fc4ff0fa9_DSC_3425.JPG", "openstreetmap_id": "way/152340425"}, "geometry": {"type": "Point", "coordinates": ["9.483215057755425", "47.42670595"]}}, {"type": "Feature", "properties": {"identifier": "7bcf4ffc-eb85-4b0b-bbdc-b0c65c08e451", "name": "Kronberg Luftseilbahn / Bobbahn / Zipline-Park / M\u00e4rliwelt", "description": "<p>Der Kronberg begeistert mit kr\u00f6nenden Erlebnissen im Takt der Natur auf dem Berg und im Tal: Auf dem Berg l\u00e4dt das Berggasthaus mit Sonnenterrasse zum \u00abh\u00f6ckle ond gn\u00fcsse\u00bb ein \u2013 mit dem atemberaubenden 360-Grad-Panorama vom Alpsteinmassiv bis zum Bodensee. Im Sommer gibt es diverse Wege f\u00fcr abwechslungsreiche Wanderungen. Knifflige R\u00e4tsel und viel Abwechslung bieten die zwei R\u00e4tselwege. Im Winter lockt der l\u00e4ngste Schlittelweg der Ostschweiz. Auch im Tal bieten wir mit der Bobbahn, der M\u00e4rliwelt mit Kugelpark und dem Zipline-Park ein unvergessliches Erlebnis. Auf der Bobbahn heisst es freie Fahrt f\u00fcr rasanten Spass! In der M\u00e4rliwelt begleiten Arnika und Jacobi durch ihre Welt voller m\u00e4rchenhafter Abenteuer mit Wasser und Sand bis hin zu luftigen Kletterh\u00f6hen. Staunende Kinderaugen sind hier garantiert! Und wer noch etwas mehr Action will, dem raten wir zu Nervenkitzel auf dem Zipline-Park. Neben dem integrierten Seilpark sorgen 25 Ziplines mit insgesamt 1210 Metern L\u00e4nge f\u00fcr Abwechslung und rasanten Spass. Planst du einen Ausflug mit einer Gruppe? Suchst du dabei etwas Spezielles? Auf die Preise der Luftseilbahn, der Bobbahn, des Zipline-Parks und der M\u00e4rliwelt gew\u00e4hren wir Gruppen ab 10 Personen 20% Rabatt auf alle Einzel-Eintrittspreise.</p>", "url": "https://www.kronberg.ch", "image": "https://alarpimtsoch.sos-ch-dk-2.exoscale-cdn.com/catalog/0/e/f/6/0ef65ea84aea0c79de815ccb8bb95ad3ba188fdf_Kronberg_Key_Visual_beschnitten_RGB.jpg", "openstreetmap_id": "node/41154842"}, "geometry": {"type": "Point", "coordinates": ["9.32832", "47.3198528"]}}, {"type": "Feature", "properties": {"identifier": "82de4139-5527-4fec-9953-7826ac55ae98", "name": "Berg-K\u00e4serei Gais AG", "description": "<p>Die Berg-K&auml;serei hat je nach Saison bis zu 12 Mitarbeitende und verarbeitet t&auml;glich 50'000 bis 60&rsquo;000 kg feinste Appenzeller Bergmilch zu verschiedenen Halbhart- und Bergk&auml;se-Spezialit&auml;ten sowie zu Raclettek&auml;se. Den Rohstoff dazu liefern rund 60 Milchlieferanten aus dem Appenzellerland, welche im Rahmen ihres QM-Systems j&auml;hrlich auf den H&ouml;fen besucht werden. Somit sind der K&auml;serei die Bauernfamilien, ihre Milchproduktionsbetriebe und die Milchqualit&auml;t bestens bekannt. Umweltbewusste Produktion und die Herstellung hochwertiger Qualit&auml;tsk&auml;se pr&auml;gen die Berg-K&auml;serei Gais. Deshalb wird ausschliesslich Bergmilch aus dem Berggebiet des Appenzellerlandes verarbeitet.</p><p>Der Verkaufsladen befindet sich direkt in der Berg-K&auml;serei in Gais und ist wie folgt ge&ouml;ffnet:</p><ul><li>Freitag: 09.00&nbsp;<span style=\"font-size: 11.0pt; mso-bidi-font-size: 12.0pt; line-height: 115%; font-family: 'Arial',sans-serif; mso-fareast-font-family: Aptos; mso-fareast-theme-font: minor-latin; mso-ansi-language: DE-CH; mso-fareast-language: EN-US; mso-bidi-language: AR-SA;\">&ndash;</span> 11.30 Uhr / 13.30 <span style=\"font-size: 11.0pt; mso-bidi-font-size: 12.0pt; line-height: 115%; font-family: 'Arial',sans-serif; mso-fareast-font-family: Aptos; mso-fareast-theme-font: minor-latin; mso-ansi-language: DE-CH; mso-fareast-language: EN-US; mso-bidi-language: AR-SA;\">&ndash; </span>19.00 Uhr</li><li>Samstag: 07.30&nbsp;<span style=\"font-size: 11.0pt; mso-bidi-font-size: 12.0pt; line-height: 115%; font-family: 'Arial',sans-serif; mso-fareast-font-family: Aptos; mso-fareast-theme-font: minor-latin; mso-ansi-language: DE-CH; mso-fareast-language: EN-US; mso-bidi-language: AR-SA;\">&ndash; </span>12.00 Uhr</li></ul>", "url": "https://www.bergkaeserei.ch/index.php", "image": "https://alarpimtsoch.sos-ch-dk-2.exoscale-cdn.com/catalog/9/c/9/8/9c98760e49a84eda57b7776c42244ef8a4f5889e_04_Rustico_Nostrano_2.jpg", "openstreetmap_id": "235742814"}, "geometry": {"type": "Point", "coordinates": ["9.4488289", "47.357302"]}}, {"type": "Feature", "properties": {"identifier": "ba0e7fbf-24f4-4281-822e-8540095ec642", "name": "Goba Mineralquelle und Manufaktur - Laden Gontenbad", "description": "Hier hat in den 1930er Jahren alles begonnen. Hier fliesst unsere Quelle, hier schl\u00e4gt unser Herz.\nNehmen Sie an einer F\u00fchrungen teil und erfahren Sie mehr \u00fcber die Geschichte(n) von Mineralwasser, Flauder & Co. Oder besuchen Sie den Laden und entdecken unsere vielf\u00e4ltigen K\u00f6stlichkeiten wie Lik\u00f6r, Konfi, Sirup und Upcycling-Produkte. Das Goba-Team freut sich auf Sie!", "url": "https://goba-welt.ch/standorte-anfragen/gontenbad", "image": "https://alarpimtsoch.sos-ch-dk-2.exoscale-cdn.com/catalog/3/e/6/3/3e634bd36f1f6524317f604013c4e4cf34e1e6d1_Gontenbad_Gescha_____ftshaus_17.jpg", "openstreetmap_id": "243310938"}, "geometry": {"type": "Point", "coordinates": ["9.372748732566835", "47.332030970659"]}}, {"type": "Feature", "properties": {"identifier": "ce850ce6-ddd8-4dfe-b6d7-4aac7e23fd0d", "name": "Goba Flauderei", "description": "Die Flauderei ist Ausstellungsraum, Schatzkammer, Erlebnisort und Einkaufsladen in einem. Hier haben die Kr\u00e4uterspezialit\u00e4ten aus der Goba Manufaktur ihren grossen Auftritt: All die feinen Kr\u00e4uterteemischungen, Konfis, Lik\u00f6re und Bitter, innovative Upcycling-Produkte und weitere K\u00f6stlichkeiten in edler Verpackung. Dazu kleine Kunstwerke, handverlesene Mitbringsel und andere Sache-S\u00e4cheli, die das Leben sch\u00f6n machen. Es gibt immer Neues zu entdecken. Man kann probieren und degustieren, einen Tee oder Flauder Cocktail geniessen - es sich und seiner Seele einfach gut gehen lassen. Und die Kleinen vergn\u00fcgen sich unterdessen in der Kinderecke.\n\nMan muss es erlebt haben. Also nichts wie hin!", "url": "https://goba-welt.ch/unternehmen/ueber-uns/flauderei", "image": "https://alarpimtsoch.sos-ch-dk-2.exoscale-cdn.com/catalog/2/9/3/6/293611086e9fd182f8954773efd734b7649a1584_1A7A8248.jpg", "openstreetmap_id": "6767819185"}, "geometry": {"type": "Point", "coordinates": ["9.409264020520084", "47.330865219048"]}}, {"type": "Feature", "properties": {"identifier": "d89dfeb5-7e25-40f4-bfab-1e0d86fb889f", "name": "Werkzeugstation - Urn\u00e4sch Kronenparkplatz", "description": "Diese Werkzeugstation befindet sich beim Parkplatz oberhalb des Bahnhofs Urn\u00e4sch auf einer Mauer. (siehe Bild)", "image": "https://alarpimtsoch.sos-ch-dk-2.exoscale-cdn.com/catalog/0/9/4/8/0948cfd255bcc0a2a89732c807d7febcfb9f0b7c_Urn__sch_Werkzeugstation_1.jpg", "openstreetmap_id": "263598387"}, "geometry": {"type": "Point", "coordinates": ["9.284284114837648", "47.31761405650895"]}}, {"type": "Feature", "properties": {"identifier": "e6d8cb3d-44bf-4001-b1e6-53cea5ae119e", "name": "Appenzeller Schauk\u00e4serei - Shop", "description": "Im Spezialit\u00e4tengesch\u00e4ft der Appenzeller Schauk\u00e4serei finden Sie \u00fcber 80 verschiedene K\u00e4sesorten an der offenen Theke. Lassen Sie sich von der Vielfalt inspirieren und entdecken Sie Ihren pers\u00f6nlichen Favoriten aus dem ganzen Appenzeller\u00ae Sortiment. Auch die perfekten Geschenke f\u00fcr Ihre Liebsten oder Ihre Gesch\u00e4ftspartner finden Sie in diesem Shop!", "url": "http://www.schaukaeserei.ch/", "image": "https://alarpimtsoch.sos-ch-dk-2.exoscale-cdn.com/catalog/5/2/e/5/52e5beb18d7f36a5ab280cc1cd12d627ced9be0f_20190819_ASK_76.jpg", "openstreetmap_id": "node/1436691275"}, "geometry": {"type": "Point", "coordinates": ["9.3447696", "47.373519"]}}]}