{"type": "FeatureCollection", "features": [{"type": "Feature", "properties": {"identifier": "73ae110f-4739-41cb-a9f8-92eaa3d27d73", "name": "Tourist Information Heiden", "url": "http://www.appenzellerland.ch", "image": "https://alarpimtsoch.sos-ch-dk-2.exoscale-cdn.com/catalog/f/7/3/4/f7343e1c765f79849c94714f003cddf7d2f12ce3_Goldener_Schnitt_31_19_heiden_dorf.jpg", "openstreetmap_id": "way/326268455"}, "geometry": {"type": "Point", "coordinates": ["9.5364856", "47.4459718"]}}, {"type": "Feature", "properties": {"identifier": "8e58214d-5267-4ad6-9fe2-da2ba0cdc7de", "name": "Alpenhof \u2013 Restaurant, Hotel & Bibliothek", "description": "<p class=\"MsoNormal\">Zum Ap&eacute;ro voraus, ein mehrg&auml;ngiges Men&uuml;, am Wochenende zu Brunch oder Lunch &ndash; im hellen Panoramasaal, draussen auf der Terrasse und mit Sicht auf die Alpen. Zum Schmausen und St&auml;rken &ndash; am liebsten mit Produkten aus der direkten Umgebung, nachhaltig, hausgemacht und in bester Qualit&auml;t getreu der Haltung von Slow Food.</p>\n<p class=\"MsoNormal\">Durch die Kombination von Gastronomie, Unterkunft und Arbeitsraum bietet der Alpenhof einen idealen Ort f&uuml;r Teams und Arbeitsgruppen, f&uuml;r Seminare, Kurse oder Retraiten, f&uuml;r Feste und Feiern. Gerne auf Anfrage auch ausserhalb der regul&auml;ren &Ouml;ffnungszeiten.</p>\n<p class=\"MsoNormal\">Die Bibliothek im Alpenhof &ndash; f&uuml;r Hotelg&auml;ste stets zug&auml;nglich &ndash; umfasst rund 10&rsquo;400 Titel zu Themengebieten wie Wetter, Geologie, Astronomie, Physik, Literatur, Fotografie, Kunst, Kitsch und Popul&auml;rkultur. Neben der Bibliothek finden sich im ganzen Haus eine Vielzahl Magazine und B&uuml;cher &uuml;ber Kulinarik, Kunst, Design, Stadtentwicklung und Architektur.</p>\n<p class=\"MsoNormal\">Pers&ouml;nlich gef&uuml;hrt und gestaltet vom Kollektiv Alpenhof. Dankbar und verbunden in der gemeinsamen Freude an Gastfreundschaft, Kulinarik, Kultur, Handwerk und Nachhaltigkeit.&nbsp;</p>", "url": "https://alpenhof.ai", "image": "https://alarpimtsoch.sos-ch-dk-2.exoscale-cdn.com/catalog/d/f/4/2/df42a0199643043fc8739bf39193495279d3a0df_Alpenhof.png", "openstreetmap_id": "way/196764847"}, "geometry": {"type": "Point", "coordinates": ["9.53592435", "47.41010455"]}}, {"type": "Feature", "properties": {"identifier": "90006eac-8b3e-47f8-9339-99be13418772", "name": "Werkzeugstation - Bahnhof Walzenhausen", "description": "Die Werkzeugstation befindet sich links neben dem Eingang zum Bahnhofsgeb\u00e4ude Walzenhausen.", "image": "https://alarpimtsoch.sos-ch-dk-2.exoscale-cdn.com/catalog/0/e/0/d/0e0def461b4f42a5c58bf68df7d6e95cf9a7dac3_Werkzeugstation_Walzenhausen_Bahnhof.jpg", "openstreetmap_id": "way/122043480"}, "geometry": {"type": "Point", "coordinates": ["9.6013192", "47.4513697"]}}, {"type": "Feature", "properties": {"identifier": "c04d6b55-75c8-4d6a-bcce-c878e3248fa6", "name": "Dorfhus Gupf", "description": "Wir setzen Zeichen in Sachen Schweizer Gastlichkeit, hochwertiger Kulinarik und d\u00f6rflicher Identit\u00e4t. Als gelebter Bestandteil einer Wirtshauskultur, die vielerorts zu verschwinden droht, bringen wir zusammen, was zusammen geh\u00f6rt. Unsere Bauern, regionale Produzenten, Appenzeller Lebensart und Menschen mit gutem Geschmack und gastrosophischem Anspruch. \n\nDas Dorfhus Gupf mit seinem Hotelbetrieb, den Gaststuben, einem Festsaal, sowie verschiedene Sitzungszimmer versteht sich als integrativer Bestandteil des d\u00f6rflichen Lebens und m\u00f6chte als Kraftort f\u00fcr Jung und Alt, aus nah und fern sein.\n\nUnsere heimische Wildrose, die Hagebutte \u2013 das \u00abT\u00e4gh\u00fcffeli\u00bb \u2013 haben wir als treue Begleiterin auserkoren, die uns auf diesem gemeinsamen und spannenden Wege in vielf\u00e4ltigster Art begleiten wird.", "url": "https://dorfhus-gupf.ch/", "image": "https://alarpimtsoch.sos-ch-dk-2.exoscale-cdn.com/catalog/2/a/1/b/2a1b60c7c6988a45600c8e51c94f747422424886_rehetobel_dorfhus_gupf.jpg", "openstreetmap_id": "8364526811.0"}, "geometry": {"type": "Point", "coordinates": ["9.482466", "47.426737"]}}, {"type": "Feature", "properties": {"identifier": "ce6c7f87-bbc4-4498-be9c-76319808e637", "name": "Fabrikantenhaus Schwellbrunn", "description": "<p>Das eindr\u00fcckliche Geb\u00e4ude an der Gerenstrasse erz\u00e4hlt die Geschichte der einst bl\u00fchenden Textilindustrie im Appenzellerland. Im 19. Jahrhundert im klassizistischen Stil der damaligen Fabrikantenh\u00e4user erbaut, zeugt es von der wirtschaftlichen Bedeutung der Region.&nbsp;</p><p>Auf Initiative einer Gruppe aus dem Dorf, wurde die Stiftung Fabrikantenhaus ins Leben gerufen. Dies mit dem Ziel, das Geb\u00e4ude zu sanieren und einer breiten \u00d6ffentlichkeit zug\u00e4nglich zu machen. Das Projekt konnte im Herbst 2024 abgeschlossen werden. Seither d\u00fcrfen Ferieng\u00e4ste die besondere Atmosph\u00e4re des Fabrikantenhauses fernab der Hektik geniessen. Die Ferienwohnungen werden \u00fcber die Buchungsplattform der Stiftung Ferien im Baudenkmal vermittelt.&nbsp;</p><p>Im Fabrikantenhaus Schwellbrunn stehen zudem flexibel nutzbare R\u00e4ume samt gut ausgestatteter Eventk\u00fcche zur Verf\u00fcgung, die sich perfekt f\u00fcr verschiedene Anl\u00e4sse f\u00fcr bis zu 50 Personen anpassen lassen - ob Meeting, Workshop oder festlicher Anlass.&nbsp;</p>", "url": "http://ferienimbaudenkmal.ch", "image": "https://alarpimtsoch.sos-ch-dk-2.exoscale-cdn.com/catalog/9/c/1/b/9c1bc244d98d7650589b858d0bde3451ee1a00df_AR_Schwellbrunn_Fabrikantenhaus3.jpg", "openstreetmap_id": "396672070"}, "geometry": {"type": "Point", "coordinates": ["9.250847778086401", "47.35357478141015"]}}, {"type": "Feature", "properties": {"identifier": "efceda8d-daf6-4840-919c-d68443f0bbd3", "name": "TukTuk-Touren", "description": "Geniessen Sie das einmalige Strassenfeeling im TukTuk. Bei einer Freiluftfahrt erleben Sie das h\u00fcgelige Appenzellerland mit all seinen Sch\u00f6nheiten und Sehensw\u00fcrdigkeiten.\n\nEinst\u00fcndige Tour (1 - 2 Personen): CHF 75.00\nZweist\u00fcndige Tour (1 - 2 Personen): CHF 150.00\nHalbt\u00e4gige Tour (1 - 2 Personen): CHF 300.00", "url": "http://www.calessino.ch", "image": "https://alarpimtsoch.sos-ch-dk-2.exoscale-cdn.com/catalog/3/8/3/4/38349d11435cebf2473e6eb6f24e4191717e4a24_herisau_business_concierge.jpg", "openstreetmap_id": "way/1112456066"}, "geometry": {"type": "Point", "coordinates": ["9.295223251949373", "47.3913797"]}}]}