{"type": "FeatureCollection", "features": [{"type": "Feature", "properties": {"identifier": "014b5e18-b72d-477d-a162-48e25403b54a", "name": "Lillybeizli - Hotpot Alp Fischegg", "description": "Egal ob allein, zu zweit oder z.B. bei einem Junggesell(inn)enabschied oder einer Geburtstagsfeier: Lassen Sie den Tag / Abend zu etwas Besonderem werden.", "url": "https://www.lillybeizli.ch/", "image": "https://alarpimtsoch.sos-ch-dk-2.exoscale-cdn.com/catalog/d/1/9/e/d19e9420c2c536021aed682e1aa044c46637befa_hotpot.jpg", "openstreetmap_id": "node/7207036890"}, "geometry": {"type": "Point", "coordinates": ["9.2738364137497", "47.28431670328028"]}}, {"type": "Feature", "properties": {"identifier": "01d8f2ea-48ed-4173-a16e-d5b7758714ec", "name": "FloatingOase GmbH", "description": "<p>Die FloatingOase in B&uuml;hler verf&uuml;gt &uuml;ber zwei einzelne Wannenb&auml;der (Breite 170 cm, L&auml;nge 230 cm, Tiefe 47 cm, Solestand ca. 30 cm), welche auf Voranmeldung alleine oder zu zweit belegt werden k&ouml;nnen. Jede Einheit verf&uuml;gt &uuml;ber einen kleinen Umkleideraum, WC, Dusche und nat&uuml;rlich &uuml;ber eine grosse Wanne zum Floaten. Die Wanne wird nach jedem Badegang entleert, die Sole durch eine mehrstufige Reinigungsanlage geleitet und der ganze Badebereich gereinigt. Durch die hohe Soledichte wird der K&ouml;rper beim Floaten an der Wasseroberfl&auml;che getragen, wie am Toten Meer. Muskeln, Gef&auml;sse, Organe und das Skelett sind von der Schwerkraft befreit und befinden sich in einer spannungsfreien Haltung ohne Verdrehungen und Druckpunkte. Die an der Hautoberfl&auml;che liegenden Nerven nehmen durch die konstante Wasser- und Umgebungstemperatur von ca. 35\u2070C (thermoneutrales Bad) keinen Temperaturunterschied mehr wahr. In Kombination mit der aufgehobenen Schwerkraft, der druckfreien Lage des K&ouml;rpers, der fehlenden visuellen Einfl&uuml;sse und der Stille im Bad k&ouml;nnen sich K&ouml;rper und Geist optimal entspannen.<br><br></p>", "url": "https://floatingoase.ch/", "image": "https://alarpimtsoch.sos-ch-dk-2.exoscale-cdn.com/catalog/6/0/f/6/60f624a09c73a7e5f75f734065a6a8ec3c78ebe5_20260313_FloatingOase_B__hler_8_.jpg", "openstreetmap_id": "320022418"}, "geometry": {"type": "Point", "coordinates": ["9.419968", "47.3717319"]}}, {"type": "Feature", "properties": {"identifier": "06cb32a5-4012-4130-ba22-9892e7182f2b", "name": "Blumer Fensterwerke AG - Einblick in die Produktion", "description": "Blick hinter die Kulissen\n\nErlebe bei einer rund 1 bis 1 \u00bd-st\u00fcndigen F\u00fchrung, wie bei uns Kunststoff-/Kunststoff-Metall- sowie Holz- und Holz-Metall-Fenster entstehen \u2013 vom einzelnen Profil bis zum fertigen Rahmen.\n\nDu erh\u00e4ltst spannende Einblicke in unsere Produktion und lernst auch unser Pfosten-Riegel-Fassadensystem in Holz kennen.\n\nSieh live zu, wie unsere Conturex blitzschnell Fensterkanteln zu pr\u00e4zisen Rahmen- und Fl\u00fcgelteilen verarbeitet. Erfahre, wie viel Handarbeit und Fachwissen in einem Holzfenster steckt. Und lass Dich von der automatisierten Verarbeitung der Kunststoff-Profile bis hin zum fertigen Fl\u00fcgel begeistern.\n\nUnsere R\u00e4umlichkeiten:\nUnsere beiden Dachr\u00e4ume \u2013 jeweils mit eigener Aussichtsterrasse \u2013 bieten den idealen Rahmen f\u00fcr Sitzungen, Versammlungen oder Kundenevents. Gerne organisieren wir f\u00fcr Dich einen Ap\u00e9ro, ein Fr\u00fchst\u00fcck oder einen kulinarischen H\u00f6hepunkt nach Wunsch.\n\nOrganisatorisches:\nDauer der F\u00fchrung: ca. 1 \u2013 1 \u00bd Stunden\nTeilnehmende pro F\u00fchrung: bis 30 Personen\nGr\u00f6ssere Gruppen: zwei aufeinanderfolgende F\u00fchrungen\nKosten: CHF 11.\u2013 pro Person\n\n\nWichtig:\nAm Wochenende sind F\u00fchrungen ebenfalls m\u00f6glich \u2013 jedoch ohne laufende Produktion.", "url": "http://www.blumer.ch", "image": "https://alarpimtsoch.sos-ch-dk-2.exoscale-cdn.com/catalog/7/b/0/c/7b0cfe191be6ee127426643e5d8f409af23f3a93_2024_1062.jpg", "openstreetmap_id": "319248244"}, "geometry": {"type": "Point", "coordinates": ["9.27812", "47.35433"]}}, {"type": "Feature", "properties": {"identifier": "130034e1-ce89-4bf8-901e-a6c2a2b1410a", "name": "Tiererlebnishof - Alpaka- und Lama-Trekking", "description": "<p>Auf dem Tiererlebnishof in Urn\u00e4sch leben Alpakas, Lamas, Kaninchen, H\u00fchner, Truth\u00e4hne und Katzen sowie die H\u00fcndin Colline.\nAls ausgebildete B\u00e4uerin mit Fachausweis und Wildnis- und Tiergest\u00fctzte P\u00e4dagogin (WIP &amp; Tier) bietet Monika Egli eine Vielzahl von Angeboten auf ihrem Hof an. Besonders beliebt sind Trekkingtouren mit den Alpakas und Lamas. Trekking eignet sich f\u00fcr Paare, welche einen privaten, gem\u00fctlichen Spaziergang mit den kuscheligen Tieren geniessen m\u00f6chten, f\u00fcr Teamausfl\u00fcge, um sich im Team von einer anderen Seite kennen zu lernen oder das Familienfest, das in einem etwas aussergew\u00f6hnlichen Rahmen erlebt werden m\u00f6chte, sowie f\u00fcr einen gem\u00fctlichen Tag unter Freunden. Bevor sich die Gruppe auf den Weg macht, erfahren die G\u00e4ste etwas \u00fcber die Tiere, das Trekking und den Hof und werden mit einem kleinen Ap\u00e9ro verw\u00f6hnt. Nach der Einf\u00fchrung folgt der Spaziergang \u00fcber Wiesen und durch W\u00e4lder (ca. die H\u00e4lfte der Zeit des gebuchten Trekkings). Zum Schluss k\u00f6nnen die Tiere als Dankesch\u00f6n f\u00fcr den Spaziergang gef\u00fcttert werden. Jedes Trekking kann an der idyllisch gelegenen Feuerstelle beim Indianertipi im Wald seinen Ausklang finden. Es kann auch ein Grill- oder Fondueplausch dazu gebucht werden.\n\nWenn Sie mit Ihrem Team, Ihren Kindern oder Freunden bei Spiel und Spass einen ganzen Tag auf dem Tiererlebnishof erleben m\u00f6chten, haben Sie die M\u00f6glichkeit die Tiererlebnishof-Olympiade  dazu zu buchen.\n\nBedingungen\nDa Lamas und Alpakas Angst vor fremden Hunden haben, d\u00fcrfen diese nicht zum Trekking mitgenommen werden.\nDie Verantwortung f\u00fcr die Kinder liegt bei den Eltern und die Versicherung ist Sache der Teilnehmer.\nDem Wetter entsprechende Kleidung und Trekking- oder Wanderschuhe.\n\nTrekkingpreise\nDauer: 1 Stunde (Schnuppertour, exkl. Ap\u00e9ro)\n4 - 10 Personen: CHF 33.00 pro Person\n11 - 30 Personen: CHF 30.00 pro Person\n\nDauer: 2 Stunden mit Apero oder Kaffee und Kuchen\n4 - 10 Personen: CHF 48.00 pro Person\n11 - 30 Personen: CHF 45.00 pro Person\n\nDauer: 3 Stunden mit Apero oder Kaffee und Kuchen\n4 - 10 Personen: CHF 68.00 pro Person\n11 - 30 Personen: CHF 65.00 pro Person\n\nFondue- oder Grill-Plausch:\nCHF 25.00 pro Person zus\u00e4tzlich zum gebuchten Trekking</p><p><br></p>", "url": "http://www.tiererlebnishof.ch", "image": "https://alarpimtsoch.sos-ch-dk-2.exoscale-cdn.com/catalog/e/7/b/4/e7b43b095a0df1cdd67dab1a1da2c18908fe54ed_Moni_und_Leana.JPG", "openstreetmap_id": "987366078"}, "geometry": {"type": "Point", "coordinates": ["9.2801804", "47.3368808"]}}, {"type": "Feature", "properties": {"identifier": "1ebef503-51f6-4b73-9fcb-03ac2c3fd748", "name": "Kr\u00e4uterzauber - Kr\u00e4uterwelt Appenzeller Alpenbitter", "description": "<p>Die Appenzeller sind bekannt f&uuml;r ihre Geheimnisse, sowohl bei K&auml;se wie auch beim Appenzeller Alpenbitter. Martina Rocco, dipl. Kr&auml;uterfachfrau zeigt ihnen auf einem rund 2-st&uuml;ndigen Kr&auml;uterspaziergang die Wildkr&auml;uter rund um Appenzell. Einige davon sind auch im ber&uuml;hmten Appenzeller Alpenbitter zu finden. Im Anschluss an den Spaziergang besichtigen Sie die &laquo;Kr&auml;uterwelt&raquo;. Der neue Betriebsrundgang kombiniert auf gelungene Art und Weise Wissensvermittlung rund um die 42 Kr&auml;uter und die Appenzeller Brenntradition mit Erlebnis, Spannung und Unterhaltung.</p><p>F&uuml;r Gruppen: 10 Personen &ndash; max. 20 Personen (bei mehr Personen muss eine 2. Kr&auml;uterfrau mitlaufen -&gt; Preis auf Anfrage)&nbsp;<br>Kosten pro Person: CHF 45.- inkl. Kr&auml;uterwanderung und Besichtigung Appenzeller Alpenbitter <br>Buchbar: Mai bis September, t&auml;glich auf Anfrage <br>Dauer: 4 Stunden (Vormittag 10 - 14 Uhr oder Nachmittag 15 - 18 Uhr) <br>Treffpunkt: Brauerei-Parkplatz</p>", "url": "https://www.kraeuterzauber.ch/", "image": "https://alarpimtsoch.sos-ch-dk-2.exoscale-cdn.com/catalog/d/0/d/e/d0de86c42b0e33076ebcd5973400e9363997dfd6_Appenzeller_Kraeuterwelt.jpg", "openstreetmap_id": "relation/1683860"}, "geometry": {"type": "Point", "coordinates": ["9.4099556", "47.3299558"]}}, {"type": "Feature", "properties": {"identifier": "2a222a76-58f6-4eb0-94c5-9d8a8d71409e", "name": "Appenzeller Friedens-Stationen", "description": "Die Appenzeller Friedens-Stationen laden herzlich zu einer Entdeckungsreise im Appenzeller Vorderland ein. Sie zeigen die humanit\u00e4ren Lebenswerke von bedeutenden Schweizerinnen und Schweizern: Jakob K\u00fcnzler, Carl Lutz, Margrit Besmer und Willi Kobe, Paul Vogt, Gertrud Kurz, Catharina Sturzenegger, Theodosius Florentini, Carl \u00abB\u00f6\u00bb B\u00f6ckli und Henry Dunant. Jede Station ist dem Leben und Werk einer Pers\u00f6nlichkeit gewidmet. \nDie Wanderung zu den Appenzeller Friedens-Stationen zwischen Heiden und Walzenhausen ist auch f\u00fcr Familien gut geeignet. Dabei geht es \u00fcber H\u00f6ger und durch Tobel mit Steigungen, die aber nie sehr lang sind. Der Weg ist bei jedem Wetter gut machbar - auch im Winter.", "url": "https://friedens-stationen.ch/", "image": "https://alarpimtsoch.sos-ch-dk-2.exoscale-cdn.com/catalog/7/c/6/7/7c67907ac0f3a4a6ee2f8c8c7cac7b8e3ed12233_Computerformat_4_3_heiden_dorfplatz.jpg", "openstreetmap_id": "1077380720"}, "geometry": {"type": "Point", "coordinates": ["9.549802", "47.453412"]}}, {"type": "Feature", "properties": {"identifier": "2a5aea94-a623-4aa0-845b-23f9552797b9", "name": "S\u00e4ntis - Alpschauk\u00e4serei Schw\u00e4galp", "description": "Die K\u00e4serei wurde im Jahr 1996 von den Landwirten, die ihr Vieh w\u00e4hrend des Sommers auf die Alp bringen, gebaut. Im Jahr 1997 wurde auf der Schw\u00e4galp das erste Mal Alpk\u00e4se hergestellt . All diese Landwirte haben sich am Bau beteiligt daher ist es ein Genossenschaftsbetrieb. Im Jahr 2012 wurde die K\u00e4serei erweitert um, mehr Milchmengen zu verarbeiten. Zurzeit liefern etwa 52 Landwirte Alpmilch w\u00e4hrend den Sommermonaten Mai bis September in die K\u00e4serei. Die meiste Milch wird zu feinem Schw\u00e4galpk\u00e4se verarbeitet. Aber auch Raclettk\u00e4se, Butter, Mutschli und Ziegenk\u00e4se werden hergestellt. Der Grossteil des K\u00e4ses geht an die Grossisten. Der Rest wird \u00fcber den Laden auf der Schw\u00e4galp verkauft, der in den Monaten Mai bis Oktober jeden Tag seine T\u00fcren offen hat. Kommen Sie doch vorbei und geniessen Sie die herrlichen Produkte, die in unserer K\u00e4serei hergestellt werden -\u2013 das Verkaufsteam freut sich auf ihren Besuch. Tragen wir doch viel zum Slogan des Culinarium Labels bei \u00abGenuss aus der Region\u00bb.\n\n", "url": "https://www.alpschaukaeserei.ch/", "image": "https://alarpimtsoch.sos-ch-dk-2.exoscale-cdn.com/catalog/f/5/e/a/f5eacc899e1d4ccc9aebaa39cd4972cc05e9c6d2_S__ntis___der_Berg__Alpschauk__serei.jpg", "openstreetmap_id": "65227828"}, "geometry": {"type": "Point", "coordinates": ["9.3184", "47.25581"]}}, {"type": "Feature", "properties": {"identifier": "2f4e8743-3226-4340-a37b-01c1b79b6e94", "name": "Bleichehof", "description": "<p>An traumhafter Lage mit fantastischem Panoramablick auf den gegen&uuml;berliegenden Weinberg und den Bodensee befindet sich unterhalb des Dorfs Wolfhalden der Bauernhof Bleichehof. Wir versuchen aus dem Boden, den unsere Vorfahren uns anvertraut haben, mit der Hilfe von Sonne, Regen, Wind und Wetter und mit einer naturnahen Bewirtschaftung nachhaltige Produkte hervorzubringen. Schon seit mehreren Generationen werden in der Familie Tobler Reben angebaut und Weine produziert. Die Rebfl&auml;che konnte in den letzten Jahren vergr&ouml;ssert werden. Auch die Sortenvielfalt wurde kontinuierlich erweitert, und so reifen nebst dem traditionellen Blauburgunder auch weitere, interessante Sorten. Auf dem Hof erwartet Sie ein Besuch des Wein-Lagerkellers, ein Gang durch den Freilauf- und Pferdestall, gefolgt von einer Degustation diverser Weinsorten. Zum Knabbern gibt&rsquo;s K&auml;se und Geissenpantli. Dauer: 60 bis 90 Minuten Teilnehmende: 10 bis 60 Personen Kosten: CHF 20.00 pro Person<br><br></p>", "url": "http://www.bleichehof.ch", "image": "https://alarpimtsoch.sos-ch-dk-2.exoscale-cdn.com/catalog/a/e/5/6/ae56b72b8877bb2af58e8ae23604a83391ad16a1_Bleichehof_Haupt.jpg", "openstreetmap_id": "687577303"}, "geometry": {"type": "Point", "coordinates": ["9.5501749", "47.4569957"]}}, {"type": "Feature", "properties": {"identifier": "2fe98728-e934-4b6f-bdc3-234568881508", "name": "Lillybeizli / Alp Fischegg", "description": "Erleben Sie das \u00c4lplerleben und den Appenzeller Brauchtum hautnah. Schnuppern Sie Bergluft und geniessen Sie die prachtvolle Aussicht zwischen Urn\u00e4sch und der Schw\u00e4galp.\n\nBergluft macht hungrig - geniessen Sie im gem\u00fctlichen Lillybeizli Originale Appenzeller K\u00e4sespezialit\u00e4ten wie Raclette, K\u00e4sefondue oder \u00c4lplermaccaronen. \nGeniessen Sie in der freien Natur unter dem Sternenhimmel ein Bad in unserem Hot-Pot mit Blick auf den S\u00e4ntis.\n\nErkunden Sie das Appenzellerland bei einer Kutschenfahrt mit Ruedi Biser.\nUnd dann fallen Sie m\u00fcde, gl\u00fccklich und zufrieden ins Strohbett - mit dem w\u00fcrzigen Heuduft in der Nase wiegt Sie leises Kuhglockengebimmel in den Schlaf.\n\nAm n\u00e4chsten Morgen st\u00e4rken Sie sich beim \u00c4lplerfr\u00fchst\u00fcck mit frischer Alpenbutter, aromatischer Bergmilch und frisch gebackenem Brot und Zopf f\u00fcr einen neuen erlebnisreichen Tag auf der Alp.\u00a0", "url": "https://www.lillybeizli.ch/", "image": "https://alarpimtsoch.sos-ch-dk-2.exoscale-cdn.com/catalog/0/7/a/2/07a28120f7f2a684ffaf17431a4763ec133970d3_Architektur_8__2.jpg", "openstreetmap_id": "node/7207036890"}, "geometry": {"type": "Point", "coordinates": ["9.273770304491192", "47.28434237698904"]}}, {"type": "Feature", "properties": {"identifier": "3a15b067-e781-4415-af3e-ea0e6db142a6", "name": "FoodTrail \u00abAppenzellerland zu Fuss\u00bb", "description": "<p>Auf die Pl\u00e4tze, fertig, Schnitzeljagd! Mal spazieren, mal r\u00e4tseln, mal wandern, mal staunen, mal geniessen - und immer wieder den Bodensee und den Alpstein zu F\u00fcssen. Sind Sie bereit, wenn&#39;s heisst: einmal Zahnradbahn und Abenteuer, bitte! Durch das L\u00f6sen von R\u00e4tseln lernen Sie die H\u00f6hepunkte der Region kennen und finden zu 6 Genuss-Stationen. Dort werden Sie mit K\u00f6stlichkeiten und regionalen Spezialit\u00e4ten belohnt. Ein spannender Erkundungsrundgang mit hohem Spassfaktor erwartet Sie. Mit FoodTrail erleben Sie das Appenzellerland einmal anders, haben gegessen und getrunken und erfahren nebenbei viel Interessantes.</p><ul><li>Dauer: ca. 5 -6 Stunden, reine Wanderzeit 3 Stunden. Sie sind frei in der zeitlichen Gestaltung. Wegstrecke ca. 8.8 km, H\u00f6henmeter auf / ab: 270 m / 400 m.</li><li>Kosten: CHF 69.00 pro Erwachsene, CHF 40.00 pro Kind 8 - 16 Jahre (Kinder nur in Begleitung Erwachsener)</li><li>Saison: 1. Mai bis 31. Oktober</li><li>Startpunkt: Tourist Information Bahnhof Heiden. Anreise: bereits die Anreise mit der im Preis inbegriffenen Zahnradbahn ab Rorschach (im Sommer mit offenen, nostalgischen Wagen) ist ein echtes Erlebnis.</li></ul><p>Weitere Informationen finden Sie unter <a href=\"https://www.foodtrail.ch/trails/appenzellerland-zu-fuss\" rel=\"noopener noreferrer\" target=\"_blank\">foodtrail.ch</a></p><p>M\u00f6chten Sie das Appenzellerland lieber per E-Bike erkunden? Hier geht&#39;s zum <a href=\"https://appenzellerland.ch/de/erleben/erlebniskarte/detail-gruppenerlebnisse/foodtrail-appenzellerland-per-e-bike-9a338e29-9ff6-44a0-a46d-1348ebbf505d.html\" rel=\"noopener noreferrer\" target=\"_blank\">Foodtrail per E-Bike</a></p>", "url": "https://www.foodtrail.ch/trails/appenzellerland-zu-fuss", "image": "https://alarpimtsoch.sos-ch-dk-2.exoscale-cdn.com/catalog/d/5/1/7/d5176d7d2059063fc89b7734f7bc64b9c4570af7_rehetobel_kaienspitz_foodtrail.jpg", "openstreetmap_id": "8364473311"}, "geometry": {"type": "Point", "coordinates": ["9.536517786519653", "47.4461314262863"]}}, {"type": "Feature", "properties": {"identifier": "4182a526-4b7d-4006-aac8-0b11e4d2f079", "name": "Weissk\u00fcferei, Drechslerei und Pferdefahrten Werner Stauffacher", "description": "Die Weissk\u00fcferei ist ein typisches Handwerk des Bauernstands. Auch wenn inzwischen mancher Alltagsgegenstand aus Aluminium und Chromstahl besteht, insbesondere auf der Alp kommt nach wie vor h\u00f6lzernes Senngeschirr zum Einsatz. So hat bei der Alpfahrt das Mitf\u00fchren eines Lediwagens mit eben diesen Ger\u00e4tschaften Tradition. \nZu den Produkten aus dem Haus Stauffacher geh\u00f6ren auch Zier- und Geschenkartikel und Gedrechseltes. Neben der Werkstatt ist ein Verkaufsladen eingerichtet. Und es werden auf Voranmeldung F\u00fchrung durch die Weissk\u00fcferei angeboten.\n\u00dcbrigens: Stauffachers Betrieb ist aktuell der einzige in der Schweiz, in welchem ein Weissk\u00fcfer-Lernender ausgebildet wird. \nAuf Anmeldung k\u00f6nnen G\u00e4ste auch gerne selber das Handwerk ausprobieren und ein Brettli verzieren.", "url": "https://weisskueferei-stauffacher.ch/", "image": "https://alarpimtsoch.sos-ch-dk-2.exoscale-cdn.com/catalog/7/f/8/d/7f8dae8fa532e566649c10a02d60dbf1c0d6fae8_Postkutsche_Saentis.jpg", "openstreetmap_id": "node/2091089033"}, "geometry": {"type": "Point", "coordinates": ["9.244115352630617", "47.2443370195092"]}}, {"type": "Feature", "properties": {"identifier": "614df439-3a57-44c8-a65f-cf160c344e7c", "name": "Helen Niederer - Handweben fast wie fr\u00fcher", "description": "Im gem\u00fctlichen historischen Weberhaus mit viel Charme entstehen im W\u00e4bch\u00e4ller von Helen Niederer Textilien. Sie webt am Webstuhl Handt\u00fccher, Tischw\u00e4sche bis zur Einkaufstaschen aus nat\u00fcrlichem Material und mit verschiedenen Mustern und Farben. Sehen Sie der Weberin \u00fcber die Schulter und beobachten dabei, wie sie das Weberschiffli gekonnt hin und her schiebt und dabei ein ums andere Mal die richtigen F\u00e4den mit einem Fusspedal anhebt, sodass sich das Fach f\u00fcr die Schussf\u00e4den bilden kann.  \n\nDauer: 1 Stunde\nTeilnehmer: bis 15 Personen (ab 7 Personen unterteilt in zwei Gruppen)\nKosten: pauschal CHF 130.00 pro F\u00fchrung, kleiner Ap\u00e9ro auf Anfrage", "image": "https://alarpimtsoch.sos-ch-dk-2.exoscale-cdn.com/catalog/2/9/d/c/29dc8897d52708aa9607ca34ee630afff3dc0214_Bild1.png", "openstreetmap_id": "11158904513"}, "geometry": {"type": "Point", "coordinates": ["9.426105", "47.373778"]}}, {"type": "Feature", "properties": {"identifier": "620ceb26-a075-4533-a862-986a6b6425d6", "name": "ROOTHUUS GONTEN", "description": "<p>Es erwartet Sie eine Reise durch die Geschichte des denkmalgesch&uuml;tzten und 2006 renovierte Haus aus den Jahren 1763/64. Das Roothuus beheimatet den weitherum sch&ouml;nsten Festsaal mit l&auml;ndlich-barocker Wandmalerei und viele Details erz&auml;hlen aus der bewegten Geschichte dieses zentralen Hauses von Gonten. Heute beherbergt das Roothuus das Zentrum f&uuml;r die Volksmusik rund um den Alpstein, also das Appenzellerland und das Toggenburg. Eine Ausstellung zeigt jeweils neue Forschungsergebnisse des Hauses und ein Shop l&auml;dt zum Entdecken der vielf&auml;ltigen Erzeugnisse ein. Zahlreiche historische Instrumente sind zu sehen und h&ouml;ren. Interessierte Personen erfahren hier viel Wissenswertes aus der gut dokumentierten Geschichte der Appenzeller und Toggenburger Volksmusik. Die individuelle Besichtigung des Roothuus Gonten ist kostenlos. Gerne f&uuml;hren wir Sie und Ihre G&auml;ste durch das Roothuus. Dabei erhalten Sie Informationen zur Geschichte des Hauses, zur Volksmusik und zu den zahlreichen historischen Instrumenten. Ebenso informieren wir Sie &uuml;ber unsere aktuellen Forschungsprojekte und geben Einblick in alte Handschriften. Auch Jodelkurse sind im Roothuus im Angebot. Dabei &uuml;bt ein S&auml;nger in Tracht mit Ihnen einen Naturjodel ein und gibt Tipps und Tricks zum Talerschwingen. Auf Wunsch bereichern wir die F&uuml;hrung oder den Jodelkurs mit Musik oder einem Ap&eacute;ro. F&uuml;hrungen: Dauer: ca. 1 Stunde Teilnehmerzahl: max. 25 Personen pro Gruppe Daten: ganzj&auml;hrig, t&auml;glich Kosten: Montag bis Freitag CHF 160.&ndash; pro Gruppe / Samstag und Sonntag CHF 210.&ndash; pro Gruppe Jodelkurse: Dauer: ca. 2 Stunden Teilnehmerzahl: max. 25 Personen pro Gruppe Daten: ganzj&auml;hrig, t&auml;glich Kosten: Montag bis Freitag CHF 370.&ndash; pro Gruppe / Samstag und Sonntag CHF 420.&ndash; pro Gruppe</p>", "url": "https://www.roothuus-gonten.ch/", "image": "https://alarpimtsoch.sos-ch-dk-2.exoscale-cdn.com/catalog/3/4/d/7/34d7cef7f1b4054c473e3f9f615e50b1377f444e_gonten_roothuus_gonten_aussenansicht.JPG", "openstreetmap_id": "node/4303008608"}, "geometry": {"type": "Point", "coordinates": ["9.3471841", "47.32882"]}}, {"type": "Feature", "properties": {"identifier": "6407c99f-9bd1-4152-9281-4bbbf1529140", "name": "planoalto", "description": "Arbeiten in der Natur heisst nutzen, was da ist: unterwegs sein (je nach Saison mit Schneeschuhen, Kanus oder zu Fuss), sich einen Platz einrichten (ein Camp oder ein Iglu bauen), Feuer entfachen, sich etwas gutes Kochen, Brote im selbst gebauten Ofen backen.\n\nUnsere Outdoor-Trainings sind oft unspektakul\u00e4r und doch herausfordernd, sie sind ehrlich und direkt. Sie \u00fcberzeugen durch Schlichtheit, Passgenauigkeit und professionelle Begleitung. \nWir greifen Entwicklungsthemen, Leitbilder, Visionen und Strategien unserer Kundinnen und Kunden auf und setzen sie in Handlung und Erlebnisse um.\n\nAnzahl Teilnehmer: vom Outdoor-Coaching f\u00fcr eine Person bis zu Grossgruppen-Impulse von bis zu 200 Personen.", "url": "https://planoalto.ch/", "image": "https://alarpimtsoch.sos-ch-dk-2.exoscale-cdn.com/catalog/8/0/b/7/80b7cea5d2c4e27ab6a8ae0ec68ff29dcc165bc4_Planoalto4.jpg", "openstreetmap_id": "way/192142262"}, "geometry": {"type": "Point", "coordinates": ["9.318851348465486", "47.3657193"]}}, {"type": "Feature", "properties": {"identifier": "6b2006a3-10ca-4d42-b1b6-1641f4d34d20", "name": "Waldpark Heiden", "description": "Breitst\u00e4mmige, hohe B\u00e4ume umrahmen den Spielplatz und lassen viel Freiraum f\u00fcr kleine und grosse Besucher. Zwei Grillstellen und gen\u00fcgend Schatten laden zum genussvollen Verweilen ein.", "url": "https://www.kurvereinheiden.ch/", "image": "https://alarpimtsoch.sos-ch-dk-2.exoscale-cdn.com/catalog/b/b/a/b/bbab3791ea714e964010716f28e5ce98f00611e5_waldpark_grillplatz_standard.jpg", "openstreetmap_id": "9320386289"}, "geometry": {"type": "Point", "coordinates": ["9.525554180145264", "47.448382175584925"]}}, {"type": "Feature", "properties": {"identifier": "78fc34b7-92e2-49c5-ab35-2fc844bdf0c9", "name": "Appenzeller Bahnen - Gruppenangebote", "description": "<b>Geschichte und Tradition</b> \nStarten Sie den unvergesslichen Tag in Altst\u00e4tten Stadt oder in Gais mit einer Fahrt in der Zahnradbahn. Wahlweise erhalten Sie bei Ihrem Programm einen Einblick in die Geschichte der Sperre Stoss oder erleben das Handwerk der Weissk\u00fcferei &amp; Drechslerei. Ein Ap\u00e9ro und/oder ein Mittagessen/Nachtessen runden den Tag gelungen ab. \n<a href=\"https://appenzellerbahnen.ch/de/erlebnisangebote/gruppenangebote/gruppenausfluege-altstaetten-gais.html\" target=\"_blank\" title=\"HTML Code Generator\">Weitere Informationen zum Angebot Geschichte und Tradition</a> \n\n<b>Erlebnisrundfahrt</b> \n\u00abEmol rondom\u00bb - mit zwei Bergbahnen und einem Schiff durch das Appenzeller Vorderland. Mit der Bergbahn der Appenzeller Bahnen fahren Sie mit einem atemberaubenden Ausblick auf den Bodensee von Rorschach hinauf ins sch\u00f6ne Biedermeierdorf Heiden. Nach dem Mittagessen reisen Sie von Heiden mit dem eigenen Car oder dem \u00f6ffentlichen Postauto zur Aussichtsterrasse Walzenhausen. Als weiteres Highlight folgt die Talfahrt mit der Zahnradbahn von Walzenhausen nach Rheineck. Anschliessend haben Sie bei einer gem\u00fctlichen Schifffahrt auf dem alten Rhein Zeit, die sch\u00f6ne Landschaft zu geniessen, bevor der Halbtagesausflug in Rorschach endet. \n<a href=\"https://appenzellerbahnen.ch/de/erlebnisangebote/gruppenangebote/erlebnisrundfahrt.html\" target=\"_blank\" title=\"HTML Code Generator\">Weitere Informationen zur Erlebnisrundfahrt</a> \n\n<b>Emol Querd\u00f6re \u2013 eine Erlebnisfahrt durch das Appenzellerland</b> \nIn Gossau startend f\u00fchrt Sie die Fahrt mit den Appenzeller Bahnen nach Appenzell, wo Sie eine Dorff\u00fchrung durch das heimelige Dorf erleben. Wahlweise kann auch eine Dorff\u00fchrung in Gais gebucht werden. Im Gasthof zum Hirschen in Gais kommen Sie in den Genuss eines k\u00f6stlichen Mittagessens. Nach einer Fahrt mit der Zahnradbahn ins Rheintal, lassen Sie den Tag bei einem gem\u00fctlichen Spaziergang durch die Marktgasse Altst\u00e4ttens und einer s\u00fcssen Verf\u00fchrung ausklingen. Die Reise wird auch in entgegengesetzter Richtung mit Start in Altst\u00e4tten Stadt angeboten. <a href=\"https://appenzellerbahnen.ch/de/erlebnisangebote/gruppenangebote/emol-querdoere.html\" target=\"_blank\" title=\"HTML Code Generator\">Weitere Informationen zum Gruppenangebot Emol Querd\u00f6re</a> \n\n<b>Allgemeine Informationen</b>\nDauer: ca. 5-9 Stunden \nTeilnehmende: Ab 10 Personen \nKosten: ab CHF 43.00 pro Person", "url": "https://appenzellerbahnen.ch/de/", "image": "https://alarpimtsoch.sos-ch-dk-2.exoscale-cdn.com/catalog/c/8/6/f/c86f7704b4a9e51de60a273f363979549e8174e7_23021_1223.jpg", "openstreetmap_id": "node/10004560606"}, "geometry": {"type": "Point", "coordinates": ["9.282066", "47.3927145"]}}, {"type": "Feature", "properties": {"identifier": "7a78c4c8-3054-4934-a924-19620dabcfd4", "name": "Sato Code Herisau", "description": "<p><span style=\"background-color: rgb(255, 255, 255); color: rgb(78, 71, 67);\">Versteckte Hinweise, geheime Objekte und geteilte Informationen \u2013 genau wie in einem klassischen Escape Room, aber mit dem Vorteil, dass ich Herisau richtig erlebt.</span></p><p><span style=\"background-color: rgb(255, 255, 255); color: rgb(78, 71, 67);\">Das Spiel findet komplett draussen statt, im Herzen des Dorfs. Jeder Winkel birgt ein Geheimnis. Jedes R\u00e4tsel bringt uns der Wahrheit n\u00e4her. Gemeinsam entwirrt ihr eine verborgende Geschichte und entdeckt die mysteri\u00f6se Seite von Herisau. Wie im\u00a0\u00abThe Da Vinci Code\u00bb\u00a0\u2013 und ihr seid die Hauptfiguren. Trefft die richtige Entscheidung, w\u00e4hlt den richtigen Verb\u00fcndeten und lasst das Spiel beginnen...</span></p><p><span style=\"background-color: rgb(255, 255, 255); color: rgb(78, 71, 67);\">Der Start ist jederzeit m\u00f6glich, an jedem Tag. Einfach Ticket kaufen, zum Startpunkt gehen und die Sato-Code-App \u00f6ffnen. Das Spiel bietet zwei Schwierigkeitsstufen und ist eine v\u00f6llig neue Art, eine Stadt oder ein Dorf zu entdecken \u2013 perfekt f\u00fcr alle, die Spannung, Teamwork und unerwartete Wendungen lieben.</span></p>", "url": "https://www.sato-code.com/de", "image": "https://alarpimtsoch.sos-ch-dk-2.exoscale-cdn.com/catalog/9/4/1/a/941a3ba33b5b5461a988aa0baa8ebda3fefc5eb8_OmegaCodex0__2_.png", "openstreetmap_id": "1097842643"}, "geometry": {"type": "Point", "coordinates": ["9.2773223", "47.3900655"]}}, {"type": "Feature", "properties": {"identifier": "7df300a0-f61e-417b-ab87-ea7006688336", "name": "Sunehus Lustm\u00fchle - Hotpot", "description": "Wer ausspannen und sich etwas Gutes tun m\u00f6chte, verbringt wohlige Stunden im Hotpot und geniesst dabei die freie Sicht auf den Alpstein. Das Sprudelvergn\u00fcgen l\u00e4sst sich perfekt mit einer \u00dcbernachtung im Studio Sunehus kombinieren. Und f\u00fcr Sprudel ist nicht nur im Bad gesorgt, eine Flasche Prosecco verw\u00f6hnt auch noch prickelnd den Gaumen. Bei jedem Wetter m\u00f6glich. Pro Tag ist eine Buchung mit maximal 5 Personen m\u00f6glich.\n\nDie Uhrzeit kann nach der Buchung telefonisch vereinbart werden.", "url": "http://sunehus.ch", "image": "https://alarpimtsoch.sos-ch-dk-2.exoscale-cdn.com/catalog/2/1/1/3/2113d6eb983127f5b36867eed82b6a5cd3bd7e17_lustm__hle_hotpot__3_.jpg", "openstreetmap_id": "node/274610294"}, "geometry": {"type": "Point", "coordinates": ["9.355577230453493", "47.39654913329844"]}}, {"type": "Feature", "properties": {"identifier": "8256b146-c7a0-4185-a79b-777fae191ca0", "name": "Erlebnis Waldegg - Erlebnisse", "description": "Mitten im Wandergebiet St. Gallen - Teufen, mit Blick auf den S\u00e4ntis, liegt das Erlebnis Waldegg mit seinen besonderen Erlebnissen. \n\nIn den Erlebnisrestaurants tauchen die Besucher in verschiedene Welten ein: In Grossmutter's Bauernhaus \u00abSchnuggebock\u00bb in die Welt der vergangenen, gem\u00fctlichen Stuben; in der Holzofenb\u00e4ckerei \u00abZitr\u00e4dli\u00bb in die Welt von ger\u00f6stetem Kaffee und duftendem Holzofenbrot; das Schulzimmer \u00abTintelompe\u00bb entf\u00fchrt Gruppen in die Schulatmosph\u00e4re ihrer Grosseltern. Im \u00abWaldeggmandli\u00bb werden auch die Kleinsten verw\u00f6hnt - Spielplatz, Streichelzoo und mehr.  \n\nGeniessen Sie Ihren Ap\u00e9ro auf eine etwas andere Weise als gewohnt. Entdecken Sie den unverkennbaren Geist der Waldegg und lernen Sie das Appenzellerland mit seinem unvergleichlichen Brauchtum und Handwerk kennen. Lassen Sie sich vom Duft der Holzofenb\u00e4ckerei verlocken oder dr\u00fccken Sie die Schulbank wie anno dazumal.\n\nGruppenangebote: Schule wie anno dazumal, F\u00fchrung, Ap\u00e9ros, Biber backen, Schauk\u00e4sen, Waldegg-Gaudi, Jodelkurse und vieles mehr\nDauer: Je nach Angebot\nTeilnehmer: meiste Angebote ab 10 Personen\nKosten: Variieren je nach Angebot", "url": "https://www.waldegg.ch/gruppenangebote", "image": "https://alarpimtsoch.sos-ch-dk-2.exoscale-cdn.com/catalog/1/d/5/3/1d5348291eb62552069b81a8b570ec6987d46215_DSC_5432.jpg", "openstreetmap_id": "423778138"}, "geometry": {"type": "Point", "coordinates": ["9.4106039", "47.4027945"]}}, {"type": "Feature", "properties": {"identifier": "854d103e-742e-4405-9e8b-da777d376a11", "name": "Lillybeizli - Kutschenfahrten", "description": "Als gelernter Hufschmied und Landwirt bietet Ruedi Biser interessante, beruhigende und abwechslungsreiche Ausfahrten mit seine Pferden an. Es stehen verschiedene Kutschen, passend zu jedem Anlass, zur Verf\u00fcgung: \nDer Gesellschaftswagen eignet sich f\u00fcr bis zu 10 Personen f\u00fcr gem\u00fctliche Rundfahrten, Transport zu einem Restaurant oder zum gemeinsamen Grillieren.\nEbenso eignet sich diese Wagen perfekt f\u00fcr Ihren massgeschneiderten Anlass, wie Geburtstage, Junggesell(in)enabschiede, Hochzeiten oder einfach f\u00fcr Ihre Liebsten.\n\nMit der Hochzeitskutsche (Landauer) erleben Sie an Ihrem grossen Tag mit dem sch\u00f6n geschm\u00fcckten Gespann und der feierlichen Kutsche einen besonderen und einzigartigen Tag - so wird Ihre Hochzeit unvergesslich!", "url": "https://www.kutschenfahrten-urnaesch.ch/", "image": "https://alarpimtsoch.sos-ch-dk-2.exoscale-cdn.com/catalog/5/9/5/8/595893b8cf28f2f55ba93e1638a44608a4388fd8_rb8.jpg", "openstreetmap_id": "way/505489242"}, "geometry": {"type": "Point", "coordinates": ["9.273780539738482", "47.28439829704859"]}}, {"type": "Feature", "properties": {"identifier": "8a8d2d93-3730-4ec1-aabb-628d0f7f8b4b", "name": "Motors\u00e4ge-Schnitzkurs", "description": "<p>In den Motors\u00e4ge-Schnitzkursen von Beat Inauen lernen Sie gekonnt mit der Motors\u00e4ge und dem Element Holz umzugehen. Der Kurs wird Sie begeistern und faszinieren. \nDie komplette Sicherheits- und S\u00e4geausr\u00fcstung wird zur Verf\u00fcgung gestellt. Nach einem abwechslungsreichen und anstrengenden Tag d\u00fcrfen Sie Ihr eigenes Kunstwerk mit nach Hause nehmen.\n\nDer Tagesablauf l\u00e4sst sich individuell auf Ihre Gruppe/Team abstimmen. Ihre W\u00fcnsche werden gerne pers\u00f6nlich mit Ihnen zusammen besprochen.\n\nTreffpunkt: Dorfplatz Gais oder Neugaden 582 Gais\nKursdauer: 09.00 bis 16.00 Uhr (oder nach Vereinbarung)\n</p><p>Kosten: <br>3 bis 5 Personen, CHF 420.00 pro Teilnehmer\nund Tag<br>6 bis 9 Personen, CHF 400.00 pro Teilnehmer und Tag<br>ab 10 Personen, CHF 380.00 pro Teilnehmer und Tag<br>1 bis 2 Personen, auf Anfrage</p><p><br></p>", "url": "https://www.hoelzigs.ch/", "image": "https://alarpimtsoch.sos-ch-dk-2.exoscale-cdn.com/catalog/7/6/5/3/7653083dd4c57a14f36ce9f4b1a1cb870619789a_Hoelzigs_Schnitzkurs__6131.JPG", "openstreetmap_id": "node/9879685598"}, "geometry": {"type": "Point", "coordinates": ["9.443642235023288", "47.366433007836406"]}}, {"type": "Feature", "properties": {"identifier": "8aa52c3c-7087-4539-91f2-80c01e2a33a3", "name": "Appenzeller Schauk\u00e4serei - Ch\u00e4sh\u00f6rnli selber kochen", "description": "<p>... kochen Sie gemeinsam am K&auml;sekessi Ihre eigenen typisch appez&ouml;llischen Ch&auml;sh&ouml;rnli. Unter Anleitung eines K&auml;sespezialisten werden Sie in das Leibgericht jedes Appenzellers eingef&uuml;hrt. Geniessen Sie diesen herzhaften Schmaus im urchigen H&ouml;ckli.</p><p>Ihr Men&uuml;: <br>Gr&uuml;ner Salat mit Croutons an Haussauce <br>*** <br>Ch&auml;sh&ouml;rnli mit Apfelmus und Zwiebeln <br>*** <br>Schlorzifladen mit Rahm</p><p>In Kombination mit dem Pauschalangebot &laquo;Appenzeller Stolz&raquo; m&ouml;glich<br><br></p>", "url": "http://www.schaukaeserei.ch/", "image": "https://alarpimtsoch.sos-ch-dk-2.exoscale-cdn.com/catalog/7/9/d/e/79de99877ffe34eea61d0cd0f9b20d0709f05ea8_stein_appenzeller_schauk__serei_ch__sh__rnli.jpg", "openstreetmap_id": "1436691275"}, "geometry": {"type": "Point", "coordinates": ["9.344712", "47.373415"]}}, {"type": "Feature", "properties": {"identifier": "8d36c474-3c64-4288-b054-813a3c5fb1b5", "name": "zeitreisen.ch \u2013 Team-Events, E-Bike- & Zeltvermietung", "description": "<p>Das Team der Abenteuer-Zeitreisen TOPAZ GmbH bietet abwechslungsreiche und unterhaltsame Angebote f&uuml;r einen Teamausflug oder ein Gruppenerlebnis, sei es draussen unter freiem Himmel, drinnen oder im Naturzelt, gesch&uuml;tzt vor Wind und Wetter. Egal ob es ein Mitarbeiter- oder Vereinsausflug, Polter- oder Geburtstag, Firmenjubil&auml;um oder ein sonstiger Anlass sein soll &ndash; wir haben f&uuml;r jeden etwas dabei &ndash; und dies auch noch bei jeder Witterung. Denn als Event- und Zelt-Spezialisten liefern wir Ihnen das passende &laquo;Dach &uuml;ber dem Kopf&raquo; f&uuml;r Ihren Event gleich mit. Begeben Sie sich mit Ihrer Gruppe auf eine Zeitreise.</p><p>Event-Ideen:</p><ul><li><a title=\"HTML Code Generator\" href=\"https://shop.zeitreisen.ch/shop/e-mountain-bike-tagesmiete-1554#attr=\" target=\"_blank\" rel=\"noopener\">E-Gravel &amp; E-MTB-Miete (E-Bikes auch f&uuml;r Gruppen bis 20 Personen)</a></li><li><a title=\"HTML Code Generator\" href=\"https://shop.zeitreisen.ch/shop/e-mountain-bike-plausch-431#attr=\" target=\"_blank\" rel=\"noopener\">Gef&uuml;hrter E-Bike Plausch mit Kulinarik</a>&nbsp;</li><li><a title=\"HTML Code Generator\" href=\"https://shop.zeitreisen.ch/shop/category/events-10?search=t%C3%B6ffli&amp;order=name+asc\" target=\"_blank\" rel=\"noopener\">T&ouml;fflitouren im Appenzellerland (T&ouml;fflibuebe &amp; -meitle)</a></li><li><a title=\"HTML Code Generator\" href=\"https://shop.zeitreisen.ch/shop/category/events-10?search=ol%C3%BCmp&amp;order=name+asc\" target=\"_blank\" rel=\"noopener\">Appez&ouml;ller Alpol&uuml;mpiade</a>&nbsp;</li><li><a title=\"HTML Code Generator\" href=\"https://shop.zeitreisen.ch/shop/category/events-10?search=milch&amp;order=name+asc\" target=\"_blank\" rel=\"noopener\">Milchkannen-Fondue</a>&nbsp;</li><li><a title=\"HTML Code Generator\" href=\"https://shop.zeitreisen.ch/shop/santis-berg-game-365#attr=\" target=\"_blank\" rel=\"noopener\">S&auml;ntis Berg Game</a>&nbsp;</li><li><a title=\"HTML Code Generator\" href=\"https://shop.zeitreisen.ch/shop/appenzeller-krimi-347#attr=\" target=\"_blank\" rel=\"noopener\">Appenzeller Krimi</a>&nbsp;</li></ul><p>Wir beraten Sie gerne!</p>", "url": "http://www.zeitreisen.ch/", "image": "https://alarpimtsoch.sos-ch-dk-2.exoscale-cdn.com/catalog/9/2/3/a/923ad859f5c3ca8cba6116a624a05ed122f42d5a_220610_Alpolympiade_4501.jpg", "openstreetmap_id": "268930195"}, "geometry": {"type": "Point", "coordinates": ["9.37339782714844", "47.389640585897"]}}, {"type": "Feature", "properties": {"identifier": "8ec976a7-0d2a-48fa-8d9c-b8b7d480797c", "name": "Appenzeller Edelbrand", "description": "<p>Wir begr&uuml;ssen kleine und grosse Gruppen in unserer Brennerei. Sie k&ouml;nnen bei uns auch direkt neben dem Brennkessel einkaufen und ihren Silvesterklaus Gin nach Hause nehmen. (auf Voranmeldung)</p><p>Wir freuen uns auf Sie!&nbsp;</p><p><strong>Wir sind Appenzeller Edelbrand&nbsp;</strong></p><p>Von der Schnapsidee zur Manufaktur. Was als einfache Schnapsidee unter Freunden begann, hat sich mit der Zeit zu einer echten Leidenschaft und schliesslich zu einer kleinen, feinen Manufaktur entwickelt. Heute stehen wir mit Stolz hinter unserer eigenen Brennerei, idyllisch gelegen am Fusse des S&auml;ntis &ndash; mitten im Appenzellerland, wo Tradition und Handwerk noch einen besonderen Stellenwert haben. In unserer Brennerei in Urn&auml;sch entstehen mittlerweile &uuml;ber 11 einzigartige Produkte &ndash; vom klassischen Edelbrand bis hin zu kreativen Gin Sorten. Jeder einzelne Tropfen wird von uns selbst hergestellt und in sorgf&auml;ltiger Handarbeit abgef&uuml;llt und etikettiert. Besonders am Herzen liegt uns unser kulturelles Erbe: das Silvesterklausen aus Urn&auml;sch. Diese einzigartige Appenzeller Tradition begleitet uns und ist tief mit unserer Identit&auml;t verbunden. Deshalb tr&auml;gt jede unserer Flaschen ein St&uuml;ck dieses lebendigen Brauchtums &ndash; als sichtbares Zeichen unserer Herkunft und als Hommage an unsere Heimat. Unsere Produkte sind mehr als nur Spirituosen &ndash; sie erz&auml;hlen Geschichten. Von mutigen Ideen, langen N&auml;chten in der Brennerei, gelebter Tradition und echter Leidenschaft.&nbsp;</p>", "url": "https://appenzeller-edelbrand.ch/", "image": "https://alarpimtsoch.sos-ch-dk-2.exoscale-cdn.com/catalog/d/6/4/7/d6476ca44b8784b2ea8b5145dd338dbbbecbc87c_Brennerei__1_.jpg"}, "geometry": {"type": "Point", "coordinates": ["9.2782589", "47.310431"]}}, {"type": "Feature", "properties": {"identifier": "8fd09b68-8680-4339-95f4-5d590d78e36c", "name": "HWB Das G\u00fcrteldesign - G\u00fcrtel Workshop", "description": "<p>In Gruppen von maximal 8 Personen f&uuml;hren wir Sie in etwa zwei Stunden von der Lederhaut zum einfachen G&uuml;rtel, der Sie lange begleiten wird. Vorkenntnisse sind keine notwendig, ein wenig handwerkliches Geschick ist von Vorteil. Die Teilnehmenden sollten sich jedoch nicht davor scheuen, die H&auml;nde schmutzig zu machen. Unsere G&uuml;rtel Workshops werden gerne als Team Anlass oder Vereins Event gebucht. Dauer: ca. 2h Teilnehmende: bis 8 Personen Kosten: CHF 500.&ndash; pauschal &amp; Materialkosten zwischen CHF 20 - 60.&ndash; pro G&uuml;rtel</p>", "url": "https://www.hwbguertel.ch/", "image": "https://alarpimtsoch.sos-ch-dk-2.exoscale-cdn.com/catalog/7/b/b/5/7bb569ef87e36e366a07453a87bc8d355c777531_IMG_20240828_WA0007__2.jpg", "openstreetmap_id": "way/156124180"}, "geometry": {"type": "Point", "coordinates": ["9.538793563842775", "47.444069066912796"]}}, {"type": "Feature", "properties": {"identifier": "9393e549-6b2b-49b1-8e9e-35c111c6f865", "name": "Minigolf Krombach Herisau", "description": "Die sch\u00f6ne und gepflegte Anlage l\u00e4dt geradezu zum Verweilen ein. Das Spiel f\u00fcr Spass und Plausch kann f\u00fcr passionierte \u00abMinigolfer\u00bb auch wettkampfm\u00e4ssig ausgetragen werden.\nIm Clubh\u00e4uschen steht Ihnen w\u00e4hrend den \u00d6ffnungszeiten ein Kiosk mit diversen Getr\u00e4nken und Snacks zur Verf\u00fcgung. An der sch\u00f6nen Grillstelle, mit Sitzgelegenheiten und Tischen, kann zum Abschluss einer Partie Minigolf mitgebrachtes Grillgut aufgelegt werden. Gen\u00fcgend Brennholz ist gratis vorhanden. \nF\u00fcr Gruppen ab 10 Personen wird die Anlage auch ausserhalb der regul\u00e4ren Zeiten ge\u00f6ffnet. \n\nBei feuchter Witterung bleibt die Anlage geschlossen. Letzte Schl\u00e4gerausgabe bis 1 Stunde vor Schliessung. Bitte parkieren Sie auf dem zentralen geb\u00fchrenpflichtigen Parkplatz.", "url": "https://www.minigolf-herisau.ch/", "image": "https://alarpimtsoch.sos-ch-dk-2.exoscale-cdn.com/catalog/2/3/5/4/23542bb46d7819714994891c502e4334c81e21dc_DSC05049.jpg", "openstreetmap_id": "way/27759049"}, "geometry": {"type": "Point", "coordinates": ["9.260879158973696", "47.386801002283"]}}, {"type": "Feature", "properties": {"identifier": "94756081-b14e-40f0-b019-10b73a43b713", "name": "Kutschenfahrten", "description": "Auf einer Kutschenfahrt kann das Appenzellerland bei gem\u00fctlichem Tempo herrlich erkundet werden. Ein echtes Highlight sind die Fahrten in Urn\u00e4sch oder St. Anton.\n\n\nUrn\u00e4sch:\nWerner Frick, Berg 783, 9107 Urn\u00e4sch\n+41 79 711 59 33\n\nUrn\u00e4sch:\nLillybeizli / Alp Fischegg, Ruedi Biser, Urn\u00e4sch\n+41 79 782 19 46\nbiser.ruedi@gmx.ch\n\nSt.Anton:\nKafi Anton, Werner Schirmer\n+41 71 340 02 14\n+41 78 739 70 10\nv.w.schirmer@gmail.com\n\nEnnetb\u00fchl:\nWeissk\u00fcferei & Drechslerei, Werner & Jolanda Stauffacher\n+41 71 994 10 53\ninfo@weisskueferei-stauffacher.ch\n\n\nDauer: 2-3 Stunden\nTeilnehmer: 5-20 Personen\nKosten: auf Anfrage und je nach Strecke\nOrt: im gesamten Appenzellerland", "image": "https://alarpimtsoch.sos-ch-dk-2.exoscale-cdn.com/catalog/f/5/0/0/f50085e8e6b0e61dcf30082a1e920b43b9370ee7_Computerformat_4_3_urn__sch_kutschenfahrt.jpg", "openstreetmap_id": "1098126342"}, "geometry": {"type": "Point", "coordinates": ["9.2677746", "47.3147311"]}}, {"type": "Feature", "properties": {"identifier": "9955cbb5-4d55-4455-a10f-b1e9d611776f", "name": "A.Vogel Heilpflanzenwelt \u2013 Besichtigung", "description": "<p>Nicht nur der Heilpflanzen-Schaugarten ist eine Augenweide, auch das A.Vogel Museum (Neuer&ouml;ffnung am 16. Juni 2024) und die A.Vogel Drogerie sind einen Besuch wert. Kommen Sie mit auf eine spannende F&uuml;hrung in die A.Vogel Heilpflanzenwelt und stellen Sie unter fachkundiger Anleitung Ihr eigenes Produkt zum Mitnehmen her.</p><p>Dauer: ca. 1.5 Stunden <br>Teilnehmer: bis 80 Personen <br>Kosten: bis 10 Personen CHF 140.00 pauschal, <br>&nbsp; &nbsp; &nbsp; &nbsp; &nbsp; &nbsp; &nbsp; &nbsp; ab 10 Personen CHF 14.00 pro Person, ink. Geschenk</p>", "url": "https://www.avogel.ch", "image": "https://alarpimtsoch.sos-ch-dk-2.exoscale-cdn.com/catalog/f/5/8/4/f5842208deb20cadabdf1a2e38164de6fa82e119__P0B0801__3.jpg", "openstreetmap_id": "317444208"}, "geometry": {"type": "Point", "coordinates": ["9.389339000000064", "47.395765"]}}, {"type": "Feature", "properties": {"identifier": "9a0dec1a-5f73-4e81-ad74-ca495ee40e38", "name": "Backe, backe Biber", "description": "<p>Nach einer Einf&uuml;hrung in die Tradition des Biberbackens krempeln Sie die &Auml;rmel hoch und backen Ihren eigenen kleinen Appenzeller Biber. Sobald die herrlich duftende Spezialit&auml;t goldbraun gebacken ist, d&uuml;rfen Sie diese mit nach Hause nehmen und geniessen.</p><p>Dauer: 1 bis 1 &frac12; Stunden<br>Teilnehmer: ab 10 Personen<br>Kosten: ab CHF 30.00</p><p>Orte:</p><p>Gais <br>Biber B&auml;ckerei zur Dorfm&uuml;hle <br>Stossstrasse 5, 9056 Gais <br>+41 71 793 14 44 <br>shop@mybiber.ch <br>www.mybiber.ch</p><p>Heiden <br>Caf&eacute; - Biberbeck Rohner <br>Werdstrasse 24, 9410 Heiden <br>+41 71 891 17 78 <br>info@biberbeck.ch <br>www.biberbeck.ch</p><p>Hundwil <br>B&auml;ckerei-Konditorei M&uuml;hle <br>M&uuml;hle 133, 9064 Hundwil&nbsp;<br>+41 71 367 12 46 <br>info@muehle-hundwil.ch <br>www.muehle-hundwil.ch</p><p>Teufen <br>Zitr&auml;dli-Erlebnis Waldegg <br>Waldeggstrasse 977, 9053 Teufen<br>+41 71 333 12 30 <br>www.waldegg.ch</p><p>Waldstatt <br>B&auml;ckerei-Konditorei Gerig <br>&nbsp;Dorfstrasse 26, 9104 Waldstatt <br>+41 71 351 21 26 <br>info@baeckerei-gerig.ch <br>www.baeckerei-gerig.ch</p>", "image": "https://alarpimtsoch.sos-ch-dk-2.exoscale-cdn.com/catalog/7/7/d/b/77db09fbb3dd63c52e018ac03ab069042d604033_biber.png", "openstreetmap_id": "4288392400"}, "geometry": {"type": "Point", "coordinates": ["9.53091", "47.44349"]}}, {"type": "Feature", "properties": {"identifier": "9a338e29-9ff6-44a0-a46d-1348ebbf505d", "name": "FoodTrail \"Appenzellerland per E-Bike\"", "description": "<p>Erleben Sie das Appenzellerland auf zwei R&auml;dern: urspr&uuml;ngliche Natur, regionale K&ouml;stlichkeiten und herzliche Gastfreundschaft erwarten Sie auf dieser genussvollen E-Bike-Schnitzeljagd. Zwischen steilen Anstiegen und traumhaften Ausblicken entdecken Sie echte Appenzeller Tradition &ndash; &laquo;S&ouml;nd Willkomm&raquo;!</p><ul><li>5 Genuss-Stationen mit Essen oder Trinken</li><li>Gemeinsamer R&auml;tselspass. Am Startpunkt erh&auml;ltst du das erste R&auml;tsel</li><li>Appenzeller Mittelland und interessante Orte erleben</li><li>Spannendes &uuml;ber Region und Geschichte erfahren</li></ul><p>Dauer: ca. 6-7 Stunden, reine Fahrzeit: 2.5 Stunden. Sie sind frei in der zeitlichen Gestaltung. Wegstrecke: ca. 29km, H&ouml;henmeter auf / ab: 880m / 880m</p><p>Kosten: CHF 69.00 pro Erwachsene / E-Bike Miete f&uuml;r den ganzen Tag CHF 70.00</p><p>Saison: 1. Mai bis 31. Oktober</p><p>Startpunkt: <a href=\"https://maps.app.goo.gl/A3mfEcXf126Dn72e7\">Hotel zur Linde, B&uuml;hlerstr. 87, 9053 Teufen</a><br>Hast du bei&nbsp;<a href=\"https://zeitreisen.ch/ebike-mieten\" target=\"_blank\" rel=\"noopener\">TOPAZ</a>&nbsp;ein E-Bike gemietet? Dann hole dein E-Bike 30 Min. vor dem Start dort ab:&nbsp;<a href=\"https://maps.app.goo.gl/E9d6J133LikqQ4XQ9\" target=\"_blank\" rel=\"noopener\">TOPAZ, Hauptstrasse 59, 9053 Teufen</a>. Du bist dann in 10 Min. Fahrzeit beim Startpunkt Hotel zur Linde.</p><p>Weitere Informationen finden Sie unter: <a href=\"https://www.foodtrail.ch/appenzellerland-per-e-bike\" target=\"_blank\" rel=\"noopener noreferrer\">foodtrail.ch</a></p><p>M&ouml;chten Sie das Appenzellerland lieber zu Fuss erkunden? Hier geht's zum <a href=\"https://appenzellerland.ch/de/erleben/erlebniskarte/detail/foodtrail-appenzellerland-zu-fuss-3a15b067-e781-4415-af3e-ea0e6db142a6.html\" target=\"_blank\" rel=\"noopener noreferrer\">Foodtrail zu Fuss</a></p>", "url": "https://www.foodtrail.ch/appenzellerland-per-e-bike", "image": "https://alarpimtsoch.sos-ch-dk-2.exoscale-cdn.com/catalog/1/c/9/b/1c9b1ffc136896f1d7a1123703d58fcdbf7dc318_FoodTrail__Titelbild_.jpg"}, "geometry": {"type": "Point", "coordinates": ["9.3927675", "47.3867698"]}}, {"type": "Feature", "properties": {"identifier": "9bbdfad5-1e4e-456e-8b90-575f42b9866b", "name": "Druckwerkstatt Speicher", "description": "<p>In einem sehr sch&ouml;nen Atelier wird die Geschichte des Steindrucks und der Radierung lebendig. Erfahren Sie wie fr&uuml;her gedruckt worden ist und wie diese Techniken heute von K&uuml;nstlerinnen und K&uuml;nstlern eingesetzt werden. Bei einem Werkstattbesuch lernen Sie das alte Handwerk des Steindrucks kennen. Wie hatte man vor der Zeit des Digital-und Offsetdrucks kleine und grosse Bilder gedruckt? Und Sie sehen, wie auch heute noch der Steindruck in der Kunst eingesetzt wird. Dauer: 1 bis 2 Stunden Teilnehmer: 5 bis 20 Personen Kosten: CHF 150.00 &ndash; CHF 250.00 pro F&uuml;hrung<br><br></p>", "url": "http://www.dwsp.ch/", "image": "https://alarpimtsoch.sos-ch-dk-2.exoscale-cdn.com/catalog/f/8/1/f/f81fa8b1f3a9d9a8a4c9d2e207655d70f3b2ad8d_Werkstatt.jpg", "openstreetmap_id": "196954628"}, "geometry": {"type": "Point", "coordinates": ["9.43718", "47.40658"]}}, {"type": "Feature", "properties": {"identifier": "ac436c8b-75ef-4ee4-964c-07ff34980cec", "name": "Hans Sturzenegger - Hackbrett und Witz", "description": "<p>Auch weiss er viel &uuml;ber den Bau und die Geschichte des Hackbretts sowie Appenzeller Br&auml;uche zu erz&auml;hlen. Vor einigen Jahren wurde Hans Sturzenegger in Gais an einem Witz-Slam zum 1. Witzk&ouml;nig vom Appenzellerland ernannt.</p><p>Nebst einem Hackbrett-Soloauftritt bestehen, bei gr&ouml;sseren Gruppen oder auf Wunsch, weitere Auftrittsm&ouml;glichkeiten:</p><ul><li>Hackbrett und Handorgel</li><li>Hackbrett, Handorgel, Bassgeige</li><li>Hackbrett, Handorgel, Geige, Bassgeige</li><li>Talerschwingen und Schellensch&ouml;ttlen</li></ul>", "url": "http://www.hackbrettmusik.ch", "image": "https://alarpimtsoch.sos-ch-dk-2.exoscale-cdn.com/catalog/1/c/5/8/1c589fdb89b97d5e15baa6ad80a2f41acb85f77a_DSC08407.JPG", "openstreetmap_id": "161965110"}, "geometry": {"type": "Point", "coordinates": ["9.4487303", "47.4204203"]}}, {"type": "Feature", "properties": {"identifier": "ae7dac70-d70b-4187-b11c-63ce5dc842af", "name": "Auenland", "description": "Das Auenland bietet eine Plattform f\u00fcr echte Begegnungen, gemeinsame Erlebnisse und den direkten sozialen Austausch eingebettet in die H\u00fcgel des Appenzellerlands. Bei uns erleben Sie Raum und Zeit in privater, einzigartiger Atmosph\u00e4re. 50ger Jahre Industrie-Charme trifft auf nat\u00fcrliche Fauna und Flora, lichtdurchflutete Werkhallen mit Aus- und Weitblick erwarten Sie. Unsere R\u00e4ume lassen sich miteinander verbinden und weit \u00f6ffnen. Wir kombinieren Neues mit Altbew\u00e4hrtem. Wir setzen auf Design, moderne Veranstalttungstechnik, eine flexible Raumgestaltung und richtig guten Kaffee. R\u00e4ume f\u00fcr den Dialog, Wohlbefinden und Inspiration \u2014 zum Arbeiten oder zum Feiern \u2014 drinnen und draussen.", "url": "https://auen-land.ch", "image": "https://alarpimtsoch.sos-ch-dk-2.exoscale-cdn.com/catalog/4/0/1/8/40185d607730cae85218ec948c62ed619f04b210_IMG_4757.jpg", "openstreetmap_id": "way/41146254"}, "geometry": {"type": "Point", "coordinates": ["9.3560887", "47.3599816"]}}, {"type": "Feature", "properties": {"identifier": "b1812f24-e14c-424b-9751-0eefea7459ec", "name": "Stiftung historische Appenzeller Bahnen - Erlebnisfahrten", "description": "<p><strong>Charterfahrten</strong> <br>Auf Anfrage organisieren wir f&uuml;r Ihren individuellen Gesch&auml;ftsanlass, Vereins- oder Familienausflug eine Extrafahrt mit historischem Rollmaterial, das Catering im Zug und ein erg&auml;nzendes Rahmenprogramm. Ein einmaliges Erlebnis ist garantiert! <br><a title=\"HTML Code Generator\" href=\"https://www.stiftungab.ch/nostalgiefahrt.html#Interesse\" target=\"_blank\" rel=\"noopener\">Zur Offertanfrage</a></p><p>&nbsp;</p>", "url": "https://www.stiftungab.ch/Stiftung.html", "image": "https://alarpimtsoch.sos-ch-dk-2.exoscale-cdn.com/catalog/5/e/c/9/5ec95808720d651d4d88be3e12d9a1994f4c3c76_GAW_S_Drissgi__2.jpg", "openstreetmap_id": "10004560606"}, "geometry": {"type": "Point", "coordinates": ["9.40956", "47.32856"]}}, {"type": "Feature", "properties": {"identifier": "b607aa5b-eac3-4000-bf3c-8b384bb6889a", "name": "B\u00e4ren Hundwil \u2013 das Seminarhaus mit Stil", "description": "Das Seminarhaus liegt inmitten der wundersch\u00f6nen Appenzeller Landschaft. Die idyllische Lage sorgt f\u00fcr eine entspannte und inspirierende Atmosph\u00e4re. Dar\u00fcber hinaus bietet die Umgebung zahlreiche M\u00f6glichkeiten f\u00fcr Outdoor-Aktivit\u00e4ten und Erholung, die f\u00fcr ein abwechslungsreiches Rahmenprogramm sorgen k\u00f6nnen.\n\nDas historische Geb\u00e4ude wurde sorgf\u00e4ltig renoviert und mit zeitgem\u00e4sser Technologie ausgestattet, um den Bed\u00fcrfnissen moderner Seminare gerecht zu werden. Die Kombination aus traditionellem Charme und modernem Komfort wirkt einladend und strahlt Wertsch\u00e4tzung und Bewusstheit aus.\n\nSie w\u00e4hlen die f\u00fcr Sie passende Form der Gastronomie: \n\u2013 Bringen Sie den Caterer Ihrer Wahl mit oder wir empfehlen Ihnen einen Caterer.\n\u2013 Nutzen Sie die Gastrok\u00fcche f\u00fcr ein interaktives Teamkochen oder bringen Sie eine eigene Kochcrew mit.\n\u2013 Wechseln Sie \u00fcber die Mittagspause die vier W\u00e4nde und lassen Sie es sich in einem lokalen Wirtshaus gut gehen. \n\nGerne unterst\u00fctzen wir Sie dabei, die passende Verpflegung f\u00fcr Ihren Anlass zu finden. \nJe nachdem, welche R\u00e4ume Sie mieten, steht Ihnen unsere Profi-Gastro-Infrastruktur zur Verf\u00fcgung \u2013 von der leistungsf\u00e4higen Kolben-Kaffeemaschine \u00fcber die vollausgestattete K\u00fcche bis zu Bar und Weinkeller.\n\nKapazit\u00e4t: Je nach Raum und Art der Veranstaltung, f\u00fcnf bis 500 Personen.", "url": "https://baerenhundwil.ch/", "image": "https://alarpimtsoch.sos-ch-dk-2.exoscale-cdn.com/catalog/f/f/c/8/ffc84cf480f2c0338bcbf62c505d01eba2cabd2e_B__ren4.jpg", "openstreetmap_id": "way/192142262"}, "geometry": {"type": "Point", "coordinates": ["9.318851348465486", "47.3657193"]}}, {"type": "Feature", "properties": {"identifier": "bbb29357-d738-4311-afa4-b41b4853de50", "name": "Eventk\u00fcche Urn\u00e4sch - Kochen und Grillieren", "description": "Die Eventk\u00fcche Urn\u00e4sch \u2013 ein Ort besonderer Art f\u00fcr Ihren Anlass. Selber kochen, mit einem Koch der Eventk\u00fcche oder unseren Catering Partnern. Kreieren Sie Ihr Menu selber oder lassen Sie sich inspirieren von den tollen Ideen unsere K\u00f6che. Sie haben die Wahl \u2013 damit Ihr Anlass zu einem unvergesslichen Ereignis wird. \nAuch Seminare, Workshops oder Weber's Grill Academy sind hier m\u00f6glich. Nicht nur Innen, auch im naturnahen Garten bietet die Eventk\u00fcche Besonderes.", "url": "http://www.eventkueche.ch", "image": "https://alarpimtsoch.sos-ch-dk-2.exoscale-cdn.com/catalog/3/b/8/6/3b8634223b3bc9a0977b34562b82cfd443c3ea90_urn__sch_eventk__che.jpg", "openstreetmap_id": "314852972"}, "geometry": {"type": "Point", "coordinates": ["9.2782799", "47.3104766"]}}, {"type": "Feature", "properties": {"identifier": "beac9585-5bc1-43c5-9809-369dbfc7854e", "name": "Traditionelle Degustations-Tour", "description": "<p>Lassen Sie sich auf einem Rundgang entf&uuml;hren in luftige H&ouml;hen (Kirchturm) und versteckte Winkel im Biedermeierdorf Heiden. Dabei lernen Sie nicht nur das Dorf kennen, sondern d&uuml;rfen typische Appenzeller Spezialit&auml;ten schlemmen. Eine schmackhafte Angelegenheit f&uuml;r das ganze Gem&uuml;t. Dauer: 2 Stunden Teilnehmer: min. 10 / max. 25 Personen Kosten: CHF 38.00 pro Person</p>", "url": "https://appenzellerland.ch/de/", "image": "https://alarpimtsoch.sos-ch-dk-2.exoscale-cdn.com/catalog/7/4/3/e/743e41d335db849c190a005b363cbf002a663ca6_luft.jpg", "openstreetmap_id": "8364473311"}, "geometry": {"type": "Point", "coordinates": ["9.536593079583328", "47.446056806648365"]}}, {"type": "Feature", "properties": {"identifier": "c48d77f1-ab25-46ac-b47b-ea849de6f818", "name": "Lama-Ziit GmbH", "description": "Wollen Sie sich vom Lama-Virus anstecken lassen? Spazierg\u00e4nge mit Lamas sind ein besonderes Erlebnis f\u00fcr Jung und Alt. Um ein Lama zu f\u00fchren, braucht es keine Vorkenntnisse. Mit wenigen zu beachtenden Regeln lassen sich die Tiere problemlos von Kindern und Erwachsenen am F\u00fchrstrick leiten. Ihre ruhige Art hilft, selber ruhig zu werden; der aufmerksame Blick lenkt den eigenen Blick auf die Sch\u00f6nheiten und Details in der Umgebung. \n\nDie Tiere sind in einem gem\u00e4chlichen Tempo unterwegs, was es auch Menschen mit leichter Gehbehinderung erm\u00f6glicht, sie zu f\u00fchren. Lamas sind \u00e4usserst vorsichtig im Umgang mit Menschen und eignen sich daher ausgezeichnet f\u00fcr Natur- und Tiererlebnisse.\n\nLernen Sie diese wunderbaren Tiere auf einer Feierabendtour kennen. Buchen Sie unser Angebot f\u00fcr einen speziellen Familienausflug, Teamanlass oder Kindergeburtstag und verbringen Sie mehrere Stunden mit den Tieren. Zum Beispiel auf einem Trekking mit einer Pause am Feuer f\u00fcr gem\u00fctliches Beisammensein.\n\nDie Teilnehmerzahl ist bei einer offenen Gruppe auf acht Personen beschr\u00e4nkt.\nBei einer geschlossenen Gruppe sind 20 Personen m\u00f6glich.", "url": "https://lama-ziit.ch/", "image": "https://alarpimtsoch.sos-ch-dk-2.exoscale-cdn.com/catalog/9/5/f/8/95f8fb7155f47484c90d7da2c369535e4264c6b1_3X7A7515_edited.jpg", "openstreetmap_id": "node/3885436527"}, "geometry": {"type": "Point", "coordinates": ["9.264172911643984", "47.39049440343878"]}}, {"type": "Feature", "properties": {"identifier": "d28b2332-b09c-4e42-b4eb-4485ca5c8015", "name": "Pumptrack Urn\u00e4sch", "description": "\u200bEinen Pumptrack zu befahren, bedeutet vor allem auf einem endlos angelegten Track Spass und Freude an der Bewegung zu erfahren. Dabei gilt es, den Kurs mit seinen Wellen, Kurven und allenfalls Spr\u00fcngen, durch schwungvolle Auf- und Abbewegungen \u2013 dem sogenannten \u00abPumpen\u00bb \u2013 aktiv zu befahren und dabei Geschwindigkeit zu generieren ohne zu pedalen oder anzuschieben.", "url": "https://www.pumptrack-urnaesch.ch/", "image": "https://alarpimtsoch.sos-ch-dk-2.exoscale-cdn.com/catalog/7/6/c/6/76c62652cad62698b9683a70543482f92e10a5ba_Urn__sch_Pumptrack.jpg", "openstreetmap_id": "1138885251"}, "geometry": {"type": "Point", "coordinates": ["9.285464", "47.315164"]}}, {"type": "Feature", "properties": {"identifier": "e617d108-7121-4f50-a7d3-18cdbdd2c097", "name": "Appenzeller Heilbad", "description": "Mitten in der voralpinen H\u00fcgellandschaft zwischen Bodensee und S\u00e4ntis wird seit \u00fcber 300 Jahren Quellwasser mit wertvollen Mineralstoffen und Spurenelementen genutzt.\nHeute bietet das Appenzeller Heilbad eine vielf\u00e4ltige B\u00e4der- und Saunalandschaft mit Innen- und Aussenbecken, Massagen und Kosmetikbehandlungen, Physiotherapie und ein modernes Fitnesscenter. Geniessen\nSie erholsame Stunden mitten in der Natur!", "url": "https://www.heilbad.ch/", "image": "https://alarpimtsoch.sos-ch-dk-2.exoscale-cdn.com/catalog/1/3/0/1/1301a48012b1dbd62ea57208fefbb0550855657e_23022_2087_Aussenbad_Einlauf_kleiner.jpg", "openstreetmap_id": "199064816"}, "geometry": {"type": "Point", "coordinates": ["9.5160354", "47.4308669"]}}, {"type": "Feature", "properties": {"identifier": "e69f8a28-c1b9-4f66-a1ac-3aa186b659d5", "name": "H\u00e4ngebr\u00fccke Grub", "description": "Seit April 2019 sind die zwei D\u00f6rfer Grub AR und Grub SG durch eine attraktive, 180 Meter lange H\u00e4ngebr\u00fccke \u00fcber den Mattenbach wieder miteinander verbunden. Ein sehr beliebter  Wanderweg  \u00fcber  die  Kantonsgrenze  von  der Frauenr\u00fcti Grub AR zum Gebiet Gr\u00fcnau Grub SG ist somit wieder durchgehend erschlossen. \n\nDie Br\u00fccke ist nur f\u00fcr Schwindelfreie. Der h\u00f6chste Punkt der Br\u00fccke findet sich rund 40 Meter \u00fcber der Schlucht. \n\nVerbinden Sie die Besichtigung mit einer Wanderung!\nHier finden Sie Wandervorschl\u00e4ge: <a href=\"http://www.appenzellerland.ch/rundtourheiden/\" target=\"_blank\">Rundtour Heiden</a> oder <a href=\"https://www.appenzellerland.ch/rundwanderungheiden/\" target=\"_blank\">Rundwanderung Heiden</a> ", "image": "https://alarpimtsoch.sos-ch-dk-2.exoscale-cdn.com/catalog/d/e/c/1/dec15d25410f00741d0694b11188711873b4b9e7_20_08_16_2035.jpg", "openstreetmap_id": "736603116"}, "geometry": {"type": "Point", "coordinates": ["9.5187008", "47.4505188"]}}, {"type": "Feature", "properties": {"identifier": "e979493b-9f3b-40fe-a984-b25bac698280", "name": "Kulturwerkstatt - Brauchtum, Zauren und Musik", "description": "Im grossz\u00fcgigen Werkstattgeb\u00e4ude von Werner Alder, Hackbrettbauer und Mitglied der bekannten Streichmusik Alder-Dynastie, werden unterhaltsame Vortr\u00e4ge und F\u00fchrungen angeboten. W\u00e4hrend diesen erhalten Sie Einblicke in die faszinierende Welt des Hackbrettbaus, ins hiesige Brauchtum und erleben die Klangwelt der einzigartigen Appenzeller Volksmusik. Neben der Musik k\u00f6nnen Sie auch das Jodeln und Talerschwingen hautnah erleben.\nAbgerundet wird die F\u00fchrung mit einem Werkstattrundgang. Tauchen Sie ein und erfahren Sie mit all Ihren Sinnen ein echtes St\u00fcck Brauchtumskultur!\n\nAngebote Gruppenf\u00fchrungen:\n\n- Vortrag Hackbrettbau\n- Vortrag Hackbrettbau und Appenzeller Brauchtum (mit zus\u00e4tzlichen Infos zum Brauchum, Musik und Talerschwingen)\n- Kurs Jodeln und Talerschwingen\n- kommentiertes Konzert \n   Appenzeller Musik \n\nAuf Wunsch verk\u00f6stigt das Team der Kulturwerkstatt Sie gerne mit Spezialit\u00e4ten aus der Region oder bietet einen Ap\u00e9ro an.\n\nDauer: 1 bis 1 1/2 Stunden\nTeilnehmer: ab 10 Personen\nKosten: ab CHF 350.00", "url": "http://www.kulturwerkstatt-appenzellerland.ch", "image": "https://alarpimtsoch.sos-ch-dk-2.exoscale-cdn.com/catalog/2/1/2/8/2128015a7939ef266ea079b32ea5f1ed37e9d599_herisau_kulturwerkstatt.jpg", "openstreetmap_id": "3244507235"}, "geometry": {"type": "Point", "coordinates": ["9.285102000000052", "47.3877396"]}}, {"type": "Feature", "properties": {"identifier": "eedf77d6-d3b8-4df8-bb7d-46a2d726b924", "name": "Stiftung Kinderdorf Pestalozzi", "description": "Entdecken Sie das Kinderdorf Pestalozzi in Trogen, wo sich Geschichte und Gegenwart auf faszinierende Weise begegnen. Starten Sie das Erlebnis mit einer interaktiven Ausstellung, die Sie zu den Urspr\u00fcngen der ZEWO-zertifizierten Stiftung zur\u00fcckf\u00fchrt. Verfolgen Sie die Entwicklung des Kinderdorfs von seiner Gr\u00fcndungsidee nach dem Zweiten Weltkrieg bis zur renommierten NGO von heute. \n\nDie Erlebniswelt im Kinderdorf Pestalozzi bietet f\u00fcr Gross und Klein viel Platz f\u00fcr Kreativit\u00e4t, spielerisches Lernen und Erholung. Die Welt setzt sich zusammen aus vielf\u00e4ltigen Spieltr\u00e4umen und R\u00fcckzugsorten, die erkundet werden k\u00f6nnen. Auch f\u00fcr Eltern und Begleitpersonen sorgen unsere Spieltr\u00e4ume f\u00fcr Unterhaltung und interessante Erkenntnisse. Der Krimi-Trail vermittelt spannende Fakten \u00fcber Kinderrechte, w\u00e4hrend die Riesenkugelbahn, der Balancierpfad oder die bunte Spinnerei (Kletternetz) die Geschicklichkeit testen. \n\nFalls Sie noch etwas Hunger oder Durst versp\u00fcren sollten, bietet die Cafeteria mit Terrasse eine Auswahl an erfrischenden Getr\u00e4nken und Snacks.\n\nDas Kinderdorf Pestalozzi liegt hoch \u00fcber dem Bodensee, umgeben von den sanften H\u00fcgeln des Appenzellerlands. Es befindet sich nur 20 Minuten von St. Gallen entfernt \u2013 abseits jeglicher Hektik, in gr\u00fcner Natur und bequem mit der Appenzeller Bahn erreichbar. Alle Freizeitaktivit\u00e4ten, ausgenommen der Ausstellung, sind kostenlos und das ganze Jahr hindurch zug\u00e4nglich.\n\n<a href=\"https://www.pestalozzi.ch/dorf \" target=\"_blank\">Weitere Informationen und Preisdetails finden Sie hier.</a>", "url": "https://dorf.pestalozzi.ch/", "image": "https://alarpimtsoch.sos-ch-dk-2.exoscale-cdn.com/catalog/a/b/3/9/ab39e3fbff091b8b181c2d6bcc8a2763c8496d46_rsf_skp_luft_03__2.jpg", "openstreetmap_id": "761032565"}, "geometry": {"type": "Point", "coordinates": ["9.46005", "47.4033"]}}, {"type": "Feature", "properties": {"identifier": "f16a6a6a-fb2b-4d3f-b778-52934972a4aa", "name": "Appenzeller Brauchtumsmuseum - Museums-Detektiv", "description": "Beweisen Sie Ihr K\u00f6nnen und l\u00f6sen Sie knifflige R\u00e4tsel und Aufgaben \u00fcber das Appenzeller Brauchtum. Am Schluss wartet die grosse Schatztruhe mit einer \u00dcberraschung f\u00fcr alle R\u00e4tselfreunde.\n\nDer R\u00e4tselspass ist f\u00fcr Familien/Einzelpersonen gratis zuz\u00fcglich Museums-Eintritt.", "url": "https://www.museum-urnaesch.ch/angebote/museums-detektiv", "image": "https://alarpimtsoch.sos-ch-dk-2.exoscale-cdn.com/catalog/8/c/d/4/8cd41bf79879b531d39175b51034c3023ea79896_urn__sch_brauchtumsmuseum_detektiv.jpg", "openstreetmap_id": "node/299122250"}, "geometry": {"type": "Point", "coordinates": ["9.282742", "47.3172728"]}}, {"type": "Feature", "properties": {"identifier": "f92f1331-98da-4b26-a9f0-6febab1c7009", "name": "Kirchturm Heiden", "description": "<p>Der erste Kirchenbau in Heiden erfolgte im Jahre 1652, nach der Abl&ouml;sung von der Mutterkirche in Thal. Durch die Verdoppelung der Einwohnerzahl auf 2300 Seelen wurde 1836 der Ruf nach einer gr&ouml;sseren Kirche immer lauter. Am 8. Mai 1838 wurde mit dem Turmbau nordwestlich der alten Kirche begonnen. <br>Die Sicht vom Kirchturm in Heiden reicht &uuml;ber den Bodensee bis weit &uuml;bers deutsche und &ouml;sterreichische Ufer hinaus. Bei ganz guter Sicht sieht man bis Ulm.</p><p>Der Kirchturm Heiden ist von Mai - 1. November ge&ouml;ffnet.</p><p>Die evangelische Kirchgemeinde hat im Jahr 2024 zusammen mit Schulklassen aus Heiden eine grosse &laquo;Ch&uuml;gelibahn&raquo; gebaut. Sie kann zu den &uuml;blichen Turm&ouml;ffnungszeiten bespielt werden.</p>", "url": "https://www.heiden.ch/sehenswertes/5591", "image": "https://alarpimtsoch.sos-ch-dk-2.exoscale-cdn.com/catalog/e/3/9/1/e39187248341467f3398553eb51d602125db5d7e_evangelische_kirche_kirchturm_luftbild.jpg", "openstreetmap_id": "way/199215491"}, "geometry": {"type": "Point", "coordinates": ["9.534995751998174", "47.4450565"]}}, {"type": "Feature", "properties": {"identifier": "ff310ad0-ae50-4da7-92fc-977b310ce2d2", "name": "Appenzeller Schauk\u00e4serei - Fondue-Kochkurs", "description": "Dann haben Sie in der Appenzeller Schauk\u00e4serei die grosse und freie Wahl! Sie stellen sich Ihre eigene Fondue-Mischung an der K\u00e4setheke zusammen, suchen die gew\u00fcnschten Zutaten aus und kochen unter Begleitung einer unserer fachkundigen Gastgeberinnen Ihr selbst zusammengestelltes Fondue direkt am Tisch.\n\nBuchbar ab 6 Personen\nWann: t\u00e4glich, Voranmeldung notwendig\nDauer: rund 45 Minuten (ohne Esssenszeit)\nKosten: ab CHF 36.00", "url": "http://www.schaukaeserei.ch/", "image": "https://alarpimtsoch.sos-ch-dk-2.exoscale-cdn.com/catalog/6/9/e/7/69e718be297e839a9a001d14ad9b27ac6976a4e3_Fondue_500x380.jpg", "openstreetmap_id": "1436691275"}, "geometry": {"type": "Point", "coordinates": ["9.344712", "47.373415"]}}, {"type": "Feature", "properties": {"identifier": "ff792e1a-e2f9-4590-b766-eb1cbbdd0d1a", "name": "NaturErlebnispark Schw\u00e4galp/S\u00e4ntis", "description": "Der NaturErlebnispark Schw\u00e4galp/S\u00e4ntis und seine Themenwege bringen Ihnen eine einzigartige Naturlandschaft n\u00e4her. Schreiten Sie durch die Geschichte geheimnisvoller Moore, holen Sie Luft in zauberhaften W\u00e4ldern und beobachten Sie seltene Tiere und Pflanzen von einer der sch\u00f6nsten Naturkulissen Europas. Schritt und Tritt erfahren Sie mehr \u00fcber das Leben und die Kultur auf den Alpen. Die Erdgeschichte, die \u00fcber 1000-j\u00e4hrige Tradition der Schw\u00e4galp als Weideland, der Tourismus, der Naturschutz und vieles mehr: auf reich bebilderten Tafeln thematisiert f\u00fcr kleine und grosse Entdecker.\nUmweltlehre, Forschung, Tourismus: Der NaturErlebnispark bringt die verschiedensten Interessen in Einklang. Er f\u00f6rdert die Auseinandersetzung mit der Natur und Kultur und macht Zusammenh\u00e4nge greifbar. Und er soll vor allem eins: Ihnen ganz pers\u00f6nliches Naturerlebnis erm\u00f6glichen. Geniessen Sie eine gef\u00fchrte Exkursion, wenn Sie noch mehr erleben und erfahren wollen, dann nehmen Sie an speziellen Erlebnistagen und Entdeckungsreisen teil. Zum NaturErlebnispark sind umfassende Dokumentationen erh\u00e4ltlich.", "url": "http://www.naturerlebnispark.ch/", "image": "https://alarpimtsoch.sos-ch-dk-2.exoscale-cdn.com/catalog/f/5/1/a/f51a537587de35f6e64cf4d635c05caaa5358b26_Computerformat_4_3_NaturErlebnispark.jpg", "openstreetmap_id": "1218076743"}, "geometry": {"type": "Point", "coordinates": ["9.3197302", "47.2561384"]}}]}