{"type": "FeatureCollection", "features": [{"type": "Feature", "properties": {"identifier": "bf46a4a9-7832-4beb-92f8-30305cb12610", "name": "Hoher Kasten Drehrestaurant und Seilbahn AG", "description": "<p>In nur acht Minuten bringt Sie die Seilbahn Hoher Kasten von Br&uuml;lisau direkt auf 1794 m &uuml;. M., vorbei an idyllischen H&uuml;gellandschaften und typischen Appenzeller Bauernh&auml;usern. Oben angekommen schweift Ihr Blick &uuml;ber sechs L&auml;nder (Deutschland, &Ouml;sterreich, Schweizer Alpen und Mittelland, Italien, Frankreich). Die grenzenlose 360&deg;-Aussicht erleben Sie zum einen auf dem Europa-Rundweg, der einmal um den Gipfel f&uuml;hrt. Zum anderen im einzigen Drehrestaurant der Ostschweiz, wo sich w&auml;hrend einer Stunde Ihr Ausblick immer wieder &auml;ndert. Neben einmaligen Ausblicken, bietet Ihnen das Drehrestaurant ein ausgezeichnete Gastronomie mit einheimischen und saisonale Speisen. Bleibende Eindr&uuml;cke hinterl&auml;sst auch der Alpengarten, das Pflanzenparadies auf dem Gipfel. &Uuml;ber 300 Pflanzenarten entfalten dort Ihre farbige Pracht. Der Hohe Kasten ist auch idealer Ausgangspunkt f&uuml;r diverse Wanderungen in alle Richtungen. Die Seilbahn und die Gastronomie ist ganzj&auml;hrig von April bis Februar ge&ouml;ffnet. Die Betriebszeiten finden Sie unter hoherkasten.ch/seilbahn Kinder bis und mit 15 Jahre fahren mit der Seilbahn Hoher Kasten gratis. Die Seilbahn Hoher Kasten und das Drehrestaurant ist komplett barrierefrei zug&auml;nglich.<br><br></p>", "url": "https://www.hoherkasten.ch/", "image": "https://alarpimtsoch.sos-ch-dk-2.exoscale-cdn.com/catalog/9/c/1/4/9c1427955917142b69c99ab749eece8c46f4ed00_Armando_Branchi_Alpstein.jpg", "openstreetmap_id": "210985230"}, "geometry": {"type": "Point", "coordinates": ["9.456739425659181", "47.296454615318034"]}}, {"type": "Feature", "properties": {"identifier": "f2a68a9a-d6fb-4239-9df9-c9d236873720", "name": "Luftseilbahn Wasserauen-Ebenalp AG", "description": "Man sp\u00fcrt sie noch heute. Die Urkraft des Berges.\nAn der Felswand beim Aescher und im Innern der Wildkirchlih\u00f6hlen\n\nEs ist der Ort, an dem alles begann. Die Quelle des Alpsteintourismus. Dort, wo das Berggasthaus Aescher steht. Es geh\u00f6rt zu den \u00e4ltesten der Schweiz. Bereits um 1800 begannen Eremiten und Sennen auf der Alp Aescher G\u00e4ste zu verpflegen. Heute ist das Gasthaus weit bekannt. F\u00fcr seine Atmosph\u00e4re und seine Gastfreundschaft. Angeschmiegt an den Felsen, eins mit dem Berg und der imposanten Natur. Ein Bild, das um die Welt geht.\n\nNicht weniger gross ist die Anziehungskraft des nahegelegenen Wildkirchli. Pr\u00e4historische Funde machen die Wildkirchlih\u00f6hlen 1904 ber\u00fchmt. Die Ausgrabungen beweisen erstmals, dass Neandertaler auch im Alpenraum waren. Und dann w\u00e4ren da noch die Spuren der H\u00f6hlenb\u00e4ren.\n\nAber auch im Winter hat die Ebenalp, die Sonnenterrasse des Alpsteins, etwas zu bieten.\n\nRaus aus dem grauen Alltag, rein in das sonnige Vergn\u00fcgen.\nLeichtf\u00fcssig durch die schneegepuderte Landschaft, die Sonne im Gesicht und der Blick \u00fcber den Alpstein \u2013 so unbeschwert kann der Winter sein. Auf dem Panoramaweg und der Schneeschuhroute bleibt der Genuss gewiss nicht auf der Strecke.\nBeide Wanderungen f\u00fchren von der Bergstation Ebenalp vorbei am Berggasthaus. Sonnenhungrige sowie Erholungssuchende sind hier gut bedient.\n\nIm Skigebiet Ebenalp-Horn gleitet der Stresspegel ebenfalls talw\u00e4rts. Kurze Anfahrtswege, gen\u00fcgend Parkpl\u00e4tze und geringe Wartezeiten lassen aufatmen. Bei uns gilt: Herunterfahren und Entschleunigen. Genau das richtige f\u00fcr ein locker-flockiges Schneevergn\u00fcgen im Appenzellerland.\nUnser Naherholungs-Skigebiet trumpft mit abwechslungsreichen Abfahrten in allen Schwierigkeitsgraden f\u00fcr die ganze Familie.", "url": "https://www.ebenalp.ch", "image": "https://alarpimtsoch.sos-ch-dk-2.exoscale-cdn.com/catalog/9/c/6/4/9c64358a5e70beeba512003e47b2cb43f2af05cd_Aescher.jpg", "openstreetmap_id": "way/25204305"}, "geometry": {"type": "Point", "coordinates": ["9.428586959838869", "47.2866086580885"]}}]}